{"type":"FeatureCollection","name":"landuse","features":[{"type":"Feature","properties":{"mvt_id":36021243,"class":"college"},"geometry":{"type":"MultiPolygon","coordinates":[[[[4.903330206871033,52.36779443981849],[4.903566241264343,52.36765687019216],[4.903791546821594,52.36752257561988],[4.903845191001892,52.367486545299315],[4.90365743637085,52.36739810711517],[4.903630614280701,52.367414484570034],[4.903276562690735,52.367253985250535],[4.90290105342865,52.367447239461555],[4.903330206871033,52.36779443981849]],[[4.903340935707092,52.36756515686993],[4.903582334518433,52.367437412996644],[4.903727173805237,52.367506198205085],[4.903464317321777,52.36766342113646],[4.903340935707092,52.36756515686993]]]]}},{"type":"Feature","properties":{"mvt_id":43667232,"class":"zoo"},"geometry":{"type":"MultiPolygon","coordinates":[[[[4.913517236709595,52.36593721371503],[4.912015199661255,52.36646785771191],[4.912610650062561,52.367116413941126],[4.912605285644531,52.367136067011565],[4.912734031677246,52.36726708725765],[4.912744760513306,52.36729001576077],[4.912771582603455,52.36728674026106],[4.913361668586731,52.367932009016414],[4.916247725486755,52.36695591353867],[4.916709065437317,52.36746689238481],[4.9211186170578,52.36600927685406],[4.921397566795349,52.36572102359264],[4.921268820762634,52.36540656334422],[4.920544624328613,52.364856252523566],[4.918758273124695,52.36415852716385],[4.913517236709595,52.36593721371503]]]]}},{"type":"Feature","properties":{"mvt_id":105800883,"class":"military"},"geometry":{"type":"MultiPolygon","coordinates":[[[[4.920957684516907,52.37486232173295],[4.920807480812073,52.374488977211094],[4.920769929885864,52.37449552714217],[4.920743107795715,52.37441692790497],[4.920684099197388,52.37442675281728],[4.920646548271179,52.374321953640035],[4.91811990737915,52.3727106349853],[4.9180930852890015,52.37272701047055],[4.917948246002197,52.37264185788092],[4.917814135551453,52.372717185180136],[4.917814135551453,52.37272373537399],[4.917840957641602,52.37274011085439],[4.917658567428589,52.372851463960096],[4.91762101650238,52.37282526325459],[4.917315244674683,52.37299884263891],[4.917234778404236,52.373008667866664],[4.916902184486389,52.37320844702392],[4.916896820068359,52.37325102279307],[4.916574954986572,52.37343770068102],[4.916440844535828,52.37343770068102],[4.915856122970581,52.37378485395359],[4.915834665298462,52.373850354265066],[4.915786385536194,52.37387982937353],[4.915786385536194,52.3739289545106],[4.915931224822998,52.374027204620816],[4.916011691093445,52.37404357961793],[4.916172623634338,52.37414510446456],[4.916081428527832,52.37420077928136],[4.916762709617615,52.37463307547071],[4.916537404060364,52.375091566805224],[4.916709065437317,52.37553040405284],[4.919262528419495,52.375147240428895],[4.920351505279541,52.37495401990465],[4.920957684516907,52.37486232173295]]],[[[4.915233850479126,52.374515176929634],[4.915217757225037,52.37449552714217],[4.914788603782654,52.3743940031011],[4.914359450340271,52.375019518482155],[4.914407730102539,52.37512759092267],[4.914493560791016,52.37515379026236],[4.914671502462255,52.3755991766591],[4.91505136447293,52.3755991766591],[4.914858341217041,52.375091566805224],[4.915233850479126,52.374515176929634]]]]}},{"type":"Feature","properties":{"mvt_id":119555733,"class":"quarter"},"geometry":{"type":"MultiPolygon","coordinates":[[[[4.911371469497681,52.374940920177494],[4.912717938423157,52.37506536742862],[4.913120269775391,52.37442347784675],[4.913313388824463,52.374014104618745],[4.913533329963684,52.37332307400122],[4.913603067398071,52.37281216289602],[4.913603067398071,52.37244862639549],[4.913538694381714,52.37194753063867],[4.913404583930969,52.37146280515077],[4.911113977432251,52.369972568476605],[4.910679459571838,52.36969744236195],[4.910041093826294,52.36930767743276],[4.906559586524963,52.3669788422033],[4.906028509140015,52.36672335069641],[4.905620813369751,52.36660543104102],[4.901221990585327,52.36577343341643],[4.900760650634766,52.366615257690995],[4.89990234375,52.3669381321171],[4.89990234375,52.372645728456746],[4.900095462799072,52.372913690573355],[4.9001652002334595,52.37296936694248],[4.900245666503906,52.373008667866664],[4.900358319282532,52.37303486846337],[4.900551438331604,52.373041418610114],[4.900701642036438,52.3730152180173],[4.900932312011719,52.373490101349844],[4.90199116326994,52.3755991766591],[4.911220921660373,52.3755991766591],[4.911371469497681,52.374940920177494]]]]}},{"type":"Feature","properties":{"mvt_id":119564983,"class":"neighbourhood"},"geometry":{"type":"MultiPolygon","coordinates":[[[[4.907101392745972,52.36734242372321],[4.903963208198547,52.368446251986114],[4.908222556114197,52.37007082738798],[4.908705353736877,52.37016253550806],[4.90914523601532,52.37038525443553],[4.90963876247406,52.370712780230036],[4.9105024337768555,52.37021494006261],[4.9107760190963745,52.37016253550806],[4.911113977432251,52.369972568476605],[4.910679459571838,52.36969744236195],[4.910041093826294,52.36930767743276],[4.907101392745972,52.36734242372321]]]]}},{"type":"Feature","properties":{"mvt_id":119564993,"class":"neighbourhood"},"geometry":{"type":"MultiPolygon","coordinates":[[[[4.90963876247406,52.370712780230036],[4.90914523601532,52.37038525443553],[4.9083030223846436,52.37085034033951],[4.907321333885193,52.37153485927611],[4.906672239303589,52.37192132939695],[4.906366467475891,52.37207526146949],[4.907203316688538,52.37244862639549],[4.907863140106201,52.372782687075016],[4.910910129547119,52.37490162097271],[4.912717938423157,52.37506536742862],[4.913120269775391,52.37442347784675],[4.913313388824463,52.374014104618745],[4.913533329963684,52.37332307400122],[4.913603067398071,52.37281216289602],[4.913603067398071,52.37244862639549],[4.913538694381714,52.37194753063867],[4.913404583930969,52.37146280515077],[4.911113977432251,52.369972568476605],[4.9107760190963745,52.37016253550806],[4.9105024337768555,52.37021494006261],[4.90963876247406,52.370712780230036]]]]}},{"type":"Feature","properties":{"mvt_id":119565003,"class":"neighbourhood"},"geometry":{"type":"MultiPolygon","coordinates":[[[[4.90215003490448,52.370280445668364],[4.904805421829224,52.371413677270645],[4.906366467475891,52.37207526146949],[4.906672239303589,52.37192132939695],[4.907321333885193,52.37153485927611],[4.9083030223846436,52.37085034033951],[4.90914523601532,52.37038525443553],[4.908705353736877,52.37016253550806],[4.908222556114197,52.37007082738798],[4.903963208198547,52.368446251986114],[4.902627468109131,52.36898341659362],[4.9011147022247314,52.36961883458587],[4.90215003490448,52.370280445668364]]]]}},{"type":"Feature","properties":{"mvt_id":119565013,"class":"neighbourhood"},"geometry":{"type":"MultiPolygon","coordinates":[[[[4.89990234375,52.37221178308272],[4.89990234375,52.372645728456746],[4.900095462799072,52.372913690573355],[4.9001652002334595,52.37296936694248],[4.900245666503906,52.373008667866664],[4.900358319282532,52.37303486846337],[4.900551438331604,52.373041418610114],[4.900701642036438,52.3730152180173],[4.900932312011719,52.373490101349844],[4.901350736618042,52.37336892470885],[4.904805421829224,52.371413677270645],[4.90215003490448,52.370280445668364],[4.9011147022247314,52.36961883458587],[4.90090012550354,52.36971054364436],[4.900782108306885,52.36987103403857],[4.900685548782349,52.37012323205134],[4.900428056716919,52.37184272557852],[4.900433421134949,52.37199010762332],[4.900465607643127,52.37208508690272],[4.89990234375,52.37221178308272]]]]}},{"type":"Feature","properties":{"mvt_id":119567713,"class":"neighbourhood"},"geometry":{"type":"MultiPolygon","coordinates":[[[[4.911371469497681,52.374940920177494],[4.910910129547119,52.37490162097271],[4.909569025039673,52.37396497957639],[4.905822393525767,52.3755991766591],[4.911220921660373,52.3755991766591],[4.911371469497681,52.374940920177494]]]]}},{"type":"Feature","properties":{"mvt_id":119568713,"class":"neighbourhood"},"geometry":{"type":"MultiPolygon","coordinates":[[[[4.913404583930969,52.37146280515077],[4.913538694381714,52.37194753063867],[4.913603067398071,52.37244862639549],[4.913603067398071,52.37281216289602],[4.913533329963684,52.37332307400122],[4.913313388824463,52.374014104618745],[4.913120269775391,52.37442347784675],[4.912717938423157,52.37506536742862],[4.911371469497681,52.374940920177494],[4.911220921660373,52.3755991766591],[4.921098670489357,52.3755991766591],[4.921241998672485,52.37557625246892],[4.921253263950348,52.3755991766591],[4.921405638967229,52.3755991766591],[4.92112934589386,52.374917995645625],[4.92087185382843,52.37410252955729],[4.917658567428589,52.37210801290507],[4.914675951004028,52.371004276144554],[4.914450645446777,52.37090601930964],[4.913404583930969,52.37146280515077]]]]}},{"type":"Feature","properties":{"mvt_id":119568723,"class":"quarter"},"geometry":{"type":"MultiPolygon","coordinates":[[[[4.921241998672485,52.37557625246892],[4.921253263950348,52.3755991766591],[4.92144450545311,52.3755991766591],[4.921558499336243,52.37558280223876],[4.921542406082153,52.37553040405284],[4.921875,52.37547883752348],[4.921875,52.368184667669176],[4.919482469558716,52.368986691967535],[4.917014837265015,52.36991361302488],[4.915099740028381,52.370591595969124],[4.914826154708862,52.370709504984106],[4.914450645446777,52.37090601930964],[4.913404583930969,52.37146280515077],[4.913538694381714,52.37194753063867],[4.913603067398071,52.37244862639549],[4.913603067398071,52.37281216289602],[4.913533329963684,52.37332307400122],[4.913313388824463,52.374014104618745],[4.913120269775391,52.37442347784675],[4.912717938423157,52.37506536742862],[4.911371469497681,52.374940920177494],[4.911220921660373,52.3755991766591],[4.921098670489357,52.3755991766591],[4.921241998672485,52.37557625246892]]]]}},{"type":"Feature","properties":{"mvt_id":119569013,"class":"neighbourhood"},"geometry":{"type":"MultiPolygon","coordinates":[[[[4.9201905727386475,52.36875086442512],[4.920700192451477,52.36930767743276],[4.921059608459473,52.36954677733491],[4.921274185180664,52.36946161861404],[4.921875,52.369838876455276],[4.921875,52.36818492864362],[4.9201905727386475,52.36875086442512]]]]}},{"type":"Feature","properties":{"mvt_id":119569023,"class":"neighbourhood"},"geometry":{"type":"MultiPolygon","coordinates":[[[[4.921274185180664,52.36946161861404],[4.921059608459473,52.36954677733491],[4.920700192451477,52.36930767743276],[4.9201905727386475,52.36875086442512],[4.919482469558716,52.368986691967535],[4.917014837265015,52.36991361302488],[4.917696118354797,52.37060469698633],[4.918731451034546,52.3710763310179],[4.919283986091614,52.37140385168806],[4.919305443763733,52.37149228185262],[4.919348359107971,52.37157416147676],[4.919423460960388,52.37165604094911],[4.919498562812805,52.37171171890361],[4.919584393501282,52.37174447060877],[4.919707775115967,52.37177067195541],[4.919798970222473,52.37177722228963],[4.919911623001099,52.37177394712264],[4.9200135469436646,52.37175757128403],[4.920099377632141,52.37176739678792],[4.920158386230469,52.37178704778916],[4.921875,52.372873297869475],[4.921875,52.369838876455276],[4.921274185180664,52.36946161861404]]]]}},{"type":"Feature","properties":{"mvt_id":119569033,"class":"neighbourhood"},"geometry":{"type":"MultiPolygon","coordinates":[[[[4.920158386230469,52.37178704778916],[4.920099377632141,52.37176739678792],[4.9200135469436646,52.37175757128403],[4.919911623001099,52.37177394712264],[4.919798970222473,52.37177722228963],[4.919707775115967,52.37177067195541],[4.919584393501282,52.37174447060877],[4.919498562812805,52.37171171890361],[4.919423460960388,52.37165604094911],[4.919348359107971,52.37157416147676],[4.919305443763733,52.37149228185262],[4.919283986091614,52.37140385168806],[4.918731451034546,52.3710763310179],[4.917696118354797,52.37060469698633],[4.917014837265015,52.36991361302488],[4.915099740028381,52.370591595969124],[4.914826154708862,52.370709504984106],[4.914450645446777,52.37090601930964],[4.914675951004028,52.371004276144554],[4.917658567428589,52.37210801290507],[4.92087185382843,52.37410252955729],[4.92112934589386,52.374917995645625],[4.921405638967229,52.3755991766591],[4.921451210975647,52.3755991766591],[4.921558499336243,52.37558280223876],[4.921542406082153,52.37553040405284],[4.921875,52.37547883752348],[4.921875,52.372873297869475],[4.920158386230469,52.37178704778916]]]]}},{"type":"Feature","properties":{"mvt_id":119586223,"class":"neighbourhood"},"geometry":{"type":"MultiPolygon","coordinates":[[[[4.910041093826294,52.36930767743276],[4.910679459571838,52.36969744236195],[4.921241998672485,52.366100993406455],[4.92161750793457,52.365573620629895],[4.921258091926575,52.36527553758011],[4.920356869697571,52.364699019601474],[4.919648766517639,52.36437144921649],[4.918436408042908,52.36387681333258],[4.916650056838989,52.36338544770009],[4.916510581970215,52.363362517170444],[4.916408658027649,52.3633494140053],[4.916290640830994,52.363346138213416],[4.916081428527832,52.363362517170444],[4.916006326675415,52.363375620331695],[4.91588294506073,52.363405102430306],[4.91513729095459,52.363660613127536],[4.915105104446411,52.3637064738655],[4.911194443702698,52.36502003622238],[4.910770654678345,52.36517399234563],[4.90888237953186,52.36581274074346],[4.908238649368286,52.36569481865743],[4.908093810081482,52.3659863476862],[4.9079060554504395,52.3661239225148],[4.907734394073486,52.36622546556585],[4.907546639442444,52.36630735495314],[4.907358884811401,52.36637286635369],[4.906318187713623,52.366615257690995],[4.906108975410461,52.366762657178256],[4.906559586524963,52.3669788422033],[4.910041093826294,52.36930767743276]]]]}},{"type":"Feature","properties":{"mvt_id":119586233,"class":"neighbourhood"},"geometry":{"type":"MultiPolygon","coordinates":[[[[4.9201905727386475,52.36875086442512],[4.921875,52.36818492864362],[4.921875,52.36541840603837],[4.92161750793457,52.365573620629895],[4.921241998672485,52.366100993406455],[4.910679459571838,52.36969744236195],[4.911113977432251,52.369972568476605],[4.913404583930969,52.37146280515077],[4.914450645446777,52.37090601930964],[4.914826154708862,52.370709504984106],[4.915099740028381,52.370591595969124],[4.917014837265015,52.36991361302488],[4.919482469558716,52.368986691967535],[4.9201905727386475,52.36875086442512]]]]}},{"type":"Feature","properties":{"mvt_id":119605043,"class":"suburb"},"geometry":{"type":"MultiPolygon","coordinates":[[[[4.9217623472213745,52.36351975484901],[4.921478033065796,52.36347716969966],[4.921102523803711,52.363431308723676],[4.92038369178772,52.36336906875156],[4.920206665992737,52.363336310836274],[4.9200403690338135,52.363287173917826],[4.91987407207489,52.36322165794154],[4.919713139533997,52.363136487027134],[4.919026494026184,52.36255338943419],[4.9188655614852905,52.3624551138012],[4.918704628944397,52.36237321727339],[4.918420314788818,52.36226511362424],[4.91812527179718,52.36218976850025],[4.918079291071194,52.362183216744256],[4.89990234375,52.362183216744256],[4.89990234375,52.3755991766591],[4.921088481650628,52.3755991766591],[4.921241998672485,52.37557625246892],[4.921253263950348,52.3755991766591],[4.92144450545311,52.3755991766591],[4.921558499336243,52.37558280223876],[4.9215370416641235,52.37553040405284],[4.921875,52.37547841838964],[4.921875,52.36354923685144],[4.9217623472213745,52.36351975484901]]]]}},{"type":"Feature","properties":{"mvt_id":119605263,"class":"neighbourhood"},"geometry":{"type":"MultiPolygon","coordinates":[[[[4.906108975410461,52.366762657178256],[4.906318187713623,52.366615257690995],[4.907358884811401,52.36637286635369],[4.907546639442444,52.36630735495314],[4.907734394073486,52.36622546556585],[4.9079060554504395,52.3661239225148],[4.908093810081482,52.3659863476862],[4.908238649368286,52.36569481865743],[4.90888237953186,52.36581274074346],[4.910770654678345,52.36517399234563],[4.911194443702698,52.36502003622238],[4.915105104446411,52.3637064738655],[4.91513729095459,52.363660613127536],[4.91588294506073,52.363405102430306],[4.916006326675415,52.363375620331695],[4.916081428527832,52.363362517170444],[4.916290640830994,52.363346138213416],[4.916408658027649,52.3633494140053],[4.916510581970215,52.363362517170444],[4.916650056838989,52.36338544770009],[4.916773438453674,52.36341820557893],[4.917450988958336,52.362183216744256],[4.903087180236298,52.362183216744256],[4.901221990585327,52.36577343341643],[4.905620813369751,52.36660543104102],[4.906028509140015,52.36672335069641],[4.906108975410461,52.366762657178256]]]]}},{"type":"Feature","properties":{"mvt_id":119733413,"class":"quarter"},"geometry":{"type":"MultiPolygon","coordinates":[[[[4.921542406082153,52.37553040405284],[4.921558499336243,52.37558280223876],[4.92144450545311,52.3755991766591],[4.921875,52.3755991766591],[4.921875,52.37547883752348],[4.921542406082153,52.37553040405284]]],[[[4.921241998672485,52.37557625246892],[4.921098670489357,52.3755991766591],[4.921253263950348,52.3755991766591],[4.921241998672485,52.37557625246892]]]]}},{"type":"Feature","properties":{"mvt_id":154192403,"class":"suburb"},"geometry":{"type":"MultiPolygon","coordinates":[[[[4.91812527179718,52.36218976850025],[4.918420314788818,52.36226511362424],[4.918704628944397,52.36237321727339],[4.9188655614852905,52.3624551138012],[4.919026494026184,52.36255338943419],[4.919713139533997,52.363136487027134],[4.91987407207489,52.36322165794154],[4.9200403690338135,52.363287173917826],[4.920206665992737,52.363336310836274],[4.92038369178772,52.36336906875156],[4.921102523803711,52.363431308723676],[4.921478033065796,52.36347716969966],[4.9217623472213745,52.36351975484901],[4.921875,52.36354923685144],[4.921875,52.362183216744256],[4.918079291071194,52.362183216744256],[4.91812527179718,52.36218976850025]]],[[[4.9215370416641235,52.37553040405284],[4.921558499336243,52.37558280223876],[4.92144450545311,52.3755991766591],[4.921875,52.3755991766591],[4.921875,52.37547841838964],[4.9215370416641235,52.37553040405284]]],[[[4.921241998672485,52.37557625246892],[4.921088481650628,52.3755991766591],[4.921253263950348,52.3755991766591],[4.921241998672485,52.37557625246892]]]]}},{"type":"Feature","properties":{"mvt_id":179277993,"class":"quarter"},"geometry":{"type":"MultiPolygon","coordinates":[[[[4.900122284889221,52.36661198214125],[4.900326132774353,52.36628770151404],[4.902015924453735,52.362844939192584],[4.89990234375,52.36243631695217],[4.89990234375,52.36667849135138],[4.900122284889221,52.36661198214125]]]]}},{"type":"Feature","properties":{"mvt_id":192711783,"class":"playground"},"geometry":{"type":"MultiPolygon","coordinates":[[[[4.915941953659058,52.365960142908385],[4.915963411331177,52.36596996970188],[4.916000962257385,52.365966694104294],[4.916017055511475,52.365953591711495],[4.916049242019653,52.365894630895795],[4.916054606437683,52.36586187485308],[4.916038513183594,52.36583567000142],[4.916017055511475,52.365819291961245],[4.915925860404968,52.365806189524726],[4.91587221622467,52.36580946513421],[4.915802478790283,52.365845496822615],[4.915786385536194,52.3658880796892],[4.915823936462402,52.36591428450977],[4.915915131568909,52.36594048931481],[4.915941953659058,52.365960142908385]],[[4.915925860404968,52.365845496822615],[4.9159955978393555,52.36591756011126],[4.915958046913147,52.36593066251474],[4.91588830947876,52.365858599247474],[4.915925860404968,52.365845496822615]]]]}},{"type":"Feature","properties":{"mvt_id":265252622,"class":"playground"},"geometry":{"type":"MultiPolygon","coordinates":[[[[4.9137479066848755,52.367440688485196],[4.913817644119263,52.367529126584095],[4.914005398750305,52.367440688485196],[4.913930296897888,52.367352250209244],[4.9137479066848755,52.367440688485196]]]]}},{"type":"Feature","properties":{"mvt_id":269919592,"class":"quarter"},"geometry":{"type":"MultiPolygon","coordinates":[[[[4.9008625745773315,52.374210604241746],[4.900347590446472,52.373064344116074],[4.9000900983810425,52.37302176816696],[4.89990234375,52.3727273826406],[4.89990234375,52.3755991766591],[4.901668908166101,52.3755991766591],[4.9008625745773315,52.374210604241746]]]]}},{"type":"Feature","properties":{"mvt_id":270620972,"class":"university"},"geometry":{"type":"MultiPolygon","coordinates":[[[[4.9111407995224,52.36423059320424],[4.9122995138168335,52.364453342040434],[4.9125248193740845,52.364715398056966],[4.911103248596191,52.365196921935116],[4.911258816719055,52.365360704370985],[4.9153733253479,52.36396853431207],[4.915008544921875,52.36355906418122],[4.915550351142883,52.363362517170444],[4.915646910667419,52.36319872732689],[4.913120269775391,52.36271062999231],[4.913265109062195,52.36240270004088],[4.912460446357727,52.36224545838689],[4.9124228954315186,52.36231752754776],[4.91174840927124,52.362183216744256],[4.9116757282843935,52.362183216744256],[4.911548495292664,52.36242563106867],[4.911242723464966,52.36236666554459],[4.910808205604553,52.363215106338565],[4.9111407995224,52.36423059320424]]]]}},{"type":"Feature","properties":{"mvt_id":271493342,"class":"playground"},"geometry":{"type":"MultiPolygon","coordinates":[[[[4.904177784919739,52.37248465266875],[4.9046391248703,52.37222591787209],[4.904794692993164,52.37214076431638],[4.904564023017883,52.37198683247211],[4.904542565345764,52.37198355732066],[4.904381632804871,52.37207853661415],[4.904354810714722,52.3720588857426],[4.903872013092041,52.37232417177085],[4.904086589813232,52.37247482732441],[4.904097318649292,52.37246827709363],[4.904124140739441,52.37248792778305],[4.904177784919739,52.37248465266875]]]]}},{"type":"Feature","properties":{"mvt_id":450386532,"class":"university"},"geometry":{"type":"MultiPolygon","coordinates":[[[[4.914761781692505,52.36416507862692],[4.914756417274475,52.36415525143194],[4.915185570716858,52.364004567501915],[4.915099740028381,52.36390957084711],[4.915062189102173,52.36392267384613],[4.915013909339905,52.36386698607349],[4.914289712905884,52.36411594263018],[4.914343357086182,52.36417490581971],[4.914305806159973,52.36418473301032],[4.914343357086182,52.36422404175088],[4.91438090801239,52.364210938841246],[4.914429187774658,52.364269901903995],[4.914504289627075,52.36424369610805],[4.914509654045105,52.36425024755849],[4.914761781692505,52.36416507862692]]]]}},{"type":"Feature","properties":{"mvt_id":1084083222,"class":"playground"},"geometry":{"type":"MultiPolygon","coordinates":[[[[4.920796751976013,52.367031250534886],[4.921000599861145,52.367240883239525],[4.921225905418396,52.367155720073235],[4.921032786369324,52.36695263801419],[4.920796751976013,52.367031250534886]]]]}},{"type":"Feature","properties":{"mvt_id":2867596962,"class":"pitch"},"geometry":{"type":"MultiPolygon","coordinates":[[[[4.9102771282196045,52.36869518273833],[4.909434914588928,52.36812853569884],[4.909188151359558,52.36827593013689],[4.909021854400635,52.368347989460936],[4.909032583236694,52.368364366563654],[4.9098533391952515,52.36891135830612],[4.9102771282196045,52.36869518273833]]]]}},{"type":"Feature","properties":{"mvt_id":4386549402,"class":"pitch"},"geometry":{"type":"MultiPolygon","coordinates":[[[[4.921794533729553,52.37428592886543],[4.921875,52.37427364768555],[4.921875,52.37411805936693],[4.921740889549255,52.37414182947314],[4.921794533729553,52.37428592886543]]]]}},{"type":"Feature","properties":{"mvt_id":4386549442,"class":"playground"},"geometry":{"type":"MultiPolygon","coordinates":[[[[4.921322464942932,52.37314622082593],[4.921215176582336,52.37320517196304],[4.921354651451111,52.37329687357549],[4.9214619398117065,52.373244472677406],[4.921322464942932,52.37314622082593]]]]}},{"type":"Feature","properties":{"mvt_id":4386549462,"class":"playground"},"geometry":{"type":"MultiPolygon","coordinates":[[[[4.920421242713928,52.37275321123435],[4.920469522476196,52.37279251235087],[4.920566082000732,52.37283508852098],[4.920651912689209,52.37284491378518],[4.920646548271179,52.37277286179697],[4.920571446418762,52.372717185180136],[4.920448064804077,52.37268115909654],[4.92036759853363,52.37268443419626],[4.920421242713928,52.37275321123435]]]]}},{"type":"Feature","properties":{"mvt_id":4935436722,"class":"playground"},"geometry":{"type":"MultiPolygon","coordinates":[[[[4.920426607131958,52.36396525856608],[4.920517802238464,52.364017670472755],[4.920673370361328,52.36386698607349],[4.920603632926941,52.36383095277144],[4.920426607131958,52.36396525856608]]]]}},{"type":"Feature","properties":{"mvt_id":5108069212,"class":"pitch"},"geometry":{"type":"MultiPolygon","coordinates":[[[[4.906012415885925,52.36278925006152],[4.905937314033508,52.362946489780256],[4.906066060066223,52.36296942052582],[4.90614652633667,52.36281218088869],[4.906012415885925,52.36278925006152]]]]}},{"type":"Feature","properties":{"mvt_id":5173143912,"class":"education"},"geometry":{"type":"MultiPolygon","coordinates":[[[[4.90915060043335,52.36314631444871],[4.908973574638367,52.36349354860811],[4.91013765335083,52.36370974963067],[4.910320043563843,52.36338872348906],[4.910261034965515,52.363352689796955],[4.90915060043335,52.36314631444871]]]]}},{"type":"Feature","properties":{"mvt_id":5857816662,"class":"attraction"},"geometry":{"type":"MultiPolygon","coordinates":[[[[4.900567531585693,52.37459050103385],[4.900760650634766,52.37453482670833],[4.900926947593689,52.37445622754106],[4.901098608970642,52.374312128704425],[4.901608228683472,52.37414837945572],[4.901103973388672,52.37296936694248],[4.9004387855529785,52.3719606312537],[4.900031089782715,52.37199993307548],[4.89990234375,52.37205815793237],[4.89990234375,52.372677350012864],[4.9000900983810425,52.37297264202083],[4.899918437004089,52.37370625345161],[4.899945259094238,52.37381760412148],[4.900256395339966,52.37430557874613],[4.900444149971008,52.374580676157976],[4.900567531585693,52.37459050103385]]]]}},{"type":"Feature","properties":{"mvt_id":8463139562,"class":"playground"},"geometry":{"type":"MultiPolygon","coordinates":[[[[4.9040597677230835,52.37065055051596],[4.904376268386841,52.37037542862418],[4.9043333530426025,52.37035905226706],[4.904027581214905,52.370634174260836],[4.9040597677230835,52.37065055051596]]]]}},{"type":"Feature","properties":{"mvt_id":8498189712,"class":"playground"},"geometry":{"type":"MultiPolygon","coordinates":[[[[4.908592700958252,52.37095187252647],[4.90864634513855,52.370919120233594],[4.908506870269775,52.370833964158464],[4.9084532260894775,52.370866716514485],[4.908592700958252,52.37095187252647]]]]}},{"type":"Feature","properties":{"mvt_id":8635866352,"class":"pitch"},"geometry":{"type":"MultiPolygon","coordinates":[[[[4.90115225315094,52.37189185298142],[4.9010878801345825,52.37195080579279],[4.901270270347595,52.37201958397327],[4.901334643363953,52.3719606312537],[4.90115225315094,52.37189185298142]]]]}},{"type":"Feature","properties":{"mvt_id":8704382772,"class":"playground"},"geometry":{"type":"MultiPolygon","coordinates":[[[[4.916290640830994,52.369376459729004],[4.916247725486755,52.369379735073764],[4.916210174560547,52.369389561106615],[4.916177988052368,52.36940593782316],[4.916151165962219,52.36942886521614],[4.9161458015441895,52.36945179259722],[4.916151165962219,52.369477995303875],[4.916167259216309,52.36950419799499],[4.9161940813064575,52.369520574669046],[4.916231632232666,52.369533676003925],[4.916279911994934,52.3695402266699],[4.916322827339172,52.369533676003925],[4.916360378265381,52.369520574669046],[4.91639256477356,52.369500922659455],[4.916408658027649,52.36947471996639],[4.916408658027649,52.369445241918136],[4.91639256477356,52.36941903919203],[4.916365742683411,52.36939938713728],[4.916333556175232,52.36938301041828],[4.916290640830994,52.369376459729004]]]]}},{"type":"Feature","properties":{"mvt_id":8821201372,"class":"playground"},"geometry":{"type":"MultiPolygon","coordinates":[[[[4.913849830627441,52.369612283931545],[4.913758635520935,52.36951402400016],[4.913479685783386,52.36960573327626],[4.913570880889893,52.36970399300365],[4.913849830627441,52.369612283931545]]]]}},{"type":"Feature","properties":{"mvt_id":8821386772,"class":"playground"},"geometry":{"type":"MultiPolygon","coordinates":[[[[4.917948246002197,52.367997518007705],[4.918055534362793,52.368108883069944],[4.918055534362793,52.368112158508694],[4.9182164669036865,52.36805320057391],[4.9180930852890015,52.3679189072065],[4.917964339256287,52.3679647635242],[4.917948246002197,52.36797786532051],[4.917948246002197,52.367997518007705]]]]}},{"type":"Feature","properties":{"mvt_id":8931286382,"class":"cemetery"},"geometry":{"type":"MultiPolygon","coordinates":[[[[4.89991307258606,52.37016581079453],[4.89990234375,52.37016799431872],[4.89990234375,52.37017345312871],[4.89991307258606,52.37018218722329],[4.899929165840149,52.370175636652526],[4.899929165840149,52.37016908608077],[4.89991307258606,52.37016581079453]]]]}},{"type":"Feature","properties":{"mvt_id":9041273552,"class":"education"},"geometry":{"type":"MultiPolygon","coordinates":[[[[4.902541637420654,52.37327067313422],[4.902482628822327,52.373234647502095],[4.902477264404297,52.373237922560776],[4.902209043502808,52.373057793972734],[4.9021607637405396,52.373057793972734],[4.901844263076782,52.373234647502095],[4.901973009109497,52.37333289915686],[4.901983737945557,52.37332634905334],[4.902080297470093,52.373401675185136],[4.902182221412659,52.373342724310305],[4.902241230010986,52.37334599936098],[4.902257323265076,52.37335254946157],[4.902327060699463,52.37331652389624],[4.902471899986267,52.37341477536886],[4.902622103691101,52.3733394492594],[4.902622103691101,52.3733099737903],[4.902563095092773,52.37327067313422],[4.902541637420654,52.37327067313422]]]]}},{"type":"Feature","properties":{"mvt_id":9041279312,"class":"education"},"geometry":{"type":"MultiPolygon","coordinates":[[[[4.903925657272339,52.37036232753896],[4.90365743637085,52.37056866917966],[4.9039095640182495,52.37067020201408],[4.903963208198547,52.370666926765004],[4.904349446296692,52.37032302426003],[4.904075860977173,52.370205114213356],[4.90390419960022,52.370352501722515],[4.903925657272339,52.37036232753896]]]]}},{"type":"Feature","properties":{"mvt_id":10827566442,"class":"pitch"},"geometry":{"type":"MultiPolygon","coordinates":[[[[4.916939735412598,52.3715610607471],[4.917095303535461,52.37165276577313],[4.917347431182861,52.371498832228134],[4.917197227478027,52.37140385168806],[4.916939735412598,52.3715610607471]]]]}},{"type":"Feature","properties":{"mvt_id":11150225802,"class":"playground"},"geometry":{"type":"MultiPolygon","coordinates":[[[[4.9064576625823975,52.36279907756035],[4.906484484672546,52.36270407831356],[4.906468391418457,52.362687699112435],[4.906446933746338,52.36268442327148],[4.9064308404922485,52.362687699112435],[4.906371831893921,52.36271390583131],[4.906318187713623,52.36275649171635],[4.906253814697266,52.36282200838241],[4.9062323570251465,52.36284821502163],[4.906205534934998,52.36292028319933],[4.906205534934998,52.362943213958495],[4.906216263771057,52.3629563172441],[4.906264543533325,52.3629595930649],[4.906296730041504,52.36294976560178],[4.906371831893921,52.36289735242827],[4.9064576625823975,52.36279907756035]]]]}},{"type":"Feature","properties":{"mvt_id":11631018222,"class":"track"},"geometry":{"type":"MultiPolygon","coordinates":[[[[4.918082356452942,52.37395842956662],[4.91813600063324,52.37396170457163],[4.918200373649597,52.37395515456136],[4.918254017829895,52.37393550452475],[4.918677806854248,52.373689878329415],[4.918704628944397,52.37365385303924],[4.918720722198486,52.37361455268915],[4.918709993362427,52.37357525230409],[4.918677806854248,52.373542501956514],[4.918511509895325,52.37343770068102],[4.918447136878967,52.3734115003233],[4.91837203502655,52.373388574997534],[4.918286204338074,52.373378749854275],[4.918200373649597,52.373378749854275],[4.91811990737915,52.37338529995003],[4.918034076690674,52.373401675185136],[4.917975068092346,52.37342132545926],[4.917899966239929,52.37346062598129],[4.917690753936768,52.37358835243633],[4.917663931846619,52.37360472759617],[4.917653203010559,52.373630927839265],[4.917647838592529,52.37366367812128],[4.917653203010559,52.37369642837901],[4.917680025100708,52.37372917861247],[4.918001890182495,52.37393877953146],[4.918082356452942,52.37395842956662]]]]}},{"type":"Feature","properties":{"mvt_id":11631018442,"class":"pitch"},"geometry":{"type":"MultiPolygon","coordinates":[[[[4.9166339635849,52.37261893215567],[4.916687607765198,52.37264185788092],[4.916816353797913,52.37253050424677],[4.916762709617615,52.37250757846372],[4.9166339635849,52.37261893215567]]]]}},{"type":"Feature","properties":{"mvt_id":13295756282,"class":"pitch"},"geometry":{"type":"MultiPolygon","coordinates":[[[[4.918318390846252,52.374053404613285],[4.918581247329712,52.37423680412543],[4.919144511222839,52.3739289545106],[4.91887629032135,52.37374882874088],[4.918318390846252,52.374053404613285]]]]}},{"type":"Feature","properties":{"mvt_id":13545058662,"class":"pitch"},"geometry":{"type":"MultiPolygon","coordinates":[[[[4.9041348695755005,52.37220954220105],[4.903941750526428,52.37231762151772],[4.9041348695755005,52.37245190151245],[4.9043333530426025,52.372343822524364],[4.9041348695755005,52.37220954220105]]]]}},{"type":"Feature","properties":{"mvt_id":13570625812,"class":"playground"},"geometry":{"type":"MultiPolygon","coordinates":[[[[4.912755489349365,52.36501020921757],[4.912841320037842,52.365101927844094],[4.913039803504944,52.36503313889206],[4.912953972816467,52.364941420122726],[4.912755489349365,52.36501020921757]]]]}},{"type":"Feature","properties":{"mvt_id":13601442012,"class":"playground"},"geometry":{"type":"MultiPolygon","coordinates":[[[[4.919021129608154,52.36642199984035],[4.919047951698303,52.36641544871195],[4.9190908670425415,52.36634993737456],[4.919096231460571,52.36631063052548],[4.919074773788452,52.366274599216446],[4.919010400772095,52.36622546556585],[4.918962121009827,52.3662123632498],[4.918897747993469,52.36620908767017],[4.918844103813171,52.36621563882918],[4.918699264526367,52.3662483946096],[4.918650984764099,52.36628115036572],[4.918650984764099,52.366294252661376],[4.9186670780181885,52.36632045724103],[4.918736815452576,52.36637286635369],[4.918785095214844,52.36643182653112],[4.918811917304993,52.3664416532197],[4.91887629032135,52.36644492878208],[4.919021129608154,52.36642199984035]]]]}},{"type":"Feature","properties":{"mvt_id":13635831352,"class":"pitch"},"geometry":{"type":"MultiPolygon","coordinates":[[[[4.910057187080383,52.36887205373612],[4.910030364990234,52.368852401438],[4.9098801612854,52.3689342859558],[4.909912347793579,52.368953938217494],[4.910057187080383,52.36887205373612]]]]}},{"type":"Feature","properties":{"mvt_id":14095205042,"class":"playground"},"geometry":{"type":"MultiPolygon","coordinates":[[[[4.918506145477295,52.365403287704865],[4.918538331985474,52.36540656334422],[4.918570518493652,52.365403287704865],[4.918597340583801,52.3653934607853],[4.91861879825592,52.36538035822249],[4.91862952709198,52.365360704370985],[4.91862952709198,52.36534105051074],[4.91861879825592,52.365324672287194],[4.918597340583801,52.36530829405757],[4.918570518493652,52.36529846711688],[4.918538331985474,52.36529519146949],[4.918500781059265,52.36525915933227],[4.9184417724609375,52.36530829405757],[4.918457865715027,52.36532139664175],[4.918447136878967,52.36533777486652],[4.918447136878967,52.365357428728224],[4.918457865715027,52.36537708258118],[4.918479323387146,52.3653934607853],[4.918506145477295,52.365403287704865]]]]}},{"type":"Feature","properties":{"mvt_id":14745608252,"class":"playground"},"geometry":{"type":"MultiPolygon","coordinates":[[[[4.905288219451904,52.366988668770205],[4.905309677124023,52.36699194429202],[4.905315041542053,52.367031250534886],[4.905331134796143,52.36705417916041],[4.9053579568862915,52.36707055674278],[4.90539014339447,52.36708365880431],[4.905459880828857,52.36708365880431],[4.905492067337036,52.36707383225853],[4.905545711517334,52.367008321897465],[4.905588626861572,52.36701487293795],[4.905620813369751,52.36696246458692],[4.905502796173096,52.36693298486214],[4.905545711517334,52.36686419876117],[4.90540623664856,52.36684127003704],[4.905368685722351,52.366900229589326],[4.905331134796143,52.36689040300275],[4.905288219451904,52.366988668770205]]]]}},{"type":"Feature","properties":{"mvt_id":14915882212,"class":"education"},"geometry":{"type":"MultiPolygon","coordinates":[[[[4.920592904090881,52.370490062954005],[4.921236634254456,52.37088309268338],[4.921875,52.3704965861843],[4.921875,52.370490062954005],[4.921826720237732,52.370460585583324],[4.921875,52.370431108192975],[4.921542406082153,52.37022804119153],[4.921478033065796,52.37026734455499],[4.921220541000366,52.37011013089133],[4.920592904090881,52.370490062954005]]]]}},{"type":"Feature","properties":{"mvt_id":271281422,"class":"residential"},"geometry":{"type":"MultiPolygon","coordinates":[[[[4.903625249862671,52.374321953640035],[4.903829097747803,52.37480992269221],[4.907171130180359,52.37291041549063],[4.906286001205444,52.372465001977886],[4.905164837837219,52.37308399454028],[4.9039095640182495,52.37385362927809],[4.903625249862671,52.374321953640035]]],[[[4.908592700958252,52.37222919300557],[4.909713864326477,52.37184600074041],[4.909719228744507,52.37185582622464],[4.909783601760864,52.371836175253996],[4.909772872924805,52.371823074602055],[4.909869432449341,52.37179359812096],[4.90988552570343,52.37180342361684],[4.909998178482056,52.37176084645224],[4.909987449645996,52.37175102094688],[4.910405874252319,52.37159708774432],[4.90938663482666,52.37091256977211],[4.908936023712158,52.37116148662577],[4.90888237953186,52.371187688318244],[4.908871650695801,52.371181137896585],[4.907857775688171,52.371705168559664],[4.908592700958252,52.37222919300557]]],[[[4.907251596450806,52.37204251000963],[4.908056259155273,52.37237329863826],[4.908442497253418,52.37220954220105],[4.907782673835754,52.37174447060877],[4.907240867614746,52.37202940941888],[4.907251596450806,52.37204251000963]]],[[[4.907696843147278,52.3717215444177],[4.907696843147278,52.37170844373176],[4.907482266426086,52.37161673882132],[4.907020926475525,52.37191150392729],[4.906967282295227,52.37188202750522],[4.906822443008423,52.37197373186485],[4.90689218044281,52.372009758525465],[4.907020926475525,52.371914779084086],[4.907165765762329,52.37199993307548],[4.907696843147278,52.3717215444177]]],[[[4.906817078590393,52.372094912333765],[4.907696843147278,52.37251412868865],[4.907782673835754,52.37245517662918],[4.90689218044281,52.37204251000963],[4.906859993934631,52.37204906030354],[4.906822443008423,52.372068711179466],[4.906817078590393,52.372094912333765]]],[[[4.909037947654724,52.37067675251152],[4.90889310836792,52.37057521969215],[4.908748269081116,52.37065055051596],[4.90889310836792,52.37075208316217],[4.908925294876099,52.37073570694469],[4.908930659294128,52.370738982188676],[4.909037947654724,52.37067675251152]]],[[[4.9093276262283325,52.370866716514485],[4.909118413925171,52.37073243170047],[4.907578825950623,52.371554510380804],[4.9078041315078735,52.37164949059691],[4.909182786941528,52.37092894592401],[4.909193515777588,52.37093549638307],[4.9093276262283325,52.370866716514485]]],[[[4.908217191696167,52.37025424343772],[4.903593063354492,52.36849538316675],[4.903383851051331,52.368596920766876],[4.902933239936829,52.368207146127006],[4.902005195617676,52.368600196169446],[4.900760650634766,52.36910788063154],[4.900251030921936,52.36936008300152],[4.89990234375,52.36903165851041],[4.89990234375,52.37201854274094],[4.900701642036438,52.3722357432718],[4.901366829872131,52.373499926468334],[4.901704788208008,52.374321953640035],[4.902354544479948,52.3755991766591],[4.90294051432349,52.3755991766591],[4.902493357658386,52.374318678661744],[4.902943968772888,52.37356215216798],[4.904226064682007,52.37285473904719],[4.905610084533691,52.3721014626199],[4.905674457550049,52.3721014626199],[4.906377196311951,52.37174119543934],[4.9064040184021,52.37170844373176],[4.906859993934631,52.37147590590957],[4.907101392745972,52.371292494932696],[4.907278418540955,52.371371099730325],[4.907600283622742,52.371177862685386],[4.908233284950256,52.37084706510379],[4.908823370933533,52.37052936608432],[4.908694624900818,52.37043765872586],[4.908217191696167,52.37025424343772]]],[[[4.90889310836792,52.36962210991267],[4.905824661254883,52.36838729449724],[4.905363321304321,52.368816372202076],[4.907670021057129,52.36968761639759],[4.908490777015686,52.369992220276366],[4.90889310836792,52.36962210991267]]],[[[4.910073280334473,52.37056866917966],[4.910454154014587,52.37083723939516],[4.9105507135391235,52.3707979365388],[4.910711646080017,52.37089946884622],[4.9107009172439575,52.37091584500297],[4.910754561424255,52.37094859729828],[4.910818934440613,52.370919120233594],[4.910915493965149,52.37103047793028],[4.9111998081207275,52.371338347748306],[4.912154674530029,52.371010826592446],[4.91138219833374,52.37051626504476],[4.910679459571838,52.37023459175454],[4.9101269245147705,52.37052609082479],[4.910073280334473,52.37056866917966]]],[[[4.909735321998596,52.36940266248034],[4.909606575965881,52.369477995303875],[4.909569025039673,52.36945834327535],[4.909542202949524,52.369477995303875],[4.909542202949524,52.36948127064112],[4.909440279006958,52.3695402266699],[4.909440279006958,52.36955332799894],[4.909842610359192,52.36981207845131],[4.90989625453949,52.369782600628184],[4.91039514541626,52.370113406181694],[4.9104756116867065,52.37007082738798],[4.910598993301392,52.37011995676169],[4.9106526374816895,52.37008720385196],[4.910663366317749,52.37009702972743],[4.910679459571838,52.370090479144025],[4.910722374916077,52.37006427680069],[4.909735321998596,52.36940266248034]]],[[[4.906559586524963,52.36734242372321],[4.906108975410461,52.36704435260807],[4.904419183731079,52.36761756450594],[4.9050092697143555,52.36787305084119],[4.906559586524963,52.36734242372321]]],[[[4.900122284889221,52.36661198214125],[4.900326132774353,52.36628770151404],[4.902015924453735,52.362844939192584],[4.89990234375,52.36243631695217],[4.89990234375,52.36667849135138],[4.900122284889221,52.36661198214125]]],[[[4.911189298240515,52.362183216744256],[4.903883744623073,52.362183216744256],[4.902568459510803,52.364777636132466],[4.902085661888123,52.36568826742119],[4.901694059371948,52.36659232883767],[4.903040528297424,52.367679798492965],[4.903303384780884,52.367810817126426],[4.903936386108398,52.36738828063933],[4.90439236164093,52.36679868808923],[4.904676675796509,52.36629097708783],[4.905197024345398,52.36635648851266],[4.9064040184021,52.3664416532197],[4.906999468803406,52.366327008383514],[4.9083030223846436,52.36586515045845],[4.91087794303894,52.36867553036152],[4.910185933113098,52.369124257452526],[4.910244941711426,52.36917011251899],[4.910754561424255,52.36948454597812],[4.911307096481323,52.36929457603085],[4.913517236709595,52.36850848480568],[4.911559224128723,52.36628770151404],[4.912921786308289,52.36583567000142],[4.912294149398804,52.365095376519946],[4.9110013246536255,52.36549828114789],[4.9104273319244385,52.364974176847916],[4.9107009172439575,52.36440420636429],[4.910802841186523,52.364070082317255],[4.910695552825928,52.363257691740515],[4.911189298240515,52.362183216744256]]],[[[4.913420677185059,52.362379769001194],[4.9132490158081055,52.36269097495314],[4.915652275085449,52.36316924509056],[4.915727376937866,52.363568891508805],[4.915212392807007,52.36374250726908],[4.915448427200317,52.36399801601504],[4.914960265159607,52.36415852716385],[4.915673732757568,52.364951247142834],[4.918988943099976,52.363948879832506],[4.920920133590698,52.36474487926155],[4.921875,52.365396209127255],[4.921875,52.36394743464983],[4.921875,52.36380937645287],[4.920405149459839,52.36358199460886],[4.919970631599426,52.363598373478446],[4.91911768913269,52.363028385245485],[4.9186402559280396,52.36254356188072],[4.917921423912048,52.362340458619755],[4.916430115699768,52.36223890663916],[4.9161914322111215,52.362183216744256],[4.912496612918005,52.362183216744256],[4.913420677185059,52.362379769001194]]],[[[4.909032583236694,52.369494371987656],[4.909483194351196,52.36923561967422],[4.9069297313690186,52.36757825878476],[4.905502796173096,52.36807285322759],[4.909032583236694,52.369494371987656]]],[[[4.914901256561279,52.364220766023834],[4.913463592529297,52.364715398056966],[4.914150238037109,52.36545242226986],[4.915056824684143,52.36515761406015],[4.915566444396973,52.36496434983291],[4.914901256561279,52.364220766023834]]],[[[4.921000599861145,52.37419750429408],[4.921268820762634,52.374816472575695],[4.921875,52.37472029650525],[4.921875,52.373102255532714],[4.921510219573975,52.37287111447902],[4.920308589935303,52.37207853661415],[4.919863343238831,52.37193443001975],[4.9194663763046265,52.37195735610031],[4.918457865715027,52.37134162294761],[4.917985796928406,52.37083723939516],[4.917406439781189,52.3704081813202],[4.916306734085083,52.37078156033832],[4.915807843208313,52.37128921972975],[4.916988015174866,52.371734645099764],[4.918200373649597,52.372412600092844],[4.919069409370422,52.37298574233181],[4.921000599861145,52.37419750429408]]],[[[4.9201637506484985,52.368813096815536],[4.917020201683044,52.36990706241426],[4.921875,52.37284970305144],[4.921875,52.36821019065339],[4.9201637506484985,52.368813096815536]]],[[[4.921177625656128,52.36635321294373],[4.911553859710693,52.369736746197525],[4.911371469497681,52.3698088031386],[4.9112749099731445,52.36974657215096],[4.911113977432251,52.36983173032247],[4.911655783653259,52.370178911938034],[4.911859631538391,52.37006755209445],[4.911907911300659,52.370074102681265],[4.911972284317017,52.37005117562319],[4.912047386169434,52.37011013089133],[4.9123746156692505,52.37031974898521],[4.912701845169067,52.37022149062756],[4.913088083267212,52.370644000014636],[4.913742542266846,52.37041473185649],[4.913844466209412,52.370506439262556],[4.91614043712616,52.369884135269494],[4.918656349182129,52.36900961957812],[4.920083284378052,52.368325061506944],[4.921875,52.367739579907585],[4.921875,52.365642596514874],[4.921177625656128,52.36635321294373]]],[[[4.920024275779724,52.36261235470906],[4.920420692517212,52.362183216744256],[4.919377149437821,52.362183216744256],[4.920024275779724,52.36261235470906]]],[[[4.90215003490448,52.36255994113529],[4.9023395876645,52.362183216744256],[4.900066352390752,52.362183216744256],[4.90215003490448,52.36255994113529]]]]}}],"crs":{"type":"name","properties":{"name":"urn:ogc:def:crs:OGC:1.3:CRS84"}}}