{"type":"FeatureCollection","name":"park","features":[{"type":"Feature","properties":{"mvt_id":2222787332,"name_int":"Canal Ring Area of Amsterdam","name_de":"Grachtengordel van Amsterdam","name":"Grachtengordel van Amsterdam","class":"protected_area","name:latin":"Grachtengordel van Amsterdam","name_en":"Canal Ring Area of Amsterdam"},"geometry":{"type":"Polygon","coordinates":[[[4.900352954864502,52.36617305627833],[4.901425838470459,52.36641217314738],[4.901967644691467,52.36664146208024],[4.903453588485718,52.36724743424552],[4.9040597677230835,52.36745051494937],[4.904537200927734,52.366389244188646],[4.905958771705627,52.36664146208024],[4.906586408615112,52.366507164421094],[4.907498359680176,52.36625494576276],[4.907852411270142,52.36608133987554],[4.90813136100769,52.36565878684613],[4.90888774394989,52.36576033096631],[4.910572171211243,52.36516416537508],[4.911596775054932,52.36479401455881],[4.91113543510437,52.3642961076844],[4.9104273319244385,52.36297924798456],[4.9061727368482195,52.362183216744256],[4.89990234375,52.362183216744256],[4.89990234375,52.36615797962245],[4.900352954864502,52.36617305627833]]]}}],"crs":{"type":"name","properties":{"name":"urn:ogc:def:crs:OGC:1.3:CRS84"}}}