{"type":"FeatureCollection","name":"place","features":[{"type":"Feature","properties":{"mvt_id":18641741671,"name_int":"Centrum","name:ka":"\u10d0\u10db\u10e1\u10e2\u10d4\u10e0\u10d3\u10d0\u10db-\u10e1\u10d4\u10dc\u10e2\u10e0\u10e3\u10db\u10d8","name:sl":"Amsterdam Center","name:ca":"Amsterdam-Centrum","name:sq":"Amsterdam-Centrum","name:sv":"Amsterdam-Centrum","name_de":"Centrum","rank":13,"name:latin":"Centrum","name:ar":"\u0623\u0645\u0633\u062a\u0631\u062f\u0627\u0645- \u0633\u064a\u0646\u062a\u0631\u0648\u0645","name:ja":"\u30a2\u30e0\u30b9\u30c6\u30eb\u30c0\u30e0\u30bb\u30f3\u30c8\u30e9\u30e0","name:fa":"\u0627\u0645\u0633\u062a\u0631\u062f\u0627\u0645-\u0633\u0646\u062a\u0631\u0627\u0645","name:nl":"Centrum","name:fi":"Amsterdam-Centrum","name:ru":"\u0426\u0435\u043d\u0442\u0440 \u0410\u043c\u0441\u0442\u0435\u0440\u0434\u0430\u043c\u0430","name":"Centrum","name:fr":"Amsterdam-Centrum","name:hy":"\u0531\u0574\u057d\u057f\u0565\u0580\u0564\u0561\u0574-\u054d\u0565\u0576\u057f\u0580\u0578\u0582\u0574","name:uk":"\u0426\u0435\u043d\u0442\u0440","name:id":"Amsterdam-Centrum","name:el":"\u0386\u03bc\u03c3\u03c4\u03b5\u03c1\u03bd\u03c4\u03b1\u03bc-\u039a\u03ad\u03bd\u03c4\u03c1\u03bf","name:it":"Amsterdam-Centrum","name:en":"Amsterdam-Centrum","name:eo":"Amsterdam-Centro","class":"suburb","name:zh":"\u963f\u59c6\u65af\u7279\u4e39\u4e2d\u592e","name:la":"Medium Amstelodamum","name:pl":"Amsterdam-Centrum","name:he":"\u05d0\u05de\u05e1\u05d8\u05e8\u05d3\u05dd \u05d4\u05de\u05e8\u05db\u05d6\u05d9\u05ea","name:de":"Amsterdam-Centrum","name_en":"Centrum"},"geometry":{"type":"Point","coordinates":[4.9006587266922,52.36823990043078]}},{"type":"Feature","properties":{"mvt_id":81732587841,"name_int":"Nieuwmarkt/Lastage","name:sl":"Lastage","name_de":"Nieuwmarkt/Lastage","rank":18,"name:latin":"Nieuwmarkt/Lastage","name:nl":"Lastage","name":"Nieuwmarkt/Lastage","name:fr":"Lastage","name:ur":"\u0644\u0627\u0633\u0679\u0627\u06af\u06cc","name:it":"Nieuwmarktbuurt","name:en":"Lastage","class":"quarter","name:de":"Lastage","name_en":"Nieuwmarkt/Lastage"},"geometry":{"type":"Point","coordinates":[4.906350374221802,52.37217679084076]}},{"type":"Feature","properties":{"mvt_id":81743601941,"name_int":"Oostelijke Eilanden","name:sl":"Oostelijke Eilanden","name_de":"Oostelijke Eilanden","rank":19,"name:latin":"Oostelijke Eilanden","name:nl":"Oostelijke Eilanden","name:ru":"Oostelijke Eilanden","name":"Oostelijke Eilanden","name:fr":"Oostelijke Eilanden","name:it":"Oostelijke Eilanden","name:en":"Oostelijke Eilanden","class":"quarter","name:de":"Oostelijke Eilanden","name_en":"Oostelijke Eilanden"},"geometry":{"type":"Point","coordinates":[4.9218374490737915,52.371554510380804]}},{"type":"Feature","properties":{"mvt_id":81759013601,"name_int":"Plantage","name:sl":"Plantage","name_de":"Plantage","rank":21,"name:latin":"Plantage","name:ja":"\u30d7\u30e9\u30f3\u30bf\u30fc\u30b8\u30e5","name:fa":"\u067e\u0644\u0646\u06cc\u062c","name:nl":"Plantage","name":"Plantage","name:fr":"Plantage","name:it":"Plantage","name:en":"Plantage","class":"neighbourhood","name:he":"\u05d0\u05de\u05e1\u05d8\u05e8\u05d3\u05dd/\u05e4\u05dc\u05d0\u05e0\u05d8\u05d6'","name:pt":"Amsterdam/Plantage","name:de":"Plantagebuurt","name:hu":"Plantage","name_en":"Plantage"},"geometry":{"type":"Point","coordinates":[4.913662075996399,52.36570464550995]}},{"type":"Feature","properties":{"mvt_id":81759013621,"name_int":"Kadijken","name:sl":"Kadijken","name_de":"Kadijken","rank":22,"name:latin":"Kadijken","name:nl":"Kadijken","name":"Kadijken","name:fr":"Kadijken","name:en":"Kadijken","class":"neighbourhood","name:de":"Kadijken","name_en":"Kadijken"},"geometry":{"type":"Point","coordinates":[4.918586611747742,52.36815473919044]}},{"type":"Feature","properties":{"mvt_id":81740881571,"name_int":"Rapenburg","name_de":"Rapenburg","rank":24,"name:cs":"Rapenburg","name:latin":"Rapenburg","name:nl":"Rapenburg","name":"Rapenburg","name:fr":"Rapenburg","name:en":"Rapenburg","class":"neighbourhood","name:de":"Rapenburg","name_en":"Rapenburg"},"geometry":{"type":"Point","coordinates":[4.909005761146545,52.37167896717417]}},{"type":"Feature","properties":{"mvt_id":81740881671,"name_int":"Uilenburg","name_de":"Uilenburg","rank":25,"name:latin":"Uilenburg","name:nl":"Uilenburg","name":"Uilenburg","name:fr":"Uilenburg","name:en":"Uilenburg","class":"neighbourhood","name_en":"Uilenburg"},"geometry":{"type":"Point","coordinates":[4.904741048812866,52.37041800712428]}},{"type":"Feature","properties":{"mvt_id":81740881551,"name_int":"Valkenburg","name_de":"Valkenburg","rank":28,"name:latin":"Valkenburg","name:nl":"Marken","name":"Valkenburg","name:fr":"Marken","name:en":"Marken","class":"neighbourhood","name_en":"Valkenburg"},"geometry":{"type":"Point","coordinates":[4.907321333885193,52.36885567682164]}},{"type":"Feature","properties":{"mvt_id":81744220301,"name_int":"Kattenburg","name_de":"Kattenburg","rank":31,"name:latin":"Kattenburg","name:nl":"Kattenburg","name":"Kattenburg","name:fr":"Kattenburg","name:en":"Kattenburg","class":"neighbourhood","name_en":"Kattenburg"},"geometry":{"type":"Point","coordinates":[4.919407367706299,52.37256653045324]}},{"type":"Feature","properties":{"mvt_id":81769493661,"name_int":"Weesperbuurt","name_de":"Weesperbuurt","rank":35,"name:latin":"Weesperbuurt","name:ja":"\u30f4\u30a7\u30fc\u30b9\u30d1\u30d3\u30e5\u30eb\u30c8","name:nl":"Weesperbuurt","name":"Weesperbuurt","name:fr":"Weesperbuurt","name:en":"Weesperbuurt","class":"neighbourhood","name_en":"Weesperbuurt"},"geometry":{"type":"Point","coordinates":[4.908045530319214,52.36325441594182]}},{"type":"Feature","properties":{"mvt_id":81743601831,"name_int":"Marineterrein","name_de":"Marineterrein","rank":37,"name:latin":"Marineterrein","name:nl":"Marineterrein","name":"Marineterrein","name:en":"Marineterrein","class":"neighbourhood","name_en":"Marineterrein"},"geometry":{"type":"Point","coordinates":[4.915797114372253,52.373716078521994]}},{"type":"Feature","properties":{"mvt_id":81740881771,"name_int":"Nieuwmarktbuurt","name_de":"Nieuwmarktbuurt","rank":40,"name:latin":"Nieuwmarktbuurt","name":"Nieuwmarktbuurt","class":"neighbourhood","name_en":"Nieuwmarktbuurt"},"geometry":{"type":"Point","coordinates":[4.902064204216003,52.371665866475595]}}],"crs":{"type":"name","properties":{"name":"urn:ogc:def:crs:OGC:1.3:CRS84"}}}