{"type":"FeatureCollection","name":"water_name","features":[{"type":"Feature","properties":{"mvt_id":88785523,"name_int":"Oosterdok","name:uk":"\u041e\u043e\u0441\u0442\u0435\u0440\u0434\u043e\u043a","intermittent":0,"name_de":"Oosterdok","name:en":"Oosterdok","class":"lake","name:latin":"Oosterdok","name:zh":"\u6771\u8239\u5862","name:nl":"Oosterdok","name:de":"Oosterdok","name":"Oosterdok","name:fr":"Oosterdok","name_en":"Oosterdok"},"geometry":{"type":"Point","coordinates":[4.908844828605652,52.37434160350471]}},{"type":"Feature","properties":{"mvt_id":740802922,"name_int":"Steenvoetsluis","intermittent":0,"name_de":"Steenvoetsluis","class":"lake","name:latin":"Steenvoetsluis","name":"Steenvoetsluis","name_en":"Steenvoetsluis"},"geometry":{"type":"Point","coordinates":[4.902949333190918,52.36957953064537]}},{"type":"Feature","properties":{"mvt_id":2527542432,"name_int":"Hortusvijver","intermittent":0,"name_de":"Hortusvijver","class":"lake","name:latin":"Hortusvijver","name":"Hortusvijver","name_en":"Hortusvijver"},"geometry":{"type":"Point","coordinates":[4.9067312479019165,52.36651371553589]}},{"type":"Feature","properties":{"mvt_id":2527542442,"name_int":"Hortusvijver","intermittent":0,"name_de":"Hortusvijver","class":"lake","name:latin":"Hortusvijver","name":"Hortusvijver","name_en":"Hortusvijver"},"geometry":{"type":"Point","coordinates":[4.907927513122559,52.366104268994086]}},{"type":"Feature","properties":{"mvt_id":5623282402,"name_int":"Watertafel","intermittent":0,"name_de":"Watertafel","class":"lake","name:latin":"Watertafel","name":"Watertafel","name_en":"Watertafel"},"geometry":{"type":"Point","coordinates":[4.913259744644165,52.36646785771191]}},{"type":"Feature","properties":{"mvt_id":13753401472,"name_int":"Large pond","intermittent":0,"name_de":"Large pond","class":"lake","name:latin":"Large pond","name":"Large pond","name_en":"Large pond"},"geometry":{"type":"Point","coordinates":[4.908732175827026,52.36696574011068]}},{"type":"Feature","properties":{"mvt_id":13753401502,"name_int":"Victoria pond","intermittent":0,"name_de":"Victoria pond","class":"lake","name:latin":"Victoria pond","name":"Victoria pond","name_en":"Victoria pond"},"geometry":{"type":"Point","coordinates":[4.908109903335571,52.36691333170137]}}],"crs":{"type":"name","properties":{"name":"urn:ogc:def:crs:OGC:1.3:CRS84"}}}