{"type":"FeatureCollection","name":"waterway","features":[{"type":"Feature","properties":{"mvt_id":171624702,"name_int":"Entrepotdok","intermittent":0,"name:sl":"Entrepotdok","name:ga":"Entrepotdok","name:nl":"Entrepotdok","name:de":"Entrepotdok","name_de":"Entrepotdok","name":"Entrepotdok","name:it":"Entrepotdok","name:fr":"Entrepotdok","name:en":"Entrepotdok","class":"canal","name:latin":"Entrepotdok","name_en":"Entrepotdok"},"geometry":{"type":"LineString","coordinates":[[4.91389274597168,52.368580543750376],[4.917551279067993,52.36733587273131],[4.918447136878967,52.36709020983361],[4.919600486755371,52.366648013175116],[4.921225905418396,52.366104268994086],[4.921419024467468,52.365845496822615]]}},{"type":"Feature","properties":{"mvt_id":171666592,"name_int":"Nieuwe Prinsengracht","intermittent":0,"name:ga":"Nieuwe Prinsengracht","name:nl":"Nieuwe Prinsengracht","name:de":"Nieuwe Prinsengracht","name_de":"Nieuwe Prinsengracht","name":"Nieuwe Prinsengracht","name:fr":"Nieuwe Prinsengracht","name:en":"Nieuwe Prinsengracht","class":"canal","name:latin":"Nieuwe Prinsengracht","name_en":"Nieuwe Prinsengracht"},"geometry":{"type":"LineString","coordinates":[[4.9035608768463135,52.36294976560178],[4.904467463493347,52.36310372893941],[4.906328916549683,52.363447687649135]]}},{"type":"Feature","properties":{"mvt_id":171666602,"name_int":"Keizersgracht","intermittent":0,"name_de":"Keizersgracht","name":"Keizersgracht","class":"canal","name:latin":"Keizersgracht","name_en":"Keizersgracht","name:uk":"\u041a\u0435\u0439\u0437\u0435\u0440\u0441\u0433\u0440\u0430\u0445\u0442"},"geometry":{"type":"LineString","coordinates":[[4.90189254283905,52.36447954771203],[4.901264905929565,52.36436162206742]]}},{"type":"Feature","properties":{"mvt_id":232697702,"name_int":"Raamgracht","intermittent":0,"name:ga":"Raamgracht","name:nl":"Raamgracht","name:de":"Raamgracht","name_de":"Raamgracht","name":"Raamgracht","name:fr":"Raamgracht","name:en":"Raamgracht","class":"canal","name:latin":"Raamgracht","name_en":"Raamgracht"},"geometry":{"type":"LineString","coordinates":[[4.900041818618774,52.36946161861404],[4.89990234375,52.3695220936646]]}},{"type":"Feature","properties":{"mvt_id":232892932,"name_int":"Nieuwe Keizersgracht","intermittent":0,"name:ga":"Nieuwe Keizersgracht","name:nl":"Nieuwe Keizersgracht","name:de":"Nieuwe Keizersgracht","name_de":"Nieuwe Keizersgracht","name":"Nieuwe Keizersgracht","name:fr":"Nieuwe Keizersgracht","name:en":"Nieuwe Keizersgracht","class":"canal","name:latin":"Nieuwe Keizersgracht","name_en":"Nieuwe Keizersgracht"},"geometry":{"type":"LineString","coordinates":[[4.908995032310486,52.365799638305],[4.908726811408997,52.36581274074346],[4.905867576599121,52.36525260803144]]}},{"type":"Feature","properties":{"mvt_id":232940192,"name_int":"Oosterdok","intermittent":0,"name:nl":"Oosterdok","name:de":"Oosterdok","name_de":"Oosterdok","name":"Oosterdok","name:fr":"Oosterdok","name:en":"Oosterdok","class":"canal","name:latin":"Oosterdok","name_en":"Oosterdok","name:zh":"\u6771\u8239\u5862"},"geometry":{"type":"LineString","coordinates":[[4.913517236709595,52.37203268456693],[4.913501143455505,52.372763036516744],[4.91314172744751,52.37442347784675],[4.912492632865906,52.37552712916416],[4.911167621612549,52.375478005804766]]}},{"type":"Feature","properties":{"mvt_id":276878132,"name_int":"Dijksgracht","intermittent":0,"name:nl":"Dijksgracht","name:de":"Dijksgracht","name_de":"Dijksgracht","name":"Dijksgracht","name:en":"Dijksgracht","class":"canal","name:latin":"Dijksgracht","name_en":"Dijksgracht"},"geometry":{"type":"LineString","coordinates":[[4.921445846557617,52.37515379026236],[4.921875,52.375082833681404]]}},{"type":"Feature","properties":{"mvt_id":283448642,"name_int":"Krom Boomssloot","intermittent":0,"name:ga":"Krom Boomssloot","name:nl":"Kromboomssloot","name:de":"Krom Boomssloot","name_de":"Krom Boomssloot","name":"Krom Boomssloot","name:fr":"Kromboomssloot","name:en":"Krom Boomssloot","class":"canal","name:latin":"Krom Boomssloot","name_en":"Krom Boomssloot","name:hy":"\u053f\u0580\u0578\u0574 \u0532\u0578\u0582\u0574\u057d\u056c\u0578\u057f"},"geometry":{"type":"LineString","coordinates":[[4.902268052101135,52.37148245628752],[4.902058839797974,52.371223715620005],[4.901677966117859,52.37102065226246]]}},{"type":"Feature","properties":{"mvt_id":294038392,"intermittent":0,"class":"canal"},"geometry":{"type":"LineString","coordinates":[[4.914316534996033,52.371197513948914],[4.9156254529953,52.37162328917838]]}},{"type":"Feature","properties":{"mvt_id":294042182,"name_int":"Kattenburgervaart","intermittent":0,"name:nl":"Kattenburgervaart","name_de":"Kattenburgervaart","name":"Kattenburgervaart","name:en":"Kattenburgervaart","class":"canal","name:latin":"Kattenburgervaart","name_en":"Kattenburgervaart","name:ca":"Kattenburgervaart"},"geometry":{"type":"LineString","coordinates":[[4.919562935829163,52.37175102094688],[4.919943809509277,52.3717641216202],[4.9201905727386475,52.3718263497654],[4.921569228172302,52.37268443419626]]}},{"type":"Feature","properties":{"mvt_id":294049352,"name_int":"Nieuwe Herengracht","intermittent":0,"name:ga":"Nieuwe Herengracht","name:nl":"Nieuwe Herengracht","name:de":"Nieuwe Herengracht","name_de":"Nieuwe Herengracht","name":"Nieuwe Herengracht","name:fr":"Nieuwe Herengracht","name:en":"Nieuwe Herengracht","class":"canal","name:latin":"Nieuwe Herengracht","name_en":"Nieuwe Herengracht"},"geometry":{"type":"LineString","coordinates":[[4.9051326513290405,52.366520266649715],[4.906033873558044,52.366703697442375],[4.906870722770691,52.36718519964938]]}},{"type":"Feature","properties":{"mvt_id":294049612,"name_int":"Schippersgracht","intermittent":0,"name:ga":"Schippersgracht","name:nl":"Schippersgracht","name:de":"Schippersgracht","name_de":"Schippersgracht","name":"Schippersgracht","name:en":"Schippersgracht","class":"canal","name:latin":"Schippersgracht","name_en":"Schippersgracht","name:ca":"Schippersgracht"},"geometry":{"type":"LineString","coordinates":[[4.911779165267944,52.370401630782936],[4.912476539611816,52.370860166045226]]}},{"type":"Feature","properties":{"mvt_id":294065252,"name_int":"Onbekendegracht","intermittent":0,"name:ga":"Onbekendegracht","name:nl":"Onbekendegracht","name:de":"Onbekendegracht","name_de":"Onbekendegracht","name":"Onbekendegracht","name:fr":"Onbekendegracht","name:en":"Onbekendegracht","class":"canal","name:latin":"Onbekendegracht","name_en":"Onbekendegracht"},"geometry":{"type":"LineString","coordinates":[[4.904467463493347,52.36310372893941],[4.9045586585998535,52.362923559022796]]}},{"type":"Feature","properties":{"mvt_id":294068362,"name_int":"Plantage Muidergracht","intermittent":0,"name:sl":"Plantage Muidergracht","name:ga":"Plantage Muidergracht","name:nl":"Plantage Muidergracht","name:de":"Plantage Muidergracht","name_de":"Plantage Muidergracht","name":"Plantage Muidergracht","name:fr":"Plantage Muidergracht","name:en":"Plantage Muidergracht","class":"canal","name:latin":"Plantage Muidergracht","name_en":"Plantage Muidergracht"},"geometry":{"type":"LineString","coordinates":[[4.921494126319885,52.36574395289819],[4.921553134918213,52.36557689625663],[4.921424388885498,52.36537053129783],[4.92062509059906,52.36483987412029],[4.919412732124329,52.364253523283345],[4.918747544288635,52.3639881887829]]}},{"type":"Feature","properties":{"mvt_id":294073652,"name_int":"Oudeschans","intermittent":0,"name:ga":"Oudeschans","name:nl":"Oudeschans","name:de":"Oudeschans","name_de":"Oudeschans","name":"Oudeschans","name:fr":"Oudeschans","name:en":"Oudeschans","class":"canal","name:latin":"Oudeschans","name_en":"Oudeschans","name:zh":"\u820a\u57ce\u7246"},"geometry":{"type":"LineString","coordinates":[[4.901871085166931,52.37011013089133],[4.902246594429016,52.37033285008304],[4.903877377510071,52.37103047793028]]}},{"type":"Feature","properties":{"mvt_id":294074312,"name_int":"Sint Antoniesluis","intermittent":0,"name_de":"Sint Antoniesluis","name":"Sint Antoniesluis","class":"canal","name:latin":"Sint Antoniesluis","name_en":"Sint Antoniesluis","brunnel":"tunnel"},"geometry":{"type":"LineString","coordinates":[[4.900948405265808,52.369520574669046],[4.901366829872131,52.36979570188533]]}},{"type":"Feature","properties":{"mvt_id":294075772,"name_int":"Snoekjesgracht","intermittent":0,"name:nl":"Snoekjesgracht","name_de":"Snoekjesgracht","name":"Snoekjesgracht","name:fr":"Snoekjesgracht","name:en":"Snoekjesgracht","class":"canal","name:latin":"Snoekjesgracht","name_en":"Snoekjesgracht"},"geometry":{"type":"LineString","coordinates":[[4.90114152431488,52.37076518413178],[4.901264905929565,52.37056539392305]]}},{"type":"Feature","properties":{"mvt_id":294081852,"name_int":"Recht Boomssloot","intermittent":0,"name:ga":"Recht Boomssloot","name:nl":"Recht Boomssloot","name:de":"Recht Boomssloot","name_de":"Recht Boomssloot","name":"Recht Boomssloot","name:fr":"Rechtboomssloot","name:en":"Recht Boomssloot","class":"canal","name:latin":"Recht Boomssloot","name_en":"Recht Boomssloot"},"geometry":{"type":"LineString","coordinates":[[4.90190863609314,52.373041418610114],[4.901340007781982,52.37336892470885]]}},{"type":"Feature","properties":{"mvt_id":294699102,"name_int":"Singelgracht","intermittent":0,"name:nl":"Singelgracht","name_de":"Singelgracht","name":"Singelgracht","class":"canal","name:latin":"Singelgracht","name_en":"Singelgracht"},"geometry":{"type":"LineString","coordinates":[[4.919809699058533,52.36317907250486],[4.919605851173401,52.36303493687613],[4.918844103813171,52.362389596591086],[4.918355941772461,52.362206147885956],[4.918116554617882,52.362183216744256]]}},{"type":"Feature","properties":{"mvt_id":294718712,"name_int":"Entrepotdoksluis","intermittent":0,"name_de":"Entrepotdoksluis","name":"Entrepotdoksluis","class":"canal","name:latin":"Entrepotdoksluis","name_en":"Entrepotdoksluis"},"geometry":{"type":"LineString","coordinates":[[4.9201637506484985,52.368813096815536],[4.919772148132324,52.368521586440735],[4.919332265853882,52.368036823355844]]}},{"type":"Feature","properties":{"mvt_id":294719922,"name_int":"Marinehaven","intermittent":0,"name_de":"Marinehaven","name":"Marinehaven","class":"canal","name:latin":"Marinehaven","name_en":"Marinehaven"},"geometry":{"type":"LineString","coordinates":[[4.914493560791016,52.3728809397352],[4.913501143455505,52.372763036516744]]}},{"type":"Feature","properties":{"mvt_id":294720102,"name_int":"Oosterdok","intermittent":0,"name:nl":"Oosterdok","name:de":"Oosterdok","name_de":"Oosterdok","name":"Oosterdok","name:fr":"Oosterdok","name:en":"Oosterdok","class":"canal","name:latin":"Oosterdok","name_en":"Oosterdok","name:uk":"\u041e\u043e\u0441\u0442\u0435\u0440\u0434\u043e\u043a","name:zh":"\u6771\u8239\u5862"},"geometry":{"type":"LineString","coordinates":[[4.907970428466797,52.37283181343243],[4.90863561630249,52.37316259614969],[4.909338355064392,52.37393877953146],[4.910432696342468,52.374629800515486]]}},{"type":"Feature","properties":{"mvt_id":294723002,"name_int":"Nieuwe Achtergracht","intermittent":0,"name:ga":"Nieuwe Achtergracht","name:nl":"Nieuwe Achtergracht","name:de":"Nieuwe Achtergracht","name_de":"Nieuwe Achtergracht","name":"Nieuwe Achtergracht","name:fr":"Nieuwe Achtergracht","name:en":"Nieuwe Achtergracht","class":"canal","name:latin":"Nieuwe Achtergracht","name_en":"Nieuwe Achtergracht"},"geometry":{"type":"LineString","coordinates":[[4.907562732696533,52.36247149308854],[4.9105507135391235,52.36304804013454]]}},{"type":"Feature","properties":{"mvt_id":294725992,"name_int":"Rapenburgwal","intermittent":0,"name:nl":"Rapenburgwal","name_de":"Rapenburgwal","name":"Rapenburgwal","name:fr":"Rapenburgwal","name:en":"Rapenburgwal","class":"canal","name:latin":"Rapenburgwal","name_en":"Rapenburgwal"},"geometry":{"type":"LineString","coordinates":[[4.9074554443359375,52.37142022765781],[4.9078792333602905,52.371158211413125]]}},{"type":"Feature","properties":{"mvt_id":294727972,"name_int":"Waalseilandgracht","intermittent":0,"name:nl":"Waalseilandsgracht","name:de":"Waalseilandsgracht","name_de":"Waalseilandgracht","name":"Waalseilandgracht","name:fr":"Waalseilandsgracht","name:en":"Waalseilandsgracht","class":"canal","name:latin":"Waalseilandgracht","name_en":"Waalseilandgracht","name:da":"Waalseilandsgracht","name:fi":"Waalseilandsgracht","name:sv":"Waalseilandsgracht"},"geometry":{"type":"LineString","coordinates":[[4.903265833854675,52.375019518482155],[4.90314781665802,52.37480992269221],[4.903099536895752,52.37440710299048],[4.903169274330139,52.37410580455162],[4.903324842453003,52.373833979196306],[4.903453588485718,52.373689878329415]]}},{"type":"Feature","properties":{"mvt_id":294748602,"name_int":"Oosterdoksdoorgang","intermittent":0,"name_de":"Oosterdoksdoorgang","name":"Oosterdoksdoorgang","class":"canal","name:latin":"Oosterdoksdoorgang","name_en":"Oosterdoksdoorgang"},"geometry":{"type":"LineString","coordinates":[[4.91111849204151,52.3755991766591],[4.911167621612549,52.375478005804766]]}},{"type":"Feature","properties":{"mvt_id":294748832,"name_int":"Oosterdok","intermittent":0,"name:nl":"Oosterdok","name:de":"Oosterdok","name_de":"Oosterdok","name":"Oosterdok","name:fr":"Oosterdok","name:en":"Oosterdok","class":"canal","name:latin":"Oosterdok","name_en":"Oosterdok","name:uk":"\u041e\u043e\u0441\u0442\u0435\u0440\u0434\u043e\u043a","name:zh":"\u6771\u8239\u5862"},"geometry":{"type":"LineString","coordinates":[[4.9055849910826055,52.3755991766591],[4.909338355064392,52.37393877953146]]}},{"type":"Feature","properties":{"mvt_id":299801492,"intermittent":0,"class":"canal"},"geometry":{"type":"LineString","coordinates":[[4.9156254529953,52.37162328917838],[4.91489052772522,52.372415875212475],[4.914729595184326,52.37263858277804],[4.914493560791016,52.3728809397352]]}},{"type":"Feature","properties":{"mvt_id":301157162,"name_int":"Scharrebiersluis","intermittent":0,"name_de":"Scharrebiersluis","name":"Scharrebiersluis","class":"canal","name:latin":"Scharrebiersluis","name_en":"Scharrebiersluis"},"geometry":{"type":"LineString","coordinates":[[4.911092519760132,52.36994309076057],[4.9115753173828125,52.37026734455499]]}},{"type":"Feature","properties":{"mvt_id":301239732,"name_int":"Amstel","intermittent":0,"name:nl":"Amstel","name_de":"Amstel","name":"Amstel","class":"river","name:latin":"Amstel","name_en":"Amstel","name:uk":"\u0410\u043c\u0441\u0442\u0435\u043b","name:ru":"\u0410\u043c\u0441\u0442\u0435\u043b"},"geometry":{"type":"LineString","coordinates":[[4.902332425117493,52.36365733735872],[4.90189254283905,52.36447954771203]]}},{"type":"Feature","properties":{"mvt_id":682371482,"name_int":"Geldersekade","intermittent":0,"name:ga":"Geldersekade","name:nl":"Geldersekade","name:de":"Geldersekade","name_de":"Geldersekade","name":"Geldersekade","name:fr":"Geldersekade","name:en":"Geldersekade","class":"canal","name:latin":"Geldersekade","name_en":"Geldersekade","name:zh":"\u4fa8\u5fb7\u4ed5\u8857"},"geometry":{"type":"LineString","coordinates":[[4.901340007781982,52.37424335409392],[4.902004410033442,52.3755991766591]]}},{"type":"Feature","properties":{"mvt_id":1122603412,"name_int":"Entrepotdoksluis","intermittent":0,"name:nl":"Entrepotdoksluis","name:de":"Entrepotdoksluis","name_de":"Entrepotdoksluis","name":"Entrepotdoksluis","name:en":"Entrepotdoksluis","class":"canal","name:latin":"Entrepotdoksluis","name_en":"Entrepotdoksluis"},"geometry":{"type":"LineString","coordinates":[[4.91913378238678,52.36782719442828],[4.918849468231201,52.36752257561988]]}},{"type":"Feature","properties":{"mvt_id":1307514442,"name_int":"Uilenburgergracht","intermittent":0,"name:nl":"Uilenburgergracht","name_de":"Uilenburgergracht","name":"Uilenburgergracht","name:fr":"Uilenburgergracht","name:en":"Uilenburgergracht","class":"canal","name:latin":"Uilenburgergracht","name_en":"Uilenburgergracht","name:ca":"Uilenburgergracht"},"geometry":{"type":"LineString","coordinates":[[4.9078792333602905,52.371158211413125],[4.907611012458801,52.37078156033832],[4.904043674468994,52.369284749976885],[4.903716444969177,52.36925199644785]]}},{"type":"Feature","properties":{"mvt_id":1307514492,"intermittent":0,"class":"canal"},"geometry":{"type":"LineString","coordinates":[[4.903067350387573,52.369530400670556],[4.902825951576233,52.36962538523922]]}},{"type":"Feature","properties":{"mvt_id":1694146282,"name_int":"Wittenburgervaart","intermittent":0,"name_de":"Wittenburgervaart","name":"Wittenburgervaart","class":"canal","name:latin":"Wittenburgervaart","name_en":"Wittenburgervaart"},"geometry":{"type":"LineString","coordinates":[[4.921875,52.369835509527455],[4.921660423278809,52.36970071768292],[4.921097159385681,52.36954350200253]]}},{"type":"Feature","properties":{"mvt_id":1955828762,"name_int":"Amstel","intermittent":0,"name:sl":"Amstel","name:ga":"An Amstel","name:nl":"Amstel","name:de":"Amstel","name_de":"Amstel","name":"Amstel","name:it":"Amstel","name:fr":"Amstel","name:en":"Amstel","class":"river","name:latin":"Amstel","name_en":"Amstel","name:uk":"\u0410\u043c\u0441\u0442\u0435\u043b","name:zh":"\u963f\u59c6\u65af\u7279\u723e\u6cb3","name:hy":"\u0531\u0574\u057d\u057f\u0565\u056c","name:ca":"Amstel","name:da":"Amstel","name:fi":"Amstel","name:sv":"Amstel","name:ru":"\u0410\u043c\u0441\u0442\u0435\u043b","name:fy":"Amstel","name:sk":"Amstel","name:ka":"\u10d0\u10db\u10e1\u10e2\u10d4\u10da\u10d8","name:sr":"\u0410\u043c\u0441\u0442\u0435\u043b","name:ko":"\uc554\uc2a4\ud154\uac15","name:cs":"Amstel","name:ta":"\u0b86\u0bae\u0bcd\u0bb8\u0bcd\u0b9f\u0bb2\u0bcd","name:vi":"S\u00f4ng Amstel","name:ar":"\u0623\u0645\u0633\u062a\u0644","name:ja":"\u30a2\u30e0\u30b9\u30c6\u30eb\u5ddd","name:fa":"\u0622\u0645\u0633\u062a\u0644","name:az":"Amstel \u00e7ay\u0131","name:ro":"Amstel","name:be":"\u0410\u043c\u0441\u0442\u044d\u043b","name:bg":"\u0410\u043c\u0441\u0442\u0435\u043b","name:id":"Amstel","name:mk":"\u0410\u043c\u0441\u0442\u0435\u043b","name:el":"\u0386\u03bc\u03c3\u03c4\u03b5\u03bb","name:eo":"Amstel","name:eu":"Amstel","name:es":"R\u00edo Amstel","name:cy":"Afon Amstel","name:pl":"Amstel","name:he":"\u05d0\u05de\u05e1\u05d8\u05dc","name:tr":"Amstel Nehri","name:pt":"Rio Amstel","name:hu":"Amstel"},"geometry":{"type":"LineString","coordinates":[[4.900782108306885,52.36651043997861],[4.90064799785614,52.36662180878976],[4.89990234375,52.36689095161354]]}},{"type":"Feature","properties":{"mvt_id":2605957832,"name_int":"Amstel","intermittent":0,"name:nl":"Amstelsluizen","name:de":"Amstelsluizen","name_de":"Amstel","name":"Amstel","name:en":"Amstelsluizen","class":"canal","name:latin":"Amstel","name_en":"Amstel"},"geometry":{"type":"LineString","coordinates":[[4.902665019035339,52.36242235520829],[4.902785072361468,52.362183216744256]]}},{"type":"Feature","properties":{"mvt_id":2605957842,"name_int":"Amstel","intermittent":0,"name:nl":"Amstelsluizen","name:de":"Amstelsluizen","name_de":"Amstel","name":"Amstel","name:en":"Amstelsluizen","class":"canal","name:latin":"Amstel","name_en":"Amstel"},"geometry":{"type":"LineString","coordinates":[[4.902825951576233,52.362458389659146],[4.902966006382115,52.362183216744256]]}},{"type":"Feature","properties":{"mvt_id":2605957852,"name_int":"Amstel","intermittent":0,"name:nl":"Amstelsluizen","name:de":"Amstelsluizen","name_de":"Amstel","name":"Amstel","name:en":"Amstelsluizen","class":"canal","name:latin":"Amstel","name_en":"Amstel"},"geometry":{"type":"LineString","coordinates":[[4.903376172570631,52.362183216744256],[4.903206825256348,52.36252718262009]]}},{"type":"Feature","properties":{"mvt_id":3110752222,"intermittent":0,"class":"canal"},"geometry":{"type":"LineString","coordinates":[[4.9174922704696655,52.37042128239181],[4.917669296264648,52.37059487122379],[4.9177926778793335,52.37067020201408]]}},{"type":"Feature","properties":{"mvt_id":3110752232,"name_int":"Parelduiker","intermittent":0,"name_de":"Parelduiker","name":"Parelduiker","class":"drain","name:latin":"Parelduiker","name_en":"Parelduiker"},"geometry":{"type":"LineString","coordinates":[[4.917229413986206,52.37013960849588],[4.9174922704696655,52.37042128239181]]}},{"type":"Feature","properties":{"mvt_id":3129280382,"name_int":"Bijleveldschesluis","intermittent":1,"name:nl":"Bijleveldschesluis","name:de":"Bijleveldschesluis","name_de":"Bijleveldschesluis","name":"Bijleveldschesluis","name:it":"Bijleveldschesluis","name:fr":"Bijleveldschesluis","name:en":"Bijleveldschesluis","class":"drain","name:latin":"Bijleveldschesluis","name_en":"Bijleveldschesluis","brunnel":"tunnel","name:da":"Bijleveldschesluis","name:sv":"Bijleveldschesluis","name:cs":"Bijleveldschesluis","name:id":"Bijleveldschesluis","name:br":"Bijleveldschesluis"},"geometry":{"type":"LineString","coordinates":[[4.89990234375,52.37236429204999],[4.899998903274536,52.37246172686189],[4.90064799785614,52.37266805869522],[4.900948405265808,52.37320844702392]]}},{"type":"Feature","properties":{"mvt_id":3883395242,"intermittent":0,"class":"canal"},"geometry":{"type":"LineString","coordinates":[[4.920448064804077,52.36901289495009],[4.9201637506484985,52.368813096815536]]}},{"type":"Feature","properties":{"mvt_id":3883395252,"intermittent":0,"class":"canal"},"geometry":{"type":"LineString","coordinates":[[4.917020201683044,52.36990706241426],[4.917229413986206,52.37013960849588]]}},{"type":"Feature","properties":{"mvt_id":3883395262,"name_int":"Nieuwe Vaart","intermittent":0,"name_de":"Nieuwe Vaart","name":"Nieuwe Vaart","class":"canal","name:latin":"Nieuwe Vaart","name_en":"Nieuwe Vaart"},"geometry":{"type":"LineString","coordinates":[[4.91514265537262,52.37057194443602],[4.917020201683044,52.36990706241426],[4.9185168743133545,52.36948454597812],[4.91888165473938,52.36935680765528]]}},{"type":"Feature","properties":{"mvt_id":3883395272,"name_int":"Oesjesduiker","intermittent":0,"name_de":"Oesjesduiker","name":"Oesjesduiker","class":"canal","name:latin":"Oesjesduiker","name_en":"Oesjesduiker"},"geometry":{"type":"LineString","coordinates":[[4.920780658721924,52.3693633583475],[4.920448064804077,52.36901289495009]]}},{"type":"Feature","properties":{"mvt_id":5270041882,"name_int":"Amstel","intermittent":0,"name_de":"Amstel","name":"Amstel","class":"canal","name:latin":"Amstel","name_en":"Amstel"},"geometry":{"type":"LineString","coordinates":[[4.9027615785598755,52.36280890505697],[4.902627468109131,52.362494424080616],[4.902665019035339,52.36242235520829]]}},{"type":"Feature","properties":{"mvt_id":5270041902,"name_int":"Amstel","intermittent":0,"name_de":"Amstel","name":"Amstel","class":"canal","name:latin":"Amstel","name_en":"Amstel"},"geometry":{"type":"LineString","coordinates":[[4.903206825256348,52.36252718262009],[4.903174638748169,52.36259269962618],[4.9027615785598755,52.36280890505697]]}},{"type":"Feature","properties":{"mvt_id":7973347852,"name_int":"Amstel","intermittent":0,"name:nl":"Amstel","name_de":"Amstel","name":"Amstel","class":"canal","name:latin":"Amstel","name_en":"Amstel","name:uk":"\u0410\u043c\u0441\u0442\u0435\u043b","name:ru":"\u0410\u043c\u0441\u0442\u0435\u043b"},"geometry":{"type":"LineString","coordinates":[[4.903040528297424,52.36249769993566],[4.903008341789246,52.362563216985464],[4.9027615785598755,52.36280890505697]]}},{"type":"Feature","properties":{"mvt_id":7973347862,"name_int":"Amstel","intermittent":0,"name_de":"Amstel","name":"Amstel","class":"canal","name:latin":"Amstel","name_en":"Amstel"},"geometry":{"type":"LineString","coordinates":[[4.9027615785598755,52.36280890505697],[4.902793765068054,52.36252063091415],[4.902825951576233,52.362458389659146]]}},{"type":"Feature","properties":{"mvt_id":7973347902,"name_int":"Amstel","intermittent":0,"name:nl":"Amstelsluizen","name:de":"Amstelsluizen","name_de":"Amstel","name":"Amstel","name:en":"Amstelsluizen","class":"canal","name:latin":"Amstel","name_en":"Amstel"},"geometry":{"type":"LineString","coordinates":[[4.903198726036976,52.362183216744256],[4.903040528297424,52.36249769993566]]}},{"type":"Feature","properties":{"mvt_id":8593219992,"name_int":"Nieuwe Vaart","intermittent":0,"name_de":"Nieuwe Vaart","name":"Nieuwe Vaart","class":"canal","name:latin":"Nieuwe Vaart","name_en":"Nieuwe Vaart"},"geometry":{"type":"LineString","coordinates":[[4.91514265537262,52.37057194443602],[4.914960265159607,52.370860166045226],[4.914316534996033,52.371197513948914],[4.9135226011276245,52.371511932976254]]}},{"type":"Feature","properties":{"mvt_id":8594113582,"name_int":"Oosterdoksdoorgang","intermittent":0,"name_de":"Oosterdoksdoorgang","name":"Oosterdoksdoorgang","class":"canal","name:latin":"Oosterdoksdoorgang","name_en":"Oosterdoksdoorgang"},"geometry":{"type":"LineString","coordinates":[[4.911167621612549,52.375478005804766],[4.911216751183588,52.3755991766591]]}},{"type":"Feature","properties":{"mvt_id":10091293542,"name_int":"Zwanenburgwal","intermittent":0,"name:ga":"Zwanenburgwal","name:nl":"Zwanenburgwal","name:de":"Zwanenburgwal","name_de":"Zwanenburgwal","name":"Zwanenburgwal","name:fr":"Zwanenburgwal","name:en":"Zwanenburgwal","class":"canal","name:latin":"Zwanenburgwal","name_en":"Zwanenburgwal","name:zh":"\u5929\u9d5d\u9632\u885b\u5824","name:da":"Zwanenburgwal","name:fi":"Zwanenburgwal","name:sv":"Zwanenburgwal"},"geometry":{"type":"LineString","coordinates":[[4.89990234375,52.368870793973684],[4.900116920471191,52.36905219939477],[4.900374412536621,52.369183213957804],[4.900599718093872,52.3692683732154],[4.900948405265808,52.369520574669046]]}},{"type":"Feature","properties":{"mvt_id":10091293552,"name_int":"Sint Antoniesluis","intermittent":0,"name_de":"Sint Antoniesluis","name":"Sint Antoniesluis","class":"canal","name:latin":"Sint Antoniesluis","name_en":"Sint Antoniesluis"},"geometry":{"type":"LineString","coordinates":[[4.901366829872131,52.36979570188533],[4.901602864265442,52.36994964136584]]}},{"type":"Feature","properties":{"mvt_id":12919130382,"name_int":"Oosterdok","intermittent":0,"name:nl":"Oosterdok","name:de":"Oosterdok","name_de":"Oosterdok","name":"Oosterdok","name:fr":"Oosterdok","name:en":"Oosterdok","class":"canal","name:latin":"Oosterdok","name_en":"Oosterdok","name:zh":"\u6771\u8239\u5862"},"geometry":{"type":"LineString","coordinates":[[4.9135226011276245,52.371511932976254],[4.913517236709595,52.37203268456693]]}},{"type":"Feature","properties":{"mvt_id":12919130392,"intermittent":0,"class":"canal"},"geometry":{"type":"LineString","coordinates":[[4.912417531013489,52.372222642738365],[4.913517236709595,52.37203268456693]]}},{"type":"Feature","properties":{"mvt_id":13226265332,"name_int":"Herengracht","intermittent":0,"name:sl":"Herengracht","name:ga":"Herengracht","name:nl":"Herengracht","name:de":"Herengracht","name_de":"Herengracht","name":"Herengracht","name:it":"Herengracht (Amsterdam)","name:fr":"Herengracht","name:en":"Herengracht","class":"canal","name:latin":"Herengracht","name_en":"Herengracht","name:uk":"\u0413\u0435\u0440\u0435\u043d\u0433\u0440\u0430\u0445\u0442","name:hy":"\u0540\u0565\u0580\u0565\u0576\u0563\u0580\u0561\u056d\u057f","name:sv":"Herengracht","name:ru":"\u0425\u0435\u0440\u0435\u043d\u0433\u0440\u0430\u0445\u0442","name:ja":"\u30d8\u30fc\u30ec\u30f3\u904b\u6cb3","name:pl":"Herengracht","name:he":"\u05d4\u05e8\u05e0\u05d7\u05e8\u05db\u05d8"},"geometry":{"type":"LineString","coordinates":[[4.900572896003723,52.365655511225455],[4.901205897331238,52.36577998464003]]}},{"type":"Feature","properties":{"mvt_id":13226265342,"name_int":"Herengracht","intermittent":0,"name:sl":"Herengracht","name:ga":"Herengracht","name:nl":"Herengracht","name:de":"Herengracht","name_de":"Herengracht","name":"Herengracht","name:it":"Herengracht (Amsterdam)","name:fr":"Herengracht","name:en":"Herengracht","class":"canal","name:latin":"Herengracht","name_en":"Herengracht","name:uk":"\u0413\u0435\u0440\u0435\u043d\u0433\u0440\u0430\u0445\u0442","name:hy":"\u0540\u0565\u0580\u0565\u0576\u0563\u0580\u0561\u056d\u057f","name:sv":"Herengracht","name:ru":"\u0425\u0435\u0440\u0435\u043d\u0433\u0440\u0430\u0445\u0442","name:ja":"\u30d8\u30fc\u30ec\u30f3\u904b\u6cb3","name:pl":"Herengracht","name:he":"\u05d4\u05e8\u05e0\u05d7\u05e8\u05db\u05d8"},"geometry":{"type":"LineString","coordinates":[[4.89990234375,52.36553022866265],[4.900428056716919,52.3656293062514]]}},{"type":"Feature","properties":{"mvt_id":13226265362,"name_int":"Herengracht","intermittent":0,"name:sl":"Herengracht","name:ga":"Herengracht","name:nl":"Herengracht","name:de":"Herengracht","name_de":"Herengracht","name":"Herengracht","name:it":"Herengracht (Amsterdam)","name:fr":"Herengracht","name:en":"Herengracht","class":"canal","name:latin":"Herengracht","name_en":"Herengracht","name:uk":"\u0413\u0435\u0440\u0435\u043d\u0433\u0440\u0430\u0445\u0442","name:hy":"\u0540\u0565\u0580\u0565\u0576\u0563\u0580\u0561\u056d\u057f","name:sv":"Herengracht","name:ru":"\u0425\u0435\u0440\u0435\u043d\u0433\u0440\u0430\u0445\u0442","name:ja":"\u30d8\u30fc\u30ec\u30f3\u904b\u6cb3","name:pl":"Herengracht","name:he":"\u05d4\u05e8\u05e0\u05d7\u05e8\u05db\u05d8"},"geometry":{"type":"LineString","coordinates":[[4.900428056716919,52.3656293062514],[4.900572896003723,52.365655511225455]]}},{"type":"Feature","properties":{"mvt_id":13226371542,"name_int":"Prinsengracht","intermittent":0,"name:nl":"Prinsengracht","name_de":"Prinsengracht","name":"Prinsengracht","class":"canal","name:latin":"Prinsengracht","name_en":"Prinsengracht","name:uk":"\u041f\u0440\u0438\u043d\u0441\u0435\u043d\u0433\u0440\u0430\u0445\u0442"},"geometry":{"type":"LineString","coordinates":[[4.902096390724182,52.36269097495314],[4.9027615785598755,52.36280890505697]]}},{"type":"Feature","properties":{"mvt_id":13226371552,"name_int":"Prinsengracht","intermittent":0,"name:nl":"Prinsengracht","name_de":"Prinsengracht","name":"Prinsengracht","class":"canal","name:latin":"Prinsengracht","name_en":"Prinsengracht","name:uk":"\u041f\u0440\u0438\u043d\u0441\u0435\u043d\u0433\u0440\u0430\u0445\u0442"},"geometry":{"type":"LineString","coordinates":[[4.89990234375,52.36228289692669],[4.9019622802734375,52.36266476822066]]}},{"type":"Feature","properties":{"mvt_id":13226371562,"name_int":"Prinsengracht","intermittent":0,"name:nl":"Prinsengracht","name_de":"Prinsengracht","name":"Prinsengracht","class":"canal","name:latin":"Prinsengracht","name_en":"Prinsengracht","name:uk":"\u041f\u0440\u0438\u043d\u0441\u0435\u043d\u0433\u0440\u0430\u0445\u0442"},"geometry":{"type":"LineString","coordinates":[[4.9019622802734375,52.36266476822066],[4.902096390724182,52.36269097495314]]}},{"type":"Feature","properties":{"mvt_id":13229859702,"name_int":"Nieuwe Keizersgracht","intermittent":0,"name:ga":"Nieuwe Keizersgracht","name:nl":"Nieuwe Keizersgracht","name:de":"Nieuwe Keizersgracht","name_de":"Nieuwe Keizersgracht","name":"Nieuwe Keizersgracht","name:fr":"Nieuwe Keizersgracht","name:en":"Nieuwe Keizersgracht","class":"canal","name:latin":"Nieuwe Keizersgracht","name_en":"Nieuwe Keizersgracht"},"geometry":{"type":"LineString","coordinates":[[4.905320405960083,52.365141235768604],[4.902702569961548,52.36464333280737]]}},{"type":"Feature","properties":{"mvt_id":13229859712,"name_int":"Nieuwe Keizersgracht","intermittent":0,"name:ga":"Nieuwe Keizersgracht","name:nl":"Nieuwe Keizersgracht","name:de":"Nieuwe Keizersgracht","name_de":"Nieuwe Keizersgracht","name":"Nieuwe Keizersgracht","name:fr":"Nieuwe Keizersgracht","name:en":"Nieuwe Keizersgracht","class":"canal","name:latin":"Nieuwe Keizersgracht","name_en":"Nieuwe Keizersgracht"},"geometry":{"type":"LineString","coordinates":[[4.905867576599121,52.36525260803144],[4.905320405960083,52.365141235768604]]}},{"type":"Feature","properties":{"mvt_id":13229859722,"name_int":"Nieuwe Prinsengracht","intermittent":0,"name:ga":"Nieuwe Prinsengracht","name:nl":"Nieuwe Prinsengracht","name:de":"Nieuwe Prinsengracht","name_de":"Nieuwe Prinsengracht","name":"Nieuwe Prinsengracht","name:fr":"Nieuwe Prinsengracht","name:en":"Nieuwe Prinsengracht","class":"canal","name:latin":"Nieuwe Prinsengracht","name_en":"Nieuwe Prinsengracht"},"geometry":{"type":"LineString","coordinates":[[4.906328916549683,52.363447687649135],[4.90689754486084,52.363552512628274]]}},{"type":"Feature","properties":{"mvt_id":13229859732,"name_int":"Nieuwe Prinsengracht","intermittent":0,"name:ga":"Nieuwe Prinsengracht","name:nl":"Nieuwe Prinsengracht","name:de":"Nieuwe Prinsengracht","name_de":"Nieuwe Prinsengracht","name":"Nieuwe Prinsengracht","name:fr":"Nieuwe Prinsengracht","name:en":"Nieuwe Prinsengracht","class":"canal","name:latin":"Nieuwe Prinsengracht","name_en":"Nieuwe Prinsengracht"},"geometry":{"type":"LineString","coordinates":[[4.90689754486084,52.363552512628274],[4.910770654678345,52.36427972907347]]}},{"type":"Feature","properties":{"mvt_id":13229859742,"name_int":"Nieuwe Prinsengracht","intermittent":0,"name:ga":"Nieuwe Prinsengracht","name:nl":"Nieuwe Prinsengracht","name:de":"Nieuwe Prinsengracht","name_de":"Nieuwe Prinsengracht","name":"Nieuwe Prinsengracht","name:fr":"Nieuwe Prinsengracht","name:en":"Nieuwe Prinsengracht","class":"canal","name:latin":"Nieuwe Prinsengracht","name_en":"Nieuwe Prinsengracht"},"geometry":{"type":"LineString","coordinates":[[4.910770654678345,52.36427972907347],[4.9110496044158936,52.36432886488806]]}},{"type":"Feature","properties":{"mvt_id":13229859752,"name_int":"Nieuwe Prinsengracht","intermittent":0,"name:ga":"Nieuwe Prinsengracht","name:nl":"Nieuwe Prinsengracht","name:de":"Nieuwe Prinsengracht","name_de":"Nieuwe Prinsengracht","name":"Nieuwe Prinsengracht","name:fr":"Nieuwe Prinsengracht","name:en":"Nieuwe Prinsengracht","class":"canal","name:latin":"Nieuwe Prinsengracht","name_en":"Nieuwe Prinsengracht"},"geometry":{"type":"LineString","coordinates":[[4.9110496044158936,52.36432886488806],[4.911612868309021,52.36444679062011],[4.911983013153076,52.36475798201283]]}},{"type":"Feature","properties":{"mvt_id":13229859762,"name_int":"Plantage Muidergracht","intermittent":0,"name:sl":"Plantage Muidergracht","name:ga":"Plantage Muidergracht","name:nl":"Plantage Muidergracht","name:de":"Plantage Muidergracht","name_de":"Plantage Muidergracht","name":"Plantage Muidergracht","name:fr":"Plantage Muidergracht","name:en":"Plantage Muidergracht","class":"canal","name:latin":"Plantage Muidergracht","name_en":"Plantage Muidergracht"},"geometry":{"type":"LineString","coordinates":[[4.910523891448975,52.365268986281706],[4.908995032310486,52.365799638305]]}},{"type":"Feature","properties":{"mvt_id":13229859772,"name_int":"Plantage Muidergracht","intermittent":0,"name:sl":"Plantage Muidergracht","name:ga":"Plantage Muidergracht","name:nl":"Plantage Muidergracht","name:de":"Plantage Muidergracht","name_de":"Plantage Muidergracht","name":"Plantage Muidergracht","name:fr":"Plantage Muidergracht","name:en":"Plantage Muidergracht","class":"canal","name:latin":"Plantage Muidergracht","name_en":"Plantage Muidergracht"},"geometry":{"type":"LineString","coordinates":[[4.9107760190963745,52.365180543658134],[4.910523891448975,52.365268986281706]]}},{"type":"Feature","properties":{"mvt_id":13229859782,"name_int":"Plantage Muidergracht","intermittent":0,"name:sl":"Plantage Muidergracht","name:ga":"Plantage Muidergracht","name:nl":"Plantage Muidergracht","name:de":"Plantage Muidergracht","name_de":"Plantage Muidergracht","name":"Plantage Muidergracht","name:fr":"Plantage Muidergracht","name:en":"Plantage Muidergracht","class":"canal","name:latin":"Plantage Muidergracht","name_en":"Plantage Muidergracht"},"geometry":{"type":"LineString","coordinates":[[4.911983013153076,52.36475798201283],[4.9107760190963745,52.365180543658134]]}},{"type":"Feature","properties":{"mvt_id":13229859792,"name_int":"Plantage Muidergracht","intermittent":0,"name:sl":"Plantage Muidergracht","name:ga":"Plantage Muidergracht","name:nl":"Plantage Muidergracht","name:de":"Plantage Muidergracht","name_de":"Plantage Muidergracht","name":"Plantage Muidergracht","name:fr":"Plantage Muidergracht","name:en":"Plantage Muidergracht","class":"canal","name:latin":"Plantage Muidergracht","name_en":"Plantage Muidergracht"},"geometry":{"type":"LineString","coordinates":[[4.914118051528931,52.36401439473041],[4.914037585258484,52.36404387640277]]}},{"type":"Feature","properties":{"mvt_id":13229859802,"name_int":"Plantage Muidergracht","intermittent":0,"name:sl":"Plantage Muidergracht","name:ga":"Plantage Muidergracht","name:nl":"Plantage Muidergracht","name:de":"Plantage Muidergracht","name_de":"Plantage Muidergracht","name":"Plantage Muidergracht","name:fr":"Plantage Muidergracht","name:en":"Plantage Muidergracht","class":"canal","name:latin":"Plantage Muidergracht","name_en":"Plantage Muidergracht"},"geometry":{"type":"LineString","coordinates":[[4.914037585258484,52.36404387640277],[4.911983013153076,52.36475798201283]]}},{"type":"Feature","properties":{"mvt_id":13229859812,"name_int":"Nieuwe Achtergracht","intermittent":0,"name:ga":"Nieuwe Achtergracht","name:nl":"Nieuwe Achtergracht","name:de":"Nieuwe Achtergracht","name_de":"Nieuwe Achtergracht","name":"Nieuwe Achtergracht","name:fr":"Nieuwe Achtergracht","name:en":"Nieuwe Achtergracht","class":"canal","name:latin":"Nieuwe Achtergracht","name_en":"Nieuwe Achtergracht"},"geometry":{"type":"LineString","coordinates":[[4.913790822029114,52.36367044043254],[4.91387665271759,52.36368681926934]]}},{"type":"Feature","properties":{"mvt_id":13229859822,"name_int":"Nieuwe Achtergracht","intermittent":0,"name:ga":"Nieuwe Achtergracht","name:nl":"Nieuwe Achtergracht","name:de":"Nieuwe Achtergracht","name_de":"Nieuwe Achtergracht","name":"Nieuwe Achtergracht","name:fr":"Nieuwe Achtergracht","name:en":"Nieuwe Achtergracht","class":"canal","name:latin":"Nieuwe Achtergracht","name_en":"Nieuwe Achtergracht"},"geometry":{"type":"LineString","coordinates":[[4.91387665271759,52.36368681926934],[4.914241433143616,52.36375888607916],[4.914402365684509,52.36391612234711]]}},{"type":"Feature","properties":{"mvt_id":13229859832,"name_int":"Nieuwe Achtergracht","intermittent":0,"name:ga":"Nieuwe Achtergracht","name:nl":"Nieuwe Achtergracht","name:de":"Nieuwe Achtergracht","name_de":"Nieuwe Achtergracht","name":"Nieuwe Achtergracht","name:fr":"Nieuwe Achtergracht","name:en":"Nieuwe Achtergracht","class":"canal","name:latin":"Nieuwe Achtergracht","name_en":"Nieuwe Achtergracht"},"geometry":{"type":"LineString","coordinates":[[4.911763072013855,52.363274070730334],[4.91188108921051,52.36329700130589]]}},{"type":"Feature","properties":{"mvt_id":13229859842,"name_int":"Nieuwe Achtergracht","intermittent":0,"name:ga":"Nieuwe Achtergracht","name:nl":"Nieuwe Achtergracht","name:de":"Nieuwe Achtergracht","name_de":"Nieuwe Achtergracht","name":"Nieuwe Achtergracht","name:fr":"Nieuwe Achtergracht","name:en":"Nieuwe Achtergracht","class":"canal","name:latin":"Nieuwe Achtergracht","name_en":"Nieuwe Achtergracht"},"geometry":{"type":"LineString","coordinates":[[4.910802841186523,52.36309390150836],[4.911763072013855,52.363274070730334]]}},{"type":"Feature","properties":{"mvt_id":13229859852,"name_int":"Nieuwe Achtergracht","intermittent":0,"name:ga":"Nieuwe Achtergracht","name:nl":"Nieuwe Achtergracht","name:de":"Nieuwe Achtergracht","name_de":"Nieuwe Achtergracht","name":"Nieuwe Achtergracht","name:fr":"Nieuwe Achtergracht","name:en":"Nieuwe Achtergracht","class":"canal","name:latin":"Nieuwe Achtergracht","name_en":"Nieuwe Achtergracht"},"geometry":{"type":"LineString","coordinates":[[4.9105507135391235,52.36304804013454],[4.910802841186523,52.36309390150836]]}},{"type":"Feature","properties":{"mvt_id":13229859862,"name_int":"Nieuwe Achtergracht","intermittent":0,"name:ga":"Nieuwe Achtergracht","name:nl":"Nieuwe Achtergracht","name:de":"Nieuwe Achtergracht","name_de":"Nieuwe Achtergracht","name":"Nieuwe Achtergracht","name:fr":"Nieuwe Achtergracht","name:en":"Nieuwe Achtergracht","class":"canal","name:latin":"Nieuwe Achtergracht","name_en":"Nieuwe Achtergracht"},"geometry":{"type":"LineString","coordinates":[[4.91188108921051,52.36329700130589],[4.913790822029114,52.36367044043254]]}},{"type":"Feature","properties":{"mvt_id":13229859872,"name_int":"Nieuwe Achtergracht","intermittent":0,"name:ga":"Nieuwe Achtergracht","name:nl":"Nieuwe Achtergracht","name:de":"Nieuwe Achtergracht","name_de":"Nieuwe Achtergracht","name":"Nieuwe Achtergracht","name:fr":"Nieuwe Achtergracht","name:en":"Nieuwe Achtergracht","class":"canal","name:latin":"Nieuwe Achtergracht","name_en":"Nieuwe Achtergracht"},"geometry":{"type":"LineString","coordinates":[[4.906983375549316,52.3623568379496],[4.907562732696533,52.36247149308854]]}},{"type":"Feature","properties":{"mvt_id":13229859882,"name_int":"Nieuwe Achtergracht","intermittent":0,"name:ga":"Nieuwe Achtergracht","name:nl":"Nieuwe Achtergracht","name:de":"Nieuwe Achtergracht","name_de":"Nieuwe Achtergracht","name":"Nieuwe Achtergracht","name:fr":"Nieuwe Achtergracht","name:en":"Nieuwe Achtergracht","class":"canal","name:latin":"Nieuwe Achtergracht","name_en":"Nieuwe Achtergracht"},"geometry":{"type":"LineString","coordinates":[[4.90602249900499,52.362183216744256],[4.906983375549316,52.3623568379496]]}},{"type":"Feature","properties":{"mvt_id":13229859892,"name_int":"Onbekendegracht","intermittent":0,"name:ga":"Onbekendegracht","name:nl":"Onbekendegracht","name:de":"Onbekendegracht","name_de":"Onbekendegracht","name":"Onbekendegracht","name:fr":"Onbekendegracht","name:en":"Onbekendegracht","class":"canal","name:latin":"Onbekendegracht","name_en":"Onbekendegracht"},"geometry":{"type":"LineString","coordinates":[[4.9045586585998535,52.362923559022796],[4.904934015138309,52.362183216744256]]}},{"type":"Feature","properties":{"mvt_id":13229859902,"name_int":"Nieuwe Prinsengracht","intermittent":0,"name:ga":"Nieuwe Prinsengracht","name:nl":"Nieuwe Prinsengracht","name:de":"Nieuwe Prinsengracht","name_de":"Nieuwe Prinsengracht","name":"Nieuwe Prinsengracht","name:fr":"Nieuwe Prinsengracht","name:en":"Nieuwe Prinsengracht","class":"canal","name:latin":"Nieuwe Prinsengracht","name_en":"Nieuwe Prinsengracht"},"geometry":{"type":"LineString","coordinates":[[4.903357028961182,52.36291373155168],[4.9035608768463135,52.36294976560178]]}},{"type":"Feature","properties":{"mvt_id":13229859912,"name_int":"Nieuwe Prinsengracht","intermittent":0,"name:ga":"Nieuwe Prinsengracht","name:nl":"Nieuwe Prinsengracht","name:de":"Nieuwe Prinsengracht","name_de":"Nieuwe Prinsengracht","name":"Nieuwe Prinsengracht","name:fr":"Nieuwe Prinsengracht","name:en":"Nieuwe Prinsengracht","class":"canal","name:latin":"Nieuwe Prinsengracht","name_en":"Nieuwe Prinsengracht"},"geometry":{"type":"LineString","coordinates":[[4.9027615785598755,52.36280890505697],[4.903357028961182,52.36291373155168]]}},{"type":"Feature","properties":{"mvt_id":13229859962,"name_int":"Singelgracht","intermittent":0,"name:nl":"Singelgracht","name_de":"Singelgracht","name":"Singelgracht","class":"canal","name:latin":"Singelgracht","name_en":"Singelgracht"},"geometry":{"type":"LineString","coordinates":[[4.920174479484558,52.36332320766337],[4.919809699058533,52.36317907250486]]}},{"type":"Feature","properties":{"mvt_id":13229859972,"name_int":"Singelgracht","intermittent":0,"name:nl":"Singelgracht","name_de":"Singelgracht","name":"Singelgracht","class":"canal","name:latin":"Singelgracht","name_en":"Singelgracht"},"geometry":{"type":"LineString","coordinates":[[4.921875,52.36356166553285],[4.921542406082153,52.36348699704545],[4.920174479484558,52.36332320766337]]}},{"type":"Feature","properties":{"mvt_id":13229860062,"name_int":"Amstel","intermittent":0,"name:sl":"Amstel","name:ga":"An Amstel","name:nl":"Amstel","name:de":"Amstel","name_de":"Amstel","name":"Amstel","name:it":"Amstel","name:fr":"Amstel","name:en":"Amstel","class":"river","name:latin":"Amstel","name_en":"Amstel","name:uk":"\u0410\u043c\u0441\u0442\u0435\u043b","name:zh":"\u963f\u59c6\u65af\u7279\u723e\u6cb3","name:hy":"\u0531\u0574\u057d\u057f\u0565\u056c","name:ca":"Amstel","name:da":"Amstel","name:fi":"Amstel","name:sv":"Amstel","name:ru":"\u0410\u043c\u0441\u0442\u0435\u043b","name:fy":"Amstel","name:sk":"Amstel","name:ka":"\u10d0\u10db\u10e1\u10e2\u10d4\u10da\u10d8","name:sr":"\u0410\u043c\u0441\u0442\u0435\u043b","name:ko":"\uc554\uc2a4\ud154\uac15","name:cs":"Amstel","name:ta":"\u0b86\u0bae\u0bcd\u0bb8\u0bcd\u0b9f\u0bb2\u0bcd","name:vi":"S\u00f4ng Amstel","name:ar":"\u0623\u0645\u0633\u062a\u0644","name:ja":"\u30a2\u30e0\u30b9\u30c6\u30eb\u5ddd","name:fa":"\u0622\u0645\u0633\u062a\u0644","name:az":"Amstel \u00e7ay\u0131","name:ro":"Amstel","name:be":"\u0410\u043c\u0441\u0442\u044d\u043b","name:bg":"\u0410\u043c\u0441\u0442\u0435\u043b","name:id":"Amstel","name:mk":"\u0410\u043c\u0441\u0442\u0435\u043b","name:el":"\u0386\u03bc\u03c3\u03c4\u03b5\u03bb","name:eo":"Amstel","name:eu":"Amstel","name:es":"R\u00edo Amstel","name:cy":"Afon Amstel","name:pl":"Amstel","name:he":"\u05d0\u05de\u05e1\u05d8\u05dc","name:tr":"Amstel Nehri","name:pt":"Rio Amstel","name:hu":"Amstel"},"geometry":{"type":"LineString","coordinates":[[4.900975227355957,52.3662123632498],[4.9008893966674805,52.36635321294373],[4.900782108306885,52.36651043997861]]}},{"type":"Feature","properties":{"mvt_id":13229860072,"name_int":"Amstel","intermittent":0,"name:sl":"Amstel","name:ga":"An Amstel","name:nl":"Amstel","name:de":"Amstel","name_de":"Amstel","name":"Amstel","name:it":"Amstel","name:fr":"Amstel","name:en":"Amstel","class":"river","name:latin":"Amstel","name_en":"Amstel","name:uk":"\u0410\u043c\u0441\u0442\u0435\u043b","name:zh":"\u963f\u59c6\u65af\u7279\u723e\u6cb3","name:hy":"\u0531\u0574\u057d\u057f\u0565\u056c","name:ca":"Amstel","name:da":"Amstel","name:fi":"Amstel","name:sv":"Amstel","name:ru":"\u0410\u043c\u0441\u0442\u0435\u043b","name:fy":"Amstel","name:sk":"Amstel","name:ka":"\u10d0\u10db\u10e1\u10e2\u10d4\u10da\u10d8","name:sr":"\u0410\u043c\u0441\u0442\u0435\u043b","name:ko":"\uc554\uc2a4\ud154\uac15","name:cs":"Amstel","name:ta":"\u0b86\u0bae\u0bcd\u0bb8\u0bcd\u0b9f\u0bb2\u0bcd","name:vi":"S\u00f4ng Amstel","name:ar":"\u0623\u0645\u0633\u062a\u0644","name:ja":"\u30a2\u30e0\u30b9\u30c6\u30eb\u5ddd","name:fa":"\u0622\u0645\u0633\u062a\u0644","name:az":"Amstel \u00e7ay\u0131","name:ro":"Amstel","name:be":"\u0410\u043c\u0441\u0442\u044d\u043b","name:bg":"\u0410\u043c\u0441\u0442\u0435\u043b","name:id":"Amstel","name:mk":"\u0410\u043c\u0441\u0442\u0435\u043b","name:el":"\u0386\u03bc\u03c3\u03c4\u03b5\u03bb","name:eo":"Amstel","name:eu":"Amstel","name:es":"R\u00edo Amstel","name:cy":"Afon Amstel","name:pl":"Amstel","name:he":"\u05d0\u05de\u05e1\u05d8\u05dc","name:tr":"Amstel Nehri","name:pt":"Rio Amstel","name:hu":"Amstel"},"geometry":{"type":"LineString","coordinates":[[4.901205897331238,52.36577998464003],[4.900975227355957,52.3662123632498]]}},{"type":"Feature","properties":{"mvt_id":13229860082,"name_int":"Amstel","intermittent":0,"name:nl":"Amstel","name_de":"Amstel","name":"Amstel","class":"river","name:latin":"Amstel","name_en":"Amstel","name:uk":"\u0410\u043c\u0441\u0442\u0435\u043b","name:ru":"\u0410\u043c\u0441\u0442\u0435\u043b"},"geometry":{"type":"LineString","coordinates":[[4.90189254283905,52.36447954771203],[4.901205897331238,52.36577998464003]]}},{"type":"Feature","properties":{"mvt_id":13229860092,"name_int":"Amstel","intermittent":0,"name:nl":"Amstel","name_de":"Amstel","name":"Amstel","class":"river","name:latin":"Amstel","name_en":"Amstel","name:uk":"\u0410\u043c\u0441\u0442\u0435\u043b","name:ru":"\u0410\u043c\u0441\u0442\u0435\u043b"},"geometry":{"type":"LineString","coordinates":[[4.90240752696991,52.363503375950266],[4.902332425117493,52.36365733735872]]}},{"type":"Feature","properties":{"mvt_id":13229860102,"name_int":"Amstel","intermittent":0,"name:nl":"Amstel","name_de":"Amstel","name":"Amstel","class":"river","name:latin":"Amstel","name_en":"Amstel","name:uk":"\u0410\u043c\u0441\u0442\u0435\u043b","name:ru":"\u0410\u043c\u0441\u0442\u0435\u043b"},"geometry":{"type":"LineString","coordinates":[[4.9027615785598755,52.36280890505697],[4.90240752696991,52.363503375950266]]}},{"type":"Feature","properties":{"mvt_id":13229872412,"name_int":"Nieuwe Herengracht","intermittent":0,"name:ga":"Nieuwe Herengracht","name:nl":"Nieuwe Herengracht","name:de":"Nieuwe Herengracht","name_de":"Nieuwe Herengracht","name":"Nieuwe Herengracht","name:fr":"Nieuwe Herengracht","name:en":"Nieuwe Herengracht","class":"canal","name:latin":"Nieuwe Herengracht","name_en":"Nieuwe Herengracht"},"geometry":{"type":"LineString","coordinates":[[4.910094738006592,52.36932405417968],[4.910738468170166,52.36971054364436],[4.911092519760132,52.36994309076057]]}},{"type":"Feature","properties":{"mvt_id":13229872422,"name_int":"Nieuwe Herengracht","intermittent":0,"name:ga":"Nieuwe Herengracht","name:nl":"Nieuwe Herengracht","name:de":"Nieuwe Herengracht","name_de":"Nieuwe Herengracht","name":"Nieuwe Herengracht","name:fr":"Nieuwe Herengracht","name:en":"Nieuwe Herengracht","class":"canal","name:latin":"Nieuwe Herengracht","name_en":"Nieuwe Herengracht"},"geometry":{"type":"LineString","coordinates":[[4.907353520393372,52.3675029227214],[4.909579753875732,52.36899651808781]]}},{"type":"Feature","properties":{"mvt_id":13229872432,"name_int":"Nieuwe Herengracht","intermittent":0,"name:ga":"Nieuwe Herengracht","name:nl":"Nieuwe Herengracht","name:de":"Nieuwe Herengracht","name_de":"Nieuwe Herengracht","name":"Nieuwe Herengracht","name:fr":"Nieuwe Herengracht","name:en":"Nieuwe Herengracht","class":"canal","name:latin":"Nieuwe Herengracht","name_en":"Nieuwe Herengracht"},"geometry":{"type":"LineString","coordinates":[[4.906870722770691,52.36718519964938],[4.90713894367218,52.36734897471414],[4.907353520393372,52.3675029227214]]}},{"type":"Feature","properties":{"mvt_id":13229872442,"name_int":"Nieuwe Herengracht","intermittent":0,"name:ga":"Nieuwe Herengracht","name:nl":"Nieuwe Herengracht","name:de":"Nieuwe Herengracht","name_de":"Nieuwe Herengracht","name":"Nieuwe Herengracht","name:fr":"Nieuwe Herengracht","name:en":"Nieuwe Herengracht","class":"canal","name:latin":"Nieuwe Herengracht","name_en":"Nieuwe Herengracht"},"geometry":{"type":"LineString","coordinates":[[4.909579753875732,52.36899651808781],[4.909858703613281,52.369183213957804],[4.910094738006592,52.36932405417968]]}},{"type":"Feature","properties":{"mvt_id":13229872452,"name_int":"Nieuwe Herengracht","intermittent":0,"name:ga":"Nieuwe Herengracht","name:nl":"Nieuwe Herengracht","name:de":"Nieuwe Herengracht","name_de":"Nieuwe Herengracht","name":"Nieuwe Herengracht","name:fr":"Nieuwe Herengracht","name:en":"Nieuwe Herengracht","class":"canal","name:latin":"Nieuwe Herengracht","name_en":"Nieuwe Herengracht"},"geometry":{"type":"LineString","coordinates":[[4.904446005821228,52.36638596862214],[4.9047839641571045,52.366448204344216],[4.9051326513290405,52.366520266649715]]}},{"type":"Feature","properties":{"mvt_id":13229872462,"name_int":"Nieuwe Herengracht","intermittent":0,"name:ga":"Nieuwe Herengracht","name:nl":"Nieuwe Herengracht","name:de":"Nieuwe Herengracht","name_de":"Nieuwe Herengracht","name":"Nieuwe Herengracht","name:fr":"Nieuwe Herengracht","name:en":"Nieuwe Herengracht","class":"canal","name:latin":"Nieuwe Herengracht","name_en":"Nieuwe Herengracht"},"geometry":{"type":"LineString","coordinates":[[4.902085661888123,52.36593721371503],[4.904446005821228,52.36638596862214]]}},{"type":"Feature","properties":{"mvt_id":13229872472,"name_int":"Nieuwe Herengracht","intermittent":0,"name:ga":"Nieuwe Herengracht","name:nl":"Nieuwe Herengracht","name:de":"Nieuwe Herengracht","name_de":"Nieuwe Herengracht","name":"Nieuwe Herengracht","name:fr":"Nieuwe Herengracht","name:en":"Nieuwe Herengracht","class":"canal","name:latin":"Nieuwe Herengracht","name_en":"Nieuwe Herengracht"},"geometry":{"type":"LineString","coordinates":[[4.901806712150574,52.36588480408553],[4.902085661888123,52.36593721371503]]}},{"type":"Feature","properties":{"mvt_id":13229872482,"name_int":"Nieuwe Herengracht","intermittent":0,"name:ga":"Nieuwe Herengracht","name:nl":"Nieuwe Herengracht","name:de":"Nieuwe Herengracht","name_de":"Nieuwe Herengracht","name":"Nieuwe Herengracht","name:fr":"Nieuwe Herengracht","name:en":"Nieuwe Herengracht","class":"canal","name:latin":"Nieuwe Herengracht","name_en":"Nieuwe Herengracht"},"geometry":{"type":"LineString","coordinates":[[4.901205897331238,52.36577998464003],[4.901806712150574,52.36588480408553]]}},{"type":"Feature","properties":{"mvt_id":13229872492,"name_int":"Nieuwe Keizersgracht","intermittent":0,"name:ga":"Nieuwe Keizersgracht","name:nl":"Nieuwe Keizersgracht","name:de":"Nieuwe Keizersgracht","name_de":"Nieuwe Keizersgracht","name":"Nieuwe Keizersgracht","name:fr":"Nieuwe Keizersgracht","name:en":"Nieuwe Keizersgracht","class":"canal","name:latin":"Nieuwe Keizersgracht","name_en":"Nieuwe Keizersgracht"},"geometry":{"type":"LineString","coordinates":[[4.902702569961548,52.36464333280737],[4.902525544166565,52.36461057583688]]}},{"type":"Feature","properties":{"mvt_id":13229872502,"name_int":"Nieuwe Keizersgracht","intermittent":0,"name:ga":"Nieuwe Keizersgracht","name:nl":"Nieuwe Keizersgracht","name:de":"Nieuwe Keizersgracht","name_de":"Nieuwe Keizersgracht","name":"Nieuwe Keizersgracht","name:fr":"Nieuwe Keizersgracht","name:en":"Nieuwe Keizersgracht","class":"canal","name:latin":"Nieuwe Keizersgracht","name_en":"Nieuwe Keizersgracht"},"geometry":{"type":"LineString","coordinates":[[4.902525544166565,52.36461057583688],[4.90189254283905,52.36447954771203]]}},{"type":"Feature","properties":{"mvt_id":13229873612,"name_int":"Plantage Muidergracht","intermittent":0,"name:sl":"Plantage Muidergracht","name:ga":"Plantage Muidergracht","name:nl":"Plantage Muidergracht","name:de":"Plantage Muidergracht","name_de":"Plantage Muidergracht","name":"Plantage Muidergracht","name:fr":"Plantage Muidergracht","name:en":"Plantage Muidergracht","class":"canal","name:latin":"Plantage Muidergracht","name_en":"Plantage Muidergracht"},"geometry":{"type":"LineString","coordinates":[[4.918747544288635,52.3639881887829],[4.918431043624878,52.36388008908513]]}},{"type":"Feature","properties":{"mvt_id":13229873622,"name_int":"Plantage Muidergracht","intermittent":0,"name:sl":"Plantage Muidergracht","name:ga":"Plantage Muidergracht","name:nl":"Plantage Muidergracht","name:de":"Plantage Muidergracht","name_de":"Plantage Muidergracht","name":"Plantage Muidergracht","name:fr":"Plantage Muidergracht","name:en":"Plantage Muidergracht","class":"canal","name:latin":"Plantage Muidergracht","name_en":"Plantage Muidergracht"},"geometry":{"type":"LineString","coordinates":[[4.918431043624878,52.36388008908513],[4.916489124298096,52.363329759250306],[4.916242361068726,52.36331993186953],[4.915984869003296,52.363362517170444],[4.914118051528931,52.36401439473041]]}},{"type":"Feature","properties":{"mvt_id":13229958342,"name_int":"Oudezijds Achterburgwal","intermittent":0,"name:sl":"Oudezijds Achterburgwal","name:ga":"Oudezijds Achterburgwal","name:nl":"Oudezijds Achterburgwal","name:de":"Oudezijds Achterburgwal","name_de":"Oudezijds Achterburgwal","name":"Oudezijds Achterburgwal","name:fr":"Oudezijds Achterburgwal","name:en":"Oudezijds Achterburgwal","class":"canal","name:latin":"Oudezijds Achterburgwal","name_en":"Oudezijds Achterburgwal","name:da":"Oudezijds Achterburgwal","name:sv":"Oudezijds Achterburgwal"},"geometry":{"type":"LineString","coordinates":[[4.89990234375,52.37426512581319],[4.900133013725281,52.374459502509154]]}},{"type":"Feature","properties":{"mvt_id":13229958352,"name_int":"Oudezijds Achterburgwal","intermittent":0,"name:sl":"Oudezijds Achterburgwal","name:ga":"Oudezijds Achterburgwal","name:nl":"Oudezijds Achterburgwal","name:de":"Oudezijds Achterburgwal","name_de":"Oudezijds Achterburgwal","name":"Oudezijds Achterburgwal","name:fr":"Oudezijds Achterburgwal","name:en":"Oudezijds Achterburgwal","class":"canal","name:latin":"Oudezijds Achterburgwal","name_en":"Oudezijds Achterburgwal","name:da":"Oudezijds Achterburgwal","name:sv":"Oudezijds Achterburgwal"},"geometry":{"type":"LineString","coordinates":[[4.900133013725281,52.374459502509154],[4.9002134799957275,52.3745381016706]]}},{"type":"Feature","properties":{"mvt_id":13229958362,"name_int":"Oudezijds Achterburgwal","intermittent":0,"name:sl":"Oudezijds Achterburgwal","name:ga":"Oudezijds Achterburgwal","name:nl":"Oudezijds Achterburgwal","name:de":"Oudezijds Achterburgwal","name_de":"Oudezijds Achterburgwal","name":"Oudezijds Achterburgwal","name:fr":"Oudezijds Achterburgwal","name:en":"Oudezijds Achterburgwal","class":"canal","name:latin":"Oudezijds Achterburgwal","name_en":"Oudezijds Achterburgwal","name:da":"Oudezijds Achterburgwal","name:sv":"Oudezijds Achterburgwal"},"geometry":{"type":"LineString","coordinates":[[4.9002134799957275,52.3745381016706],[4.900562167167664,52.374888521230005],[4.900674819946289,52.375032618186005],[4.900712370872498,52.37513741567687]]}},{"type":"Feature","properties":{"mvt_id":13229958372,"name_int":"Oudezijds Achterburgwal","intermittent":0,"name:sl":"Oudezijds Achterburgwal","name:ga":"Oudezijds Achterburgwal","name:nl":"Oudezijds Achterburgwal","name:de":"Oudezijds Achterburgwal","name_de":"Oudezijds Achterburgwal","name":"Oudezijds Achterburgwal","name:fr":"Oudezijds Achterburgwal","name:en":"Oudezijds Achterburgwal","class":"canal","name:latin":"Oudezijds Achterburgwal","name_en":"Oudezijds Achterburgwal","name:da":"Oudezijds Achterburgwal","name:sv":"Oudezijds Achterburgwal"},"geometry":{"type":"LineString","coordinates":[[4.900712370872498,52.37513741567687],[4.900717735290527,52.37518653941511]]}},{"type":"Feature","properties":{"mvt_id":13229958382,"name_int":"Oudezijds Achterburgwal","intermittent":0,"name:sl":"Oudezijds Achterburgwal","name:ga":"Oudezijds Achterburgwal","name:nl":"Oudezijds Achterburgwal","name:de":"Oudezijds Achterburgwal","name_de":"Oudezijds Achterburgwal","name":"Oudezijds Achterburgwal","name:fr":"Oudezijds Achterburgwal","name:en":"Oudezijds Achterburgwal","class":"canal","name:latin":"Oudezijds Achterburgwal","name_en":"Oudezijds Achterburgwal","name:da":"Oudezijds Achterburgwal","name:sv":"Oudezijds Achterburgwal"},"geometry":{"type":"LineString","coordinates":[[4.900717735290527,52.37518653941511],[4.900701642036438,52.375291336540734],[4.900637269020081,52.37539940831608],[4.900406530270203,52.3755991766591]]}},{"type":"Feature","properties":{"mvt_id":13229958392,"name_int":"Oudezijds Voorburgwal","intermittent":0,"name:sl":"Oudezijds Voorburgwal","name:ga":"Oudezijds Voorburgwal","name:nl":"Oudezijds Voorburgwal","name:de":"Oudezijds Voorburgwal","name_de":"Oudezijds Voorburgwal","name":"Oudezijds Voorburgwal","name:fr":"Oudezijds Voorburgwal","name:en":"Oudezijds Voorburgwal","class":"canal","name:latin":"Oudezijds Voorburgwal","name_en":"Oudezijds Voorburgwal","name:da":"Oudezijds Voorburgwal","name:fi":"Oudezijds Voorburgwal","name:sv":"Oudezijds Voorburgwal","name:es":"Oudezijds Voorburgwal"},"geometry":{"type":"LineString","coordinates":[[4.900057911872864,52.37539613341768],[4.90028104450127,52.3755991766591]]}},{"type":"Feature","properties":{"mvt_id":13229958402,"name_int":"Oudezijds Voorburgwal","intermittent":0,"name:sl":"Oudezijds Voorburgwal","name:ga":"Oudezijds Voorburgwal","name:nl":"Oudezijds Voorburgwal","name:de":"Oudezijds Voorburgwal","name_de":"Oudezijds Voorburgwal","name":"Oudezijds Voorburgwal","name:fr":"Oudezijds Voorburgwal","name:en":"Oudezijds Voorburgwal","class":"canal","name:latin":"Oudezijds Voorburgwal","name_en":"Oudezijds Voorburgwal","name:da":"Oudezijds Voorburgwal","name:fi":"Oudezijds Voorburgwal","name:sv":"Oudezijds Voorburgwal","name:es":"Oudezijds Voorburgwal"},"geometry":{"type":"LineString","coordinates":[[4.899998903274536,52.3753437350103],[4.900057911872864,52.37539613341768]]}},{"type":"Feature","properties":{"mvt_id":13229958422,"name_int":"Oudezijds Voorburgwal","intermittent":0,"name:sl":"Oudezijds Voorburgwal","name:ga":"Oudezijds Voorburgwal","name:nl":"Oudezijds Voorburgwal","name:de":"Oudezijds Voorburgwal","name_de":"Oudezijds Voorburgwal","name":"Oudezijds Voorburgwal","name:fr":"Oudezijds Voorburgwal","name:en":"Oudezijds Voorburgwal","class":"canal","name:latin":"Oudezijds Voorburgwal","name_en":"Oudezijds Voorburgwal","name:da":"Oudezijds Voorburgwal","name:fi":"Oudezijds Voorburgwal","name:sv":"Oudezijds Voorburgwal","name:es":"Oudezijds Voorburgwal"},"geometry":{"type":"LineString","coordinates":[[4.89990234375,52.37524668596656],[4.899998903274536,52.3753437350103]]}},{"type":"Feature","properties":{"mvt_id":13229958602,"name_int":"Raamgracht","intermittent":0,"name:ga":"Raamgracht","name:nl":"Raamgracht","name:de":"Raamgracht","name_de":"Raamgracht","name":"Raamgracht","name:fr":"Raamgracht","name:en":"Raamgracht","class":"canal","name:latin":"Raamgracht","name_en":"Raamgracht"},"geometry":{"type":"LineString","coordinates":[[4.900170564651489,52.36940593782316],[4.900041818618774,52.36946161861404]]}},{"type":"Feature","properties":{"mvt_id":13229958612,"name_int":"Raamgracht","intermittent":0,"name:ga":"Raamgracht","name:nl":"Raamgracht","name:de":"Raamgracht","name_de":"Raamgracht","name":"Raamgracht","name:fr":"Raamgracht","name:en":"Raamgracht","class":"canal","name:latin":"Raamgracht","name_en":"Raamgracht"},"geometry":{"type":"LineString","coordinates":[[4.900374412536621,52.369183213957804],[4.900170564651489,52.36940593782316]]}},{"type":"Feature","properties":{"mvt_id":13229958622,"name_int":"Oudeschans","intermittent":0,"name:ga":"Oudeschans","name:nl":"Oudeschans","name:de":"Oudeschans","name_de":"Oudeschans","name":"Oudeschans","name:fr":"Oudeschans","name:en":"Oudeschans","class":"canal","name:latin":"Oudeschans","name_en":"Oudeschans","name:zh":"\u820a\u57ce\u7246"},"geometry":{"type":"LineString","coordinates":[[4.901602864265442,52.36994964136584],[4.901871085166931,52.37011013089133]]}},{"type":"Feature","properties":{"mvt_id":13230002462,"intermittent":0,"class":"canal"},"geometry":{"type":"LineString","coordinates":[[4.902825951576233,52.36962538523922],[4.901871085166931,52.37011013089133]]}},{"type":"Feature","properties":{"mvt_id":13230002472,"intermittent":0,"class":"canal"},"geometry":{"type":"LineString","coordinates":[[4.903716444969177,52.36925199644785],[4.903067350387573,52.369530400670556]]}},{"type":"Feature","properties":{"mvt_id":13230002482,"name_int":"Rapenburgwal","intermittent":0,"name:nl":"Rapenburgwal","name_de":"Rapenburgwal","name":"Rapenburgwal","name:fr":"Rapenburgwal","name:en":"Rapenburgwal","class":"canal","name:latin":"Rapenburgwal","name_en":"Rapenburgwal"},"geometry":{"type":"LineString","coordinates":[[4.9072569608688354,52.37158398702145],[4.9074554443359375,52.37142022765781]]}},{"type":"Feature","properties":{"mvt_id":13230002492,"name_int":"Rapenburgwal","intermittent":0,"name:nl":"Rapenburgwal","name_de":"Rapenburgwal","name":"Rapenburgwal","name:fr":"Rapenburgwal","name:en":"Rapenburgwal","class":"canal","name:latin":"Rapenburgwal","name_en":"Rapenburgwal"},"geometry":{"type":"LineString","coordinates":[[4.90639865398407,52.3720588857426],[4.9072569608688354,52.37158398702145]]}},{"type":"Feature","properties":{"mvt_id":13230002502,"name_int":"Oudeschans","intermittent":0,"name:ga":"Oudeschans","name:nl":"Oudeschans","name:de":"Oudeschans","name_de":"Oudeschans","name":"Oudeschans","name:fr":"Oudeschans","name:en":"Oudeschans","class":"canal","name:latin":"Oudeschans","name_en":"Oudeschans","name:zh":"\u820a\u57ce\u7246"},"geometry":{"type":"LineString","coordinates":[[4.90639865398407,52.3720588857426],[4.907562732696533,52.37262875746795]]}},{"type":"Feature","properties":{"mvt_id":13230002512,"name_int":"Waalseilandgracht","intermittent":0,"name:nl":"Waalseilandsgracht","name:de":"Waalseilandsgracht","name_de":"Waalseilandgracht","name":"Waalseilandgracht","name:fr":"Waalseilandsgracht","name:en":"Waalseilandsgracht","class":"canal","name:latin":"Waalseilandgracht","name_en":"Waalseilandgracht","name:da":"Waalseilandsgracht","name:fi":"Waalseilandsgracht","name:sv":"Waalseilandsgracht"},"geometry":{"type":"LineString","coordinates":[[4.905996322631836,52.3722357432718],[4.90639865398407,52.3720588857426]]}},{"type":"Feature","properties":{"mvt_id":13230002522,"name_int":"Waalseilandgracht","intermittent":0,"name:nl":"Waalseilandsgracht","name:de":"Waalseilandsgracht","name_de":"Waalseilandgracht","name":"Waalseilandgracht","name:fr":"Waalseilandsgracht","name:en":"Waalseilandsgracht","class":"canal","name:latin":"Waalseilandgracht","name_en":"Waalseilandgracht","name:da":"Waalseilandsgracht","name:fi":"Waalseilandsgracht","name:sv":"Waalseilandsgracht"},"geometry":{"type":"LineString","coordinates":[[4.90588903427124,52.3723208966444],[4.905996322631836,52.3722357432718]]}},{"type":"Feature","properties":{"mvt_id":13230002532,"name_int":"Geldersekade","intermittent":0,"name:ga":"Geldersekade","name:nl":"Geldersekade","name:de":"Geldersekade","name_de":"Geldersekade","name":"Geldersekade","name:fr":"Geldersekade","name:en":"Geldersekade","class":"canal","name:latin":"Geldersekade","name_en":"Geldersekade","name:zh":"\u4fa8\u5fb7\u4ed5\u8857"},"geometry":{"type":"LineString","coordinates":[[4.901264905929565,52.37408615458203],[4.901340007781982,52.37424335409392]]}},{"type":"Feature","properties":{"mvt_id":13230002542,"name_int":"Geldersekade","intermittent":0,"name:ga":"Geldersekade","name:nl":"Geldersekade","name:de":"Geldersekade","name_de":"Geldersekade","name":"Geldersekade","name:fr":"Geldersekade","name:en":"Geldersekade","class":"canal","name:latin":"Geldersekade","name_en":"Geldersekade","name:zh":"\u4fa8\u5fb7\u4ed5\u8857"},"geometry":{"type":"LineString","coordinates":[[4.900948405265808,52.37346717606489],[4.901264905929565,52.37408615458203]]}},{"type":"Feature","properties":{"mvt_id":13230002552,"name_int":"Geldersekade","intermittent":0,"name:ga":"Geldersekade","name:nl":"Geldersekade","name:de":"Geldersekade","name_de":"Geldersekade","name":"Geldersekade","name:fr":"Geldersekade","name:en":"Geldersekade","class":"canal","name:latin":"Geldersekade","name_en":"Geldersekade","name:zh":"\u4fa8\u5fb7\u4ed5\u8857"},"geometry":{"type":"LineString","coordinates":[[4.901120066642761,52.37342460050411],[4.900948405265808,52.37346717606489]]}},{"type":"Feature","properties":{"mvt_id":13230002562,"name_int":"Geldersekade","intermittent":0,"name:ga":"Geldersekade","name:nl":"Geldersekade","name:de":"Geldersekade","name_de":"Geldersekade","name":"Geldersekade","name:fr":"Geldersekade","name:en":"Geldersekade","class":"canal","name:latin":"Geldersekade","name_en":"Geldersekade","name:zh":"\u4fa8\u5fb7\u4ed5\u8857"},"geometry":{"type":"LineString","coordinates":[[4.900948405265808,52.37346717606489],[4.900857210159302,52.37328049830151]]}},{"type":"Feature","properties":{"mvt_id":13230002572,"name_int":"Recht Boomssloot","intermittent":0,"name:ga":"Recht Boomssloot","name:nl":"Recht Boomssloot","name:de":"Recht Boomssloot","name_de":"Recht Boomssloot","name":"Recht Boomssloot","name:fr":"Rechtboomssloot","name:en":"Recht Boomssloot","class":"canal","name:latin":"Recht Boomssloot","name_en":"Recht Boomssloot"},"geometry":{"type":"LineString","coordinates":[[4.901340007781982,52.37336892470885],[4.901120066642761,52.37342460050411]]}},{"type":"Feature","properties":{"mvt_id":13230002582,"name_int":"Recht Boomssloot","intermittent":0,"name:ga":"Recht Boomssloot","name:nl":"Recht Boomssloot","name:de":"Recht Boomssloot","name_de":"Recht Boomssloot","name":"Recht Boomssloot","name:fr":"Rechtboomssloot","name:en":"Recht Boomssloot","class":"canal","name:latin":"Recht Boomssloot","name_en":"Recht Boomssloot"},"geometry":{"type":"LineString","coordinates":[[4.901973009109497,52.373008667866664],[4.90190863609314,52.373041418610114]]}},{"type":"Feature","properties":{"mvt_id":13230002592,"name_int":"Recht Boomssloot","intermittent":0,"name:ga":"Recht Boomssloot","name:nl":"Recht Boomssloot","name:de":"Recht Boomssloot","name_de":"Recht Boomssloot","name":"Recht Boomssloot","name:fr":"Rechtboomssloot","name:en":"Recht Boomssloot","class":"canal","name:latin":"Recht Boomssloot","name_en":"Recht Boomssloot"},"geometry":{"type":"LineString","coordinates":[[4.902842044830322,52.372540329578726],[4.901973009109497,52.373008667866664]]}},{"type":"Feature","properties":{"mvt_id":13230002602,"name_int":"Snoekjesgracht","intermittent":0,"name:nl":"Snoekjesgracht","name_de":"Snoekjesgracht","name":"Snoekjesgracht","name:fr":"Snoekjesgracht","name:en":"Snoekjesgracht","class":"canal","name:latin":"Snoekjesgracht","name_en":"Snoekjesgracht"},"geometry":{"type":"LineString","coordinates":[[4.901264905929565,52.37056539392305],[4.901334643363953,52.370470411375734]]}},{"type":"Feature","properties":{"mvt_id":13230002612,"name_int":"Snoekjesgracht","intermittent":0,"name:nl":"Snoekjesgracht","name_de":"Snoekjesgracht","name":"Snoekjesgracht","name:fr":"Snoekjesgracht","name:en":"Snoekjesgracht","class":"canal","name:latin":"Snoekjesgracht","name_en":"Snoekjesgracht"},"geometry":{"type":"LineString","coordinates":[[4.901334643363953,52.370470411375734],[4.901495575904846,52.370286996223605],[4.901871085166931,52.37011013089133]]}},{"type":"Feature","properties":{"mvt_id":13230002622,"name_int":"Krom Boomssloot","intermittent":0,"name:ga":"Krom Boomssloot","name:nl":"Kromboomssloot","name:de":"Krom Boomssloot","name_de":"Krom Boomssloot","name":"Krom Boomssloot","name:fr":"Kromboomssloot","name:en":"Krom Boomssloot","class":"canal","name:latin":"Krom Boomssloot","name_en":"Krom Boomssloot","name:hy":"\u053f\u0580\u0578\u0574 \u0532\u0578\u0582\u0574\u057d\u056c\u0578\u057f"},"geometry":{"type":"LineString","coordinates":[[4.901677966117859,52.37102065226246],[4.901581406593323,52.37097152389054]]}},{"type":"Feature","properties":{"mvt_id":13230002632,"name_int":"Krom Boomssloot","intermittent":0,"name:ga":"Krom Boomssloot","name:nl":"Kromboomssloot","name:de":"Krom Boomssloot","name_de":"Krom Boomssloot","name":"Krom Boomssloot","name:fr":"Kromboomssloot","name:en":"Krom Boomssloot","class":"canal","name:latin":"Krom Boomssloot","name_en":"Krom Boomssloot","name:hy":"\u053f\u0580\u0578\u0574 \u0532\u0578\u0582\u0574\u057d\u056c\u0578\u057f"},"geometry":{"type":"LineString","coordinates":[[4.901581406593323,52.37097152389054],[4.90114152431488,52.37076518413178]]}},{"type":"Feature","properties":{"mvt_id":13230002642,"name_int":"Krom Boomssloot","intermittent":0,"name:ga":"Krom Boomssloot","name:nl":"Kromboomssloot","name:de":"Krom Boomssloot","name_de":"Krom Boomssloot","name":"Krom Boomssloot","name:fr":"Kromboomssloot","name:en":"Krom Boomssloot","class":"canal","name:latin":"Krom Boomssloot","name_en":"Krom Boomssloot","name:hy":"\u053f\u0580\u0578\u0574 \u0532\u0578\u0582\u0574\u057d\u056c\u0578\u057f"},"geometry":{"type":"LineString","coordinates":[[4.902316331863403,52.371564335929875],[4.902268052101135,52.37148245628752]]}},{"type":"Feature","properties":{"mvt_id":13230002652,"name_int":"Krom Boomssloot","intermittent":0,"name:ga":"Krom Boomssloot","name:nl":"Kromboomssloot","name:de":"Krom Boomssloot","name_de":"Krom Boomssloot","name":"Krom Boomssloot","name:fr":"Kromboomssloot","name:en":"Krom Boomssloot","class":"canal","name:latin":"Krom Boomssloot","name_en":"Krom Boomssloot","name:hy":"\u053f\u0580\u0578\u0574 \u0532\u0578\u0582\u0574\u057d\u056c\u0578\u057f"},"geometry":{"type":"LineString","coordinates":[[4.902498722076416,52.37196718155977],[4.902316331863403,52.371564335929875]]}},{"type":"Feature","properties":{"mvt_id":13230002662,"name_int":"Krom Boomssloot","intermittent":0,"name:ga":"Krom Boomssloot","name:nl":"Kromboomssloot","name:de":"Krom Boomssloot","name_de":"Krom Boomssloot","name":"Krom Boomssloot","name:fr":"Kromboomssloot","name:en":"Krom Boomssloot","class":"canal","name:latin":"Krom Boomssloot","name_en":"Krom Boomssloot","name:hy":"\u053f\u0580\u0578\u0574 \u0532\u0578\u0582\u0574\u057d\u056c\u0578\u057f"},"geometry":{"type":"LineString","coordinates":[[4.902541637420654,52.37204251000963],[4.902498722076416,52.37196718155977]]}},{"type":"Feature","properties":{"mvt_id":13230002672,"name_int":"Krom Boomssloot","intermittent":0,"name:ga":"Krom Boomssloot","name:nl":"Kromboomssloot","name:de":"Krom Boomssloot","name_de":"Krom Boomssloot","name":"Krom Boomssloot","name:fr":"Kromboomssloot","name:en":"Krom Boomssloot","class":"canal","name:latin":"Krom Boomssloot","name_en":"Krom Boomssloot","name:hy":"\u053f\u0580\u0578\u0574 \u0532\u0578\u0582\u0574\u057d\u056c\u0578\u057f"},"geometry":{"type":"LineString","coordinates":[[4.902740120887756,52.37242897568859],[4.902541637420654,52.37204251000963]]}},{"type":"Feature","properties":{"mvt_id":13230002682,"name_int":"Krom Boomssloot","intermittent":0,"name:ga":"Krom Boomssloot","name:nl":"Kromboomssloot","name:de":"Krom Boomssloot","name_de":"Krom Boomssloot","name":"Krom Boomssloot","name:fr":"Kromboomssloot","name:en":"Krom Boomssloot","class":"canal","name:latin":"Krom Boomssloot","name_en":"Krom Boomssloot","name:hy":"\u053f\u0580\u0578\u0574 \u0532\u0578\u0582\u0574\u057d\u056c\u0578\u057f"},"geometry":{"type":"LineString","coordinates":[[4.902842044830322,52.372540329578726],[4.902740120887756,52.37242897568859]]}},{"type":"Feature","properties":{"mvt_id":13230002692,"name_int":"Recht Boomssloot","intermittent":0,"name:ga":"Recht Boomssloot","name:nl":"Recht Boomssloot","name:de":"Recht Boomssloot","name_de":"Recht Boomssloot","name":"Recht Boomssloot","name:fr":"Rechtboomssloot","name:en":"Recht Boomssloot","class":"canal","name:latin":"Recht Boomssloot","name_en":"Recht Boomssloot"},"geometry":{"type":"LineString","coordinates":[[4.9029868841171265,52.37245845174566],[4.902842044830322,52.372540329578726]]}},{"type":"Feature","properties":{"mvt_id":13230002702,"name_int":"Recht Boomssloot","intermittent":0,"name:ga":"Recht Boomssloot","name:nl":"Recht Boomssloot","name:de":"Recht Boomssloot","name_de":"Recht Boomssloot","name":"Recht Boomssloot","name:fr":"Rechtboomssloot","name:en":"Recht Boomssloot","class":"canal","name:latin":"Recht Boomssloot","name_en":"Recht Boomssloot"},"geometry":{"type":"LineString","coordinates":[[4.90440309047699,52.37165931612485],[4.9029868841171265,52.37245845174566]]}},{"type":"Feature","properties":{"mvt_id":13230002712,"name_int":"Recht Boomssloot","intermittent":0,"name:ga":"Recht Boomssloot","name:nl":"Recht Boomssloot","name:de":"Recht Boomssloot","name_de":"Recht Boomssloot","name":"Recht Boomssloot","name:fr":"Rechtboomssloot","name:en":"Recht Boomssloot","class":"canal","name:latin":"Recht Boomssloot","name_en":"Recht Boomssloot"},"geometry":{"type":"LineString","coordinates":[[4.9045586585998535,52.371564335929875],[4.90440309047699,52.37165931612485]]}},{"type":"Feature","properties":{"mvt_id":13230002722,"name_int":"Recht Boomssloot","intermittent":0,"name:ga":"Recht Boomssloot","name:nl":"Recht Boomssloot","name:de":"Recht Boomssloot","name_de":"Recht Boomssloot","name":"Recht Boomssloot","name:fr":"Rechtboomssloot","name:en":"Recht Boomssloot","class":"canal","name:latin":"Recht Boomssloot","name_en":"Recht Boomssloot"},"geometry":{"type":"LineString","coordinates":[[4.904741048812866,52.371380925320196],[4.9045586585998535,52.371564335929875]]}},{"type":"Feature","properties":{"mvt_id":13230002732,"name_int":"Oudeschans","intermittent":0,"name:ga":"Oudeschans","name:nl":"Oudeschans","name:de":"Oudeschans","name_de":"Oudeschans","name":"Oudeschans","name:fr":"Oudeschans","name:en":"Oudeschans","class":"canal","name:latin":"Oudeschans","name_en":"Oudeschans","name:zh":"\u820a\u57ce\u7246"},"geometry":{"type":"LineString","coordinates":[[4.903877377510071,52.37103047793028],[4.90414023399353,52.37114183534623]]}},{"type":"Feature","properties":{"mvt_id":13230002742,"name_int":"Oudeschans","intermittent":0,"name:ga":"Oudeschans","name:nl":"Oudeschans","name:de":"Oudeschans","name_de":"Oudeschans","name":"Oudeschans","name:fr":"Oudeschans","name:en":"Oudeschans","class":"canal","name:latin":"Oudeschans","name_en":"Oudeschans","name:zh":"\u820a\u57ce\u7246"},"geometry":{"type":"LineString","coordinates":[[4.90414023399353,52.37114183534623],[4.90639865398407,52.3720588857426]]}},{"type":"Feature","properties":{"mvt_id":13236227222,"name_int":"Dijksgracht","intermittent":0,"name:nl":"Dijksgracht","name:de":"Dijksgracht","name_de":"Dijksgracht","name":"Dijksgracht","name:en":"Dijksgracht","class":"canal","name:latin":"Dijksgracht","name_en":"Dijksgracht"},"geometry":{"type":"LineString","coordinates":[[4.912492632865906,52.37552712916416],[4.912679264711755,52.3755991766591]]}},{"type":"Feature","properties":{"mvt_id":13236227242,"name_int":"Oosterdok","intermittent":0,"name:nl":"Oosterdok","name:de":"Oosterdok","name_de":"Oosterdok","name":"Oosterdok","name:fr":"Oosterdok","name:en":"Oosterdok","class":"canal","name:latin":"Oosterdok","name_en":"Oosterdok","name:uk":"\u041e\u043e\u0441\u0442\u0435\u0440\u0434\u043e\u043a","name:zh":"\u6771\u8239\u5862"},"geometry":{"type":"LineString","coordinates":[[4.910432696342468,52.374629800515486],[4.910840392112732,52.374917995645625]]}},{"type":"Feature","properties":{"mvt_id":13236227252,"name_int":"Oosterdok","intermittent":0,"name:nl":"Oosterdok","name:de":"Oosterdok","name_de":"Oosterdok","name":"Oosterdok","name:fr":"Oosterdok","name:en":"Oosterdok","class":"canal","name:latin":"Oosterdok","name_en":"Oosterdok","name:uk":"\u041e\u043e\u0441\u0442\u0435\u0440\u0434\u043e\u043a","name:zh":"\u6771\u8239\u5862"},"geometry":{"type":"LineString","coordinates":[[4.910840392112732,52.374917995645625],[4.911167621612549,52.375478005804766]]}},{"type":"Feature","properties":{"mvt_id":13236227262,"name_int":"Waalseilandgracht","intermittent":0,"name:nl":"Waalseilandsgracht","name:de":"Waalseilandsgracht","name_de":"Waalseilandgracht","name":"Waalseilandgracht","name:fr":"Waalseilandsgracht","name:en":"Waalseilandsgracht","class":"canal","name:latin":"Waalseilandgracht","name_en":"Waalseilandgracht","name:da":"Waalseilandsgracht","name:fi":"Waalseilandsgracht","name:sv":"Waalseilandsgracht"},"geometry":{"type":"LineString","coordinates":[[4.903453588485718,52.373689878329415],[4.903507232666016,52.37362765280974]]}},{"type":"Feature","properties":{"mvt_id":13236227272,"name_int":"Waalseilandgracht","intermittent":0,"name:nl":"Waalseilandsgracht","name:de":"Waalseilandsgracht","name_de":"Waalseilandgracht","name":"Waalseilandgracht","name:fr":"Waalseilandsgracht","name:en":"Waalseilandsgracht","class":"canal","name:latin":"Waalseilandgracht","name_en":"Waalseilandgracht","name:da":"Waalseilandsgracht","name:fi":"Waalseilandsgracht","name:sv":"Waalseilandsgracht"},"geometry":{"type":"LineString","coordinates":[[4.903507232666016,52.37362765280974],[4.903668165206909,52.37349665142908],[4.90588903427124,52.3723208966444]]}},{"type":"Feature","properties":{"mvt_id":13236227282,"name_int":"Waalseilandgracht","intermittent":0,"name:nl":"Waalseilandsgracht","name:de":"Waalseilandsgracht","name_de":"Waalseilandgracht","name":"Waalseilandgracht","name:fr":"Waalseilandsgracht","name:en":"Waalseilandsgracht","class":"canal","name:latin":"Waalseilandgracht","name_en":"Waalseilandgracht","name:da":"Waalseilandsgracht","name:fi":"Waalseilandsgracht","name:sv":"Waalseilandsgracht"},"geometry":{"type":"LineString","coordinates":[[4.903818368911743,52.375415782804424],[4.903265833854675,52.375019518482155]]}},{"type":"Feature","properties":{"mvt_id":13236227292,"name_int":"Waalseilandgracht","intermittent":0,"name:nl":"Waalseilandsgracht","name:de":"Waalseilandsgracht","name_de":"Waalseilandgracht","name":"Waalseilandgracht","name:fr":"Waalseilandsgracht","name:en":"Waalseilandsgracht","class":"canal","name:latin":"Waalseilandgracht","name_en":"Waalseilandgracht","name:da":"Waalseilandsgracht","name:fi":"Waalseilandsgracht","name:sv":"Waalseilandsgracht"},"geometry":{"type":"LineString","coordinates":[[4.904036164283752,52.3755991766591],[4.903818368911743,52.375415782804424]]}},{"type":"Feature","properties":{"mvt_id":13236322382,"name_int":"Dijksgracht","intermittent":0,"name:nl":"Dijksgracht","name:de":"Dijksgracht","name_de":"Dijksgracht","name":"Dijksgracht","name:en":"Dijksgracht","class":"canal","name:latin":"Dijksgracht","name_en":"Dijksgracht"},"geometry":{"type":"LineString","coordinates":[[4.9210381507873535,52.37522583836637],[4.921445846557617,52.37515379026236]]}},{"type":"Feature","properties":{"mvt_id":13236322392,"name_int":"Dijksgracht","intermittent":0,"name:nl":"Dijksgracht","name:de":"Dijksgracht","name_de":"Dijksgracht","name":"Dijksgracht","name:en":"Dijksgracht","class":"canal","name:latin":"Dijksgracht","name_en":"Dijksgracht"},"geometry":{"type":"LineString","coordinates":[[4.918430501155655,52.3755991766591],[4.9210381507873535,52.37522583836637]]}},{"type":"Feature","properties":{"mvt_id":13236322412,"name_int":"Kattenburgervaart","intermittent":0,"name:nl":"Kattenburgervaart","name_de":"Kattenburgervaart","name":"Kattenburgervaart","name:en":"Kattenburgervaart","class":"canal","name:latin":"Kattenburgervaart","name_en":"Kattenburgervaart","name:ca":"Kattenburgervaart"},"geometry":{"type":"LineString","coordinates":[[4.921649694442749,52.37273028556688],[4.921875,52.37287303009517]]}},{"type":"Feature","properties":{"mvt_id":13236322422,"name_int":"Kattenburgervaart","intermittent":0,"name:nl":"Kattenburgervaart","name_de":"Kattenburgervaart","name":"Kattenburgervaart","name:en":"Kattenburgervaart","class":"canal","name:latin":"Kattenburgervaart","name_en":"Kattenburgervaart","name:ca":"Kattenburgervaart"},"geometry":{"type":"LineString","coordinates":[[4.921569228172302,52.37268443419626],[4.921649694442749,52.37273028556688]]}},{"type":"Feature","properties":{"mvt_id":13236322442,"name_int":"Kattenburgervaart","intermittent":0,"name:nl":"Kattenburgervaart","name_de":"Kattenburgervaart","name":"Kattenburgervaart","name:en":"Kattenburgervaart","class":"canal","name:latin":"Kattenburgervaart","name_en":"Kattenburgervaart","name:ca":"Kattenburgervaart"},"geometry":{"type":"LineString","coordinates":[[4.919412732124329,52.37165276577313],[4.919562935829163,52.37175102094688]]}},{"type":"Feature","properties":{"mvt_id":13236322452,"name_int":"Kattenburgervaart","intermittent":0,"name:nl":"Kattenburgervaart","name_de":"Kattenburgervaart","name":"Kattenburgervaart","name:en":"Kattenburgervaart","class":"canal","name:latin":"Kattenburgervaart","name_en":"Kattenburgervaart","name:ca":"Kattenburgervaart"},"geometry":{"type":"LineString","coordinates":[[4.9177926778793335,52.37067020201408],[4.918350577354431,52.370814312733195],[4.919262528419495,52.371413677270645],[4.919412732124329,52.37165276577313]]}},{"type":"Feature","properties":{"mvt_id":13236322462,"name_int":"Nieuwe Vaart","intermittent":0,"name_de":"Nieuwe Vaart","name":"Nieuwe Vaart","class":"canal","name:latin":"Nieuwe Vaart","name_en":"Nieuwe Vaart"},"geometry":{"type":"LineString","coordinates":[[4.9135226011276245,52.371511932976254],[4.914075136184692,52.37104030359592],[4.91437554359436,52.37088964314925],[4.914675951004028,52.37071933072115],[4.91514265537262,52.37057194443602]]}},{"type":"Feature","properties":{"mvt_id":13236322472,"name_int":"Nieuwe Vaart","intermittent":0,"name_de":"Nieuwe Vaart","name":"Nieuwe Vaart","class":"canal","name:latin":"Nieuwe Vaart","name_en":"Nieuwe Vaart"},"geometry":{"type":"LineString","coordinates":[[4.91888165473938,52.36935680765528],[4.919069409370422,52.36929457603085]]}},{"type":"Feature","properties":{"mvt_id":13236322482,"name_int":"Nieuwe Vaart","intermittent":0,"name_de":"Nieuwe Vaart","name":"Nieuwe Vaart","class":"canal","name:latin":"Nieuwe Vaart","name_en":"Nieuwe Vaart"},"geometry":{"type":"LineString","coordinates":[[4.919069409370422,52.36929457603085],[4.9201637506484985,52.368813096815536],[4.921107888221741,52.36850848480568],[4.921875,52.368227906345545]]}},{"type":"Feature","properties":{"mvt_id":13236322492,"name_int":"Entrepotdoksluis","intermittent":0,"name:nl":"Entrepotdoksluis","name:de":"Entrepotdoksluis","name_de":"Entrepotdoksluis","name":"Entrepotdoksluis","name:en":"Entrepotdoksluis","class":"canal","name:latin":"Entrepotdoksluis","name_en":"Entrepotdoksluis"},"geometry":{"type":"LineString","coordinates":[[4.919332265853882,52.368036823355844],[4.91913378238678,52.36782719442828]]}},{"type":"Feature","properties":{"mvt_id":13236322502,"name_int":"Entrepotdoksluis","intermittent":0,"name:nl":"Entrepotdoksluis","name:de":"Entrepotdoksluis","name_de":"Entrepotdoksluis","name":"Entrepotdoksluis","name:en":"Entrepotdoksluis","class":"canal","name:latin":"Entrepotdoksluis","name_en":"Entrepotdoksluis"},"geometry":{"type":"LineString","coordinates":[[4.918661713600159,52.367319495247294],[4.918447136878967,52.36709020983361]]}},{"type":"Feature","properties":{"mvt_id":13236322512,"name_int":"Entrepotdoksluis","intermittent":0,"name:nl":"Entrepotdoksluis","name:de":"Entrepotdoksluis","name_de":"Entrepotdoksluis","name":"Entrepotdoksluis","name:en":"Entrepotdoksluis","class":"canal","name:latin":"Entrepotdoksluis","name_en":"Entrepotdoksluis"},"geometry":{"type":"LineString","coordinates":[[4.918849468231201,52.36752257561988],[4.918661713600159,52.367319495247294]]}},{"type":"Feature","properties":{"mvt_id":13236322532,"name_int":"Wittenburgervaart","intermittent":0,"name_de":"Wittenburgervaart","name":"Wittenburgervaart","class":"canal","name:latin":"Wittenburgervaart","name_en":"Wittenburgervaart"},"geometry":{"type":"LineString","coordinates":[[4.921097159385681,52.36954350200253],[4.920780658721924,52.3693633583475]]}},{"type":"Feature","properties":{"mvt_id":13236322542,"name_int":"Entrepotdok","intermittent":0,"name:sl":"Entrepotdok","name:ga":"Entrepotdok","name:nl":"Entrepotdok","name:de":"Entrepotdok","name_de":"Entrepotdok","name":"Entrepotdok","name:it":"Entrepotdok","name:fr":"Entrepotdok","name:en":"Entrepotdok","class":"canal","name:latin":"Entrepotdok","name_en":"Entrepotdok"},"geometry":{"type":"LineString","coordinates":[[4.921419024467468,52.365845496822615],[4.921494126319885,52.36574395289819]]}},{"type":"Feature","properties":{"mvt_id":13236322552,"name_int":"Entrepotdok","intermittent":0,"name:sl":"Entrepotdok","name:ga":"Entrepotdok","name:nl":"Entrepotdok","name:de":"Entrepotdok","name_de":"Entrepotdok","name":"Entrepotdok","name:it":"Entrepotdok","name:fr":"Entrepotdok","name:en":"Entrepotdok","class":"canal","name:latin":"Entrepotdok","name_en":"Entrepotdok"},"geometry":{"type":"LineString","coordinates":[[4.913704991340637,52.36864277638075],[4.91389274597168,52.368580543750376]]}},{"type":"Feature","properties":{"mvt_id":13236322562,"name_int":"Entrepotdok","intermittent":0,"name:sl":"Entrepotdok","name:ga":"Entrepotdok","name:nl":"Entrepotdok","name:de":"Entrepotdok","name_de":"Entrepotdok","name":"Entrepotdok","name:it":"Entrepotdok","name:fr":"Entrepotdok","name:en":"Entrepotdok","class":"canal","name:latin":"Entrepotdok","name_en":"Entrepotdok"},"geometry":{"type":"LineString","coordinates":[[4.910738468170166,52.36971054364436],[4.911205172538757,52.36949764732367],[4.913704991340637,52.36864277638075]]}},{"type":"Feature","properties":{"mvt_id":13236322572,"name_int":"Schippersgracht","intermittent":0,"name:ga":"Schippersgracht","name:nl":"Schippersgracht","name:de":"Schippersgracht","name_de":"Schippersgracht","name":"Schippersgracht","name:en":"Schippersgracht","class":"canal","name:latin":"Schippersgracht","name_en":"Schippersgracht","name:ca":"Schippersgracht"},"geometry":{"type":"LineString","coordinates":[[4.9115753173828125,52.37026734455499],[4.911779165267944,52.370401630782936]]}},{"type":"Feature","properties":{"mvt_id":13236322582,"name_int":"Schippersgracht","intermittent":0,"name:ga":"Schippersgracht","name:nl":"Schippersgracht","name:de":"Schippersgracht","name_de":"Schippersgracht","name":"Schippersgracht","name:en":"Schippersgracht","class":"canal","name:latin":"Schippersgracht","name_en":"Schippersgracht","name:ca":"Schippersgracht"},"geometry":{"type":"LineString","coordinates":[[4.91312563419342,52.37126956850703],[4.9135226011276245,52.371511932976254]]}},{"type":"Feature","properties":{"mvt_id":13236322592,"name_int":"Schippersgracht","intermittent":0,"name:ga":"Schippersgracht","name:nl":"Schippersgracht","name:de":"Schippersgracht","name_de":"Schippersgracht","name":"Schippersgracht","name:en":"Schippersgracht","class":"canal","name:latin":"Schippersgracht","name_en":"Schippersgracht","name:ca":"Schippersgracht"},"geometry":{"type":"LineString","coordinates":[[4.912476539611816,52.370860166045226],[4.912793040275574,52.371066505360275],[4.91312563419342,52.37126956850703]]}},{"type":"Feature","properties":{"mvt_id":13335164602,"name_int":"Keizersgracht","intermittent":0,"name:nl":"Keizersgracht","name_de":"Keizersgracht","name":"Keizersgracht","class":"canal","name:latin":"Keizersgracht","name_en":"Keizersgracht","name:uk":"\u041a\u0435\u0439\u0437\u0435\u0440\u0441\u0433\u0440\u0430\u0445\u0442"},"geometry":{"type":"LineString","coordinates":[[4.901264905929565,52.36436162206742],[4.901109337806702,52.36433214060708]]}},{"type":"Feature","properties":{"mvt_id":13335164612,"name_int":"Keizersgracht","intermittent":0,"name:nl":"Keizersgracht","name_de":"Keizersgracht","name":"Keizersgracht","class":"canal","name:latin":"Keizersgracht","name_en":"Keizersgracht","name:uk":"\u041a\u0435\u0439\u0437\u0435\u0440\u0441\u0433\u0440\u0430\u0445\u0442"},"geometry":{"type":"LineString","coordinates":[[4.901109337806702,52.36433214060708],[4.89990234375,52.36410261299396]]}},{"type":"Feature","properties":{"mvt_id":13335275822,"name_int":"Oudeschans","intermittent":0,"name:ga":"Oudeschans","name:nl":"Oudeschans","name:de":"Oudeschans","name_de":"Oudeschans","name":"Oudeschans","name:fr":"Oudeschans","name:en":"Oudeschans","class":"canal","name:latin":"Oudeschans","name_en":"Oudeschans","name:zh":"\u820a\u57ce\u7246"},"geometry":{"type":"LineString","coordinates":[[4.907562732696533,52.37262875746795],[4.907782673835754,52.3727368357588]]}},{"type":"Feature","properties":{"mvt_id":13335275832,"name_int":"Oosterdok","intermittent":0,"name:nl":"Oosterdok","name:de":"Oosterdok","name_de":"Oosterdok","name":"Oosterdok","name:fr":"Oosterdok","name:en":"Oosterdok","class":"canal","name:latin":"Oosterdok","name_en":"Oosterdok","name:uk":"\u041e\u043e\u0441\u0442\u0435\u0440\u0434\u043e\u043a","name:zh":"\u6771\u8239\u5862"},"geometry":{"type":"LineString","coordinates":[[4.907782673835754,52.3727368357588],[4.907970428466797,52.37283181343243]]}},{"type":"Feature","properties":{"mvt_id":13601442072,"intermittent":0,"class":"stream"},"geometry":{"type":"LineString","coordinates":[[4.919734597206116,52.36615995394672],[4.919680953025818,52.36615340277947],[4.919611215591431,52.3661173713422],[4.9195414781570435,52.366104268994086],[4.919487833976746,52.36607806428621],[4.9194395542144775,52.36607478869663]]}},{"type":"Feature","properties":{"mvt_id":14095204892,"intermittent":0,"class":"stream"},"geometry":{"type":"LineString","coordinates":[[4.917470812797546,52.36502986322501],[4.917481541633606,52.364993830871384],[4.917524456977844,52.36496107416075],[4.917562007904053,52.36495452281572],[4.917610287666321,52.36495452281572],[4.917653203010559,52.36494797146971],[4.917765855789185,52.36491193904929],[4.917808771133423,52.364905387696965]]}}],"crs":{"type":"name","properties":{"name":"urn:ogc:def:crs:OGC:1.3:CRS84"}}}