{"type":"FeatureCollection","name":"water","features":[{"type":"Feature","properties":{"mvt_id":83875163,"intermittent":0,"class":"river","id":8387516},"geometry":{"type":"MultiPolygon","coordinates":[[[[4.904000759124756,52.375353559716416],[4.903920292854309,52.37539613341768],[4.903855919837952,52.37539285851904],[4.903780817985535,52.3754321572867],[4.903764724731445,52.37545835644571],[4.9037593603134155,52.37549110537262],[4.90372554639751,52.3755991766591],[4.904267050379474,52.3755991766591],[4.904000759124756,52.375353559716416]]]]}},{"type":"Feature","properties":{"mvt_id":87301083,"intermittent":0,"class":"river","id":8730108},"geometry":{"type":"MultiPolygon","coordinates":[[[[4.9011629819869995,52.366556297758386],[4.901173710823059,52.3665464710953],[4.90115761756897,52.36653991998536],[4.90115225315094,52.36652354220627],[4.901280999183655,52.36633683509542],[4.901345372200012,52.36634011066556],[4.90139365196228,52.36634011066556],[4.901468753814697,52.36631718166942],[4.901517033576965,52.36626804806618],[4.901694059371948,52.36600600125938],[4.901710152626038,52.3659863476862],[4.9017369747161865,52.365976520896346],[4.901790618896484,52.3659863476862],[4.901849627494812,52.36595031611268],[4.90190327167511,52.36584222121579],[4.9018871784210205,52.36579636269478],[4.901865720748901,52.36579308708432],[4.902938604354858,52.36373595574334],[4.902831315994263,52.363716301160295],[4.902874231338501,52.36362785542842],[4.902981519699097,52.363647510050804],[4.903416037559509,52.36280235339279],[4.903728615625113,52.362183216744256],[4.903502793147652,52.362183216744256],[4.903298020362854,52.36258614792994],[4.903244376182556,52.36257632038376],[4.9034430129187285,52.362183216744256],[4.903313408579152,52.362183216744256],[4.903126358985901,52.36255338943419],[4.903088808059692,52.362563216985464],[4.903067350387573,52.36254356188072],[4.903250480520313,52.362183216744256],[4.903089191232425,52.362183216744256],[4.902965426445007,52.36243218278871],[4.903013706207275,52.36244201036694],[4.902970790863037,52.362530458472705],[4.902943968772888,52.3625370101772],[4.902933239936829,52.36251407920722],[4.90289568901062,52.362507527499325],[4.90289032459259,52.36251407920722],[4.902863502502441,52.36252063091415],[4.902852773666382,52.362507527499325],[4.90290105342865,52.36241907934765],[4.902943968772888,52.362428906928805],[4.90307083001008,52.362183216744256],[4.902913432854859,52.362183216744256],[4.9027615785598755,52.362484596514044],[4.902724027633667,52.362494424080616],[4.902707934379578,52.36247149308854],[4.902850797301824,52.362183216744256],[4.9027201329192,52.362183216744256],[4.902584552764893,52.36245183794299],[4.902547001838684,52.36246166551686],[4.902530908584595,52.36243873450777],[4.902632832527161,52.36218976850025],[4.902601540088654,52.362183216744256],[4.902429354601878,52.362183216744256],[4.9022626876831055,52.362530458472705],[4.902230501174927,52.36258287208146],[4.9021607637405396,52.36257959623273],[4.902133941650391,52.36259269962618],[4.902048110961914,52.362769595057344],[4.902053475379944,52.3627859742281],[4.9021124839782715,52.36280890505697],[4.902107119560242,52.36285149085044],[4.901806712150574,52.363431308723676],[4.901935458183289,52.36345751500149],[4.90189254283905,52.36353940951948],[4.901769161224365,52.36351647906975],[4.901361465454102,52.364269901903995],[4.901329278945923,52.36428628051858],[4.901275634765625,52.36427972907347],[4.901184439659119,52.364453342040434],[4.901195168495178,52.36447954771203],[4.901243448257446,52.36450575336809],[4.900712370872498,52.36554086434916],[4.900696277618408,52.365550691235924],[4.900680184364319,52.36556051812051],[4.90064799785614,52.36556051812051],[4.900615811347961,52.36555396686437],[4.900519251823425,52.365747228512305],[4.900519251823425,52.365753779739784],[4.900567531585693,52.36577015780426],[4.900578260421753,52.36577998464003],[4.900583624839783,52.36580291391498],[4.900492429733276,52.36597979649321],[4.900481700897217,52.36605185956278],[4.900487065315247,52.36608461546462],[4.900508522987366,52.366107544581475],[4.900594353675842,52.36616322952999],[4.900605082511902,52.36619270976843],[4.900492429733276,52.36636631521801],[4.900454878807068,52.366389244188646],[4.9011629819869995,52.366556297758386]],[[4.903383851051331,52.36260580301573],[4.903426766395569,52.36252063091415],[4.903458952903748,52.362530458472705],[4.903416037559509,52.36261235470906],[4.903383851051331,52.36260580301573]],[[4.902772307395935,52.36361147656975],[4.902788400650024,52.363614752341974],[4.902745485305786,52.36369992233442],[4.902729392051697,52.36369664656851],[4.902772307395935,52.36361147656975]],[[4.902670383453369,52.36359182193134],[4.9026864767074585,52.363595097705016],[4.90264356136322,52.363680267735354],[4.902627468109131,52.36367699196799],[4.902670383453369,52.36359182193134]],[[4.902568459510803,52.36357544305931],[4.902584552764893,52.363578718834205],[4.902541637420654,52.363660613127536],[4.902530908584595,52.36365733735872],[4.902568459510803,52.36357544305931]],[[4.902482628822327,52.36355906418122],[4.902445077896118,52.36364423428101],[4.902428984642029,52.363640958510985],[4.902471899986267,52.36355578840487],[4.902482628822327,52.36355906418122]],[[4.902273416519165,52.36361147656975],[4.9022626876831055,52.363608200797295],[4.902305603027344,52.363526306406804],[4.902316331863403,52.363526306406804],[4.902273416519165,52.36361147656975]],[[4.902209043502808,52.3635066517305],[4.902219772338867,52.36350992751049],[4.902182221412659,52.363595097705016],[4.902166128158569,52.36359182193134],[4.902209043502808,52.3635066517305]],[[4.9021124839782715,52.3634902728269],[4.902123212814331,52.3634902728269],[4.902085661888123,52.36357544305931],[4.902069568634033,52.363572167284175],[4.9021124839782715,52.3634902728269]],[[4.902015924453735,52.36347061813457],[4.902032017707825,52.36347389391723],[4.901989102363586,52.36355906418122],[4.901973009109497,52.36355578840487],[4.902015924453735,52.36347061813457]],[[4.901071786880493,52.36629752823468],[4.900953769683838,52.366484235511656],[4.900926947593689,52.36649733774708],[4.900916218757629,52.366477684392486],[4.901034235954285,52.366294252661376],[4.901044964790344,52.36628442594001],[4.901066422462463,52.36627787479121],[4.901071786880493,52.36629752823468]],[[4.900841116905212,52.366241843455455],[4.900723099708557,52.36643182653112],[4.900696277618408,52.3664416532197],[4.900690913200378,52.36642199984035],[4.900808930397034,52.36623201672242],[4.900835752487183,52.3662221899872],[4.900841116905212,52.366241843455455]]]]}},{"type":"Feature","properties":{"mvt_id":88785523,"intermittent":0,"class":"river","id":8878552},"geometry":{"type":"MultiPolygon","coordinates":[[[[4.9098801612854,52.37520946380759],[4.910078644752502,52.37527168709862],[4.910255670547485,52.37534700991258],[4.9103844165802,52.375419057701365],[4.9105024337768555,52.37550093004595],[4.910582900047302,52.37558607712331],[4.910588819405149,52.3755991766591],[4.911861930574673,52.3755991766591],[4.912042021751404,52.37482957233977],[4.912047386169434,52.3746985745242],[4.91189181804657,52.37469529957383],[4.911854267120361,52.37468874967237],[4.911822080612183,52.37467564986653],[4.911805987358093,52.37465600015048],[4.911805987358093,52.374629800515486],[4.911816716194153,52.37460687582211],[4.9118489027023315,52.37458395111684],[4.91188108921051,52.374574126239516],[4.911929368972778,52.37457085127992],[4.911929368972778,52.37424335409392],[4.911902546882629,52.37402065462026],[4.911859631538391,52.373850354265066],[4.9118006229400635,52.373657128066824],[4.911741614341736,52.373490101349844],[4.9116450548172,52.37329359852117],[4.911489486694336,52.37308399454028],[4.910368323326111,52.373463901023214],[4.910448789596558,52.37354905202797],[4.910303950309753,52.373594902501],[4.9102771282196045,52.373568702236525],[4.9101269245147705,52.37362110274993],[4.9100518226623535,52.373532676847496],[4.910089373588562,52.373516301660956],[4.910008907318115,52.373431150593056],[4.910159111022949,52.37338529995003],[4.910175204277039,52.37340822527749],[4.910314679145813,52.37342460050411],[4.911457300186157,52.37303486846337],[4.911280274391174,52.37279251235087],[4.910995960235596,52.37248465266875],[4.910824298858643,52.372340547399375],[4.910759925842285,52.372301245880685],[4.910706281661987,52.37227504484879],[4.9106365442276,52.372261944327015],[4.910561442375183,52.37225866919596],[4.910480976104736,52.37228159510822],[4.909343719482422,52.37266805869522],[4.90914523601532,52.37272373537399],[4.908968210220337,52.372766311610405],[4.908818006515503,52.372766311610405],[4.90814745426178,52.37268770929574],[4.9080294370651245,52.37274993613972],[4.908050894737244,52.372763036516744],[4.908034801483154,52.372795787442335],[4.908002614974976,52.372795787442335],[4.9079811573028564,52.372789237259155],[4.90788996219635,52.37284163869736],[4.90790069103241,52.37284818887276],[4.9079060554504395,52.372861289220644],[4.90790069103241,52.37287438956465],[4.907847046852112,52.372884214820104],[4.907814860343933,52.37287111447902],[4.907702207565308,52.372930065983326],[4.907712936401367,52.37297264202083],[4.907793402671814,52.37308399454028],[4.907788038253784,52.3731298454961],[4.908249378204346,52.37343770068102],[4.908120632171631,52.373509751584635],[4.9076539278030396,52.37320189690193],[4.907589554786682,52.37319862184059],[4.9071067571640015,52.373463901023214],[4.907117486000061,52.373513026622916],[4.907482266426086,52.37376192882163],[4.907471537590027,52.37376847886055],[4.907552003860474,52.3738274291671],[4.90739107131958,52.373915854479385],[4.906935095787048,52.3736080026274],[4.906859993934631,52.37360472759617],[4.906371831893921,52.373876554362454],[4.906371831893921,52.373919129487554],[4.906752705574036,52.374161479417964],[4.906741976737976,52.37416475440791],[4.906833171844482,52.37422697917087],[4.906709790229797,52.37429575380687],[4.906243085861206,52.37398135459658],[4.906184077262878,52.37398135459658],[4.905690550804138,52.374256454027986],[4.905685186386108,52.37428920384615],[4.906162619590759,52.37460687582211],[4.905990958213806,52.3747051244242],[4.9055081605911255,52.374387453154945],[4.905459880828857,52.37438417818151],[4.905014634132385,52.37462652556002],[4.905014634132385,52.374662550056804],[4.905481338500977,52.374976944417824],[4.905347228050232,52.37504899281034],[4.9048912525177,52.37473459896223],[4.904826879501343,52.37473459896223],[4.903995394706726,52.37519963906941],[4.904118776321411,52.37528478672767],[4.904000759124756,52.375353559716416],[4.904267050379474,52.3755991766591],[4.907700777053833,52.3755991766591],[4.908319115638733,52.375415782804424],[4.909064769744873,52.37520291398239],[4.9092525243759155,52.37517343975692],[4.909434914588928,52.375163615010734],[4.9098801612854,52.37520946380759]],[[4.910582900047302,52.37483284728018],[4.910518527030945,52.37479682292231],[4.910497069358826,52.37477717326017],[4.9105024337768555,52.37477062337086],[4.910513162612915,52.37476734842582],[4.910572171211243,52.37479682292231],[4.910620450973511,52.37484267209995],[4.910609722137451,52.3748459470394],[4.910582900047302,52.37483284728018]],[[4.910824298858643,52.3747149492724],[4.910802841186523,52.374678924818355],[4.910786747932434,52.374636350425696],[4.910792112350464,52.374629800515486],[4.910808205604553,52.37463307547071],[4.910835027694702,52.374672374914475],[4.910845756530762,52.3747247741184],[4.910840392112732,52.37472804906659],[4.910824298858643,52.3747149492724]]]]}},{"type":"Feature","properties":{"mvt_id":121130803,"intermittent":0,"class":"river","id":12113080},"geometry":{"type":"MultiPolygon","coordinates":[[[[4.914466738700867,52.368197319831125],[4.91362988948822,52.368488832345825],[4.9133992195129395,52.36857071753757],[4.913420677185059,52.36860347157177],[4.913340210914612,52.36862967478164],[4.913291931152344,52.36857399294209],[4.910802841186523,52.36943541589767],[4.910518527030945,52.36925199644785],[4.910438060760498,52.36927819927302],[4.910416603088379,52.36926182250911],[4.9103522300720215,52.36926509786238],[4.910271763801575,52.36925199644785],[4.910207390785217,52.369219242894516],[4.9101269245147705,52.36923889502943],[4.910116195678711,52.36923889502943],[4.910073280334473,52.36924872109361],[4.909740686416626,52.36902927180629],[4.909740686416626,52.36902272106454],[4.909762144088745,52.36900306883346],[4.909756779670715,52.36899651808781],[4.9097782373428345,52.36897686584507],[4.909767508506775,52.368970315095545],[4.909788966178894,52.368953938217494],[4.908984303474426,52.368403671585384],[4.908866286277771,52.36831523523731],[4.908818006515503,52.36826937928342],[4.908447861671448,52.36800734434802],[4.907745122909546,52.36756188139061],[4.907525181770325,52.367404658097854],[4.90739643573761,52.36745051494937],[4.907364249229431,52.367447239461555],[4.906983375549316,52.36719830167691],[4.906978011131287,52.36718519964938],[4.906988739967346,52.367172097617974],[4.907101392745972,52.36713279150043],[4.907010197639465,52.36706400571057],[4.9065059423446655,52.36677248379326],[4.906328916549683,52.36669387081208],[4.906334280967712,52.36668076863494],[4.906194806098938,52.36661198214125],[4.90514874458313,52.36640562201753],[4.905100464820862,52.3664416532197],[4.905105829238892,52.36646458215124],[4.905025362968445,52.366448204344216],[4.904977083206177,52.36653664443003],[4.905052185058594,52.366553022204265],[4.905025362968445,52.36656939997243],[4.905041456222534,52.36662180878976],[4.905416965484619,52.36669059526816],[4.905577898025513,52.366713524070484],[4.906269907951355,52.36701159741783],[4.906366467475891,52.36706400571057],[4.906548857688904,52.36718519964938],[4.906699061393738,52.36729656675948],[4.9068063497543335,52.36727691376045],[4.906790256500244,52.36726381175624],[4.906784892082214,52.36725070974815],[4.906795620918274,52.367240883239525],[4.906827807426453,52.367237607736165],[4.906843900680542,52.367240883239525],[4.907219409942627,52.36748982078423],[4.907224774360657,52.3674963717533],[4.907214045524597,52.36751274917173],[4.9071818590164185,52.36751602465469],[4.90714430809021,52.36749309626888],[4.907063841819763,52.36753567754734],[4.907192587852478,52.36761101355484],[4.90864634513855,52.36856416672782],[4.909483194351196,52.369124257452526],[4.909510016441345,52.36911443136067],[4.909520745277405,52.36911770672486],[4.909558296203613,52.36910788063154],[4.909569025039673,52.36911443136067],[4.909611940383911,52.369104605266614],[4.909939169883728,52.36931750348164],[4.909939169883728,52.36932732952833],[4.909923076629639,52.36934698161516],[4.9099284410476685,52.36935353230882],[4.909906983375549,52.36937318438399],[4.909912347793579,52.36938301041828],[4.90989625453949,52.36939938713728],[4.910754561424255,52.36994964136584],[4.91089403629303,52.369959467271904],[4.910953044891357,52.36992998954714],[4.910979866981506,52.36992998954714],[4.911038875579834,52.369972568476605],[4.9111407995224,52.369920163634504],[4.911071062088013,52.36987430934666],[4.9110764265060425,52.369861208112816],[4.9112749099731445,52.36974657215096],[4.9112749099731445,52.36974002151559],[4.911253452301025,52.36973347087924],[4.911242723464966,52.36971709428411],[4.911242723464966,52.36970726832412],[4.911264181137085,52.369684341075654],[4.917701482772827,52.36744396397349],[4.918355941772461,52.367447239461555],[4.918581247329712,52.367365352187214],[4.918613433837891,52.367417760060285],[4.918806552886963,52.3673456992188],[4.918774366378784,52.36731621974976],[4.918769001960754,52.36731621974976],[4.918752908706665,52.36730639325572],[4.918983578681946,52.367224505720294],[4.919273257255554,52.36693298486214],[4.919997453689575,52.36667421754492],[4.920185208320618,52.36658577773452],[4.921333193778992,52.36617305627833],[4.921579957008362,52.36582256756976],[4.921301007270813,52.36582584317804],[4.9211883544921875,52.36597979649321],[4.921102523803711,52.366038757195234],[4.921059608459473,52.366055135154056],[4.920984506607056,52.3660715131068],[4.920748472213745,52.366104268994086],[4.920512437820435,52.36615995394672],[4.92037832736969,52.36619598534926],[4.919461011886597,52.366520266649715],[4.9195414781570435,52.36660215549055],[4.919305443763733,52.36668076863494],[4.919230341911316,52.36659560438887],[4.918575882911682,52.366821616835466],[4.918656349182129,52.36690678064583],[4.918527603149414,52.36695263801419],[4.918447136878967,52.36686419876117],[4.916709065437317,52.36746689238481],[4.914761781692505,52.368131811136145],[4.914498925209045,52.3682300741422],[4.914466738700867,52.368197319831125]],[[4.913801550865173,52.36856416672782],[4.913737177848816,52.36858709455771],[4.913715720176697,52.36859036996101],[4.913710355758667,52.36857726834636],[4.913785457611084,52.36855106510539],[4.913801550865173,52.36855106510539],[4.913801550865173,52.36856416672782]],[[4.91388738155365,52.368659153374175],[4.9138230085372925,52.36868208115476],[4.913801550865173,52.36868535655102],[4.9137961864471436,52.36867553036152],[4.9138712882995605,52.36864277638075],[4.91388738155365,52.368646051779926],[4.91388738155365,52.368659153374175]]]]}},{"type":"Feature","properties":{"mvt_id":122477773,"intermittent":0,"class":"river","id":12247777},"geometry":{"type":"MultiPolygon","coordinates":[[[[4.919160604476929,52.369477995303875],[4.920351505279541,52.36904237328688],[4.920469522476196,52.36907840233847],[4.9205392599105835,52.369055474763584],[4.920533895492554,52.36899324271464],[4.921875,52.3685316630141],[4.921875,52.367796559235146],[4.921032786369324,52.368099056752214],[4.921043515205383,52.368125260261294],[4.920828938484192,52.368200595263325],[4.920861124992371,52.36824645128862],[4.920437335968018,52.36838074366029],[4.920351505279541,52.36830868438967],[4.9200403690338135,52.368420048667446],[4.9194663763046265,52.3679745898718],[4.919418096542358,52.367990967112945],[4.9193912744522095,52.3679647635242],[4.919198155403137,52.368036823355844],[4.919219613075256,52.368063026901844],[4.919182062149048,52.36808595499185],[4.919348359107971,52.368338163196405],[4.919546842575073,52.36858709455771],[4.919444918632507,52.36861657317865],[4.9194663763046265,52.368646051779926],[4.9193161725997925,52.368678805758265],[4.918656349182129,52.368898256786665],[4.918763637542725,52.36901289495009],[4.916215538978577,52.369923438938955],[4.916236996650696,52.36994636606333],[4.916054606437683,52.37001187206739],[4.915958046913147,52.36990706241426],[4.915062189102173,52.37019201307764],[4.915083646774292,52.37021494006261],[4.915024638175964,52.37023131647315],[4.915072917938232,52.370290271500856],[4.913924932479858,52.37089619361414],[4.914005398750305,52.37090274407806],[4.914166331291199,52.37093549638307],[4.914364814758301,52.37101410181602],[4.914584755897522,52.37111890884237],[4.915153384208679,52.370820863209254],[4.915190935134888,52.37082413844693],[4.915217757225037,52.37084051463161],[4.916521310806274,52.370395080244705],[4.916725158691406,52.37030337260744],[4.917299151420593,52.370126507340736],[4.917315244674683,52.37010030501876],[4.919085502624512,52.36951074866534],[4.919160604476929,52.369477995303875]],[[4.918935298919678,52.3693928364504],[4.919064044952393,52.36934698161516],[4.919096231460571,52.369379735073764],[4.918962121009827,52.36942558987502],[4.918935298919678,52.3693928364504]],[[4.918860197067261,52.369310952782634],[4.918844103813171,52.3692978513817],[4.918972849845886,52.36925199644785],[4.918988943099976,52.36926509786238],[4.918860197067261,52.369310952782634]],[[4.918726086616516,52.36913080817923],[4.9187153577804565,52.369124257452526],[4.918795824050903,52.36909805453603],[4.918801188468933,52.369104605266614],[4.918726086616516,52.36913080817923]],[[4.918801188468933,52.369212692180945],[4.9187904596328735,52.369206141466385],[4.91887092590332,52.369179938598464],[4.91887629032135,52.36918648931691],[4.918801188468933,52.369212692180945]]]]}},{"type":"Feature","properties":{"mvt_id":142350383,"intermittent":0,"class":"lake","id":14235038},"geometry":{"type":"MultiPolygon","coordinates":[[[[4.916092157363892,52.362186492622364],[4.916301369667053,52.362225803140795],[4.916853904724121,52.36222907901575],[4.916966557502747,52.36225856187942],[4.917615652084351,52.36226511362424],[4.9178677797317505,52.36230114820335],[4.9182432889938354,52.362360113814844],[4.918425679206848,52.36241580348678],[4.918581247329712,52.362474768945276],[4.918709993362427,52.362530458472705],[4.918811917304993,52.36259269962618],[4.919434189796448,52.363159417674076],[4.919605851173401,52.36325441594182],[4.919686317443848,52.3632937255101],[4.919745326042175,52.363306828691755],[4.919777512550354,52.36328389812132],[4.920029640197754,52.363382171910864],[4.920045733451843,52.36343458450924],[4.92162823677063,52.36365733735872],[4.921740889549255,52.36367699196799],[4.921842813491821,52.36370974963067],[4.921875,52.36372371473212],[4.921875,52.36338467424987],[4.921773076057434,52.363352689796955],[4.921402931213379,52.36331338028113],[4.920608997344971,52.36325114014289],[4.920244216918945,52.36319872732689],[4.920201301574707,52.36322165794154],[4.919954538345337,52.36312338379496],[4.919970631599426,52.36309717731895],[4.919916987419128,52.36305786757579],[4.919916987419128,52.363025109429785],[4.919702410697937,52.3628809732988],[4.919203519821167,52.362458389659146],[4.919069409370422,52.362369941409106],[4.918956756591797,52.36230442407271],[4.918779730796814,52.36222252726559],[4.918680695387025,52.362183216744256],[4.91607841104269,52.362183216744256],[4.916092157363892,52.362186492622364]]]]}},{"type":"Feature","properties":{"mvt_id":167524583,"intermittent":0,"class":"lake","id":16752458},"geometry":{"type":"MultiPolygon","coordinates":[[[[4.914987087249756,52.36665456426903],[4.915030002593994,52.366575951078],[4.915072917938232,52.366553022204265],[4.915180206298828,52.36651371553589],[4.915233850479126,52.366477684392486],[4.9152445793151855,52.366461306590324],[4.915249943733215,52.366448204344216],[4.915233850479126,52.36640562201753],[4.915228486061096,52.36635976408135],[4.915217757225037,52.36634011066556],[4.915190935134888,52.366333559525025],[4.914949536323547,52.3663925197549],[4.914761781692505,52.36643182653112],[4.914734959602356,52.366448204344216],[4.914729595184326,52.36646785771191],[4.914734959602356,52.366484235511656],[4.914761781692505,52.36649406218859],[4.914826154708862,52.366503888863335],[4.914858341217041,52.366520266649715],[4.914949536323547,52.3666316354361],[4.914949536323547,52.366644737627794],[4.914987087249756,52.36665456426903]],[[4.914906620979309,52.36651043997861],[4.914836883544922,52.366471133272356],[4.914793968200684,52.36646458215124],[4.914788603782654,52.36645475546775],[4.9151211977005005,52.366379417488396],[4.91514265537262,52.366379417488396],[4.9151694774627686,52.366389244188646],[4.915190935134888,52.36641217314738],[4.915201663970947,52.366448204344216],[4.915180206298828,52.366474408832545],[4.914981722831726,52.3665464710953],[4.914917349815369,52.3665497466499],[4.914906620979309,52.36651043997861]]]]}},{"type":"Feature","properties":{"mvt_id":167527153,"intermittent":0,"class":"lake","id":16752715},"geometry":{"type":"MultiPolygon","coordinates":[[[[4.913833737373352,52.366936260388094],[4.913919568061829,52.36702469949684],[4.914085865020752,52.36703452605356],[4.914166331291199,52.367008321897465],[4.914187788963318,52.366988668770205],[4.914225339889526,52.366916607228774],[4.914219975471497,52.36689040300275],[4.914198517799377,52.36686419876117],[4.9140965938568115,52.36682489236968],[4.914037585258484,52.36680851469622],[4.914016127586365,52.36681179023139],[4.91388201713562,52.36685109663456],[4.913833737373352,52.366936260388094]],[[4.914085865020752,52.366998495334926],[4.913962483406067,52.36699194429202],[4.913903474807739,52.36693298486214],[4.913941025733948,52.36687730088391],[4.913978576660156,52.36686419876117],[4.914010763168335,52.3668478211023],[4.9140214920043945,52.36685109663456],[4.914037585258484,52.36684454556979],[4.914069771766663,52.36686092322988],[4.914080500602722,52.366857647698346],[4.914101958274841,52.36687730088391],[4.914112687110901,52.36687402535358],[4.914155602455139,52.3668871274734],[4.914155602455139,52.366946086964475],[4.9141234159469604,52.36697556668051],[4.914085865020752,52.366998495334926]]]]}},{"type":"Feature","properties":{"mvt_id":167527843,"intermittent":0,"class":"lake","id":16752784},"geometry":{"type":"MultiPolygon","coordinates":[[[[4.918543696403503,52.36554086434916],[4.918575882911682,52.36555724249256],[4.9185919761657715,52.36556051812051],[4.91862952709198,52.36555396686437],[4.918650984764099,52.365534313090095],[4.918650984764099,52.36551138367574],[4.91862952709198,52.36549500551532],[4.918608069419861,52.36549172988252],[4.918570518493652,52.36549172988252],[4.918543696403503,52.36550810804413],[4.918538331985474,52.3655310374602],[4.918543696403503,52.36554086434916]],[[4.918575882911682,52.36551138367574],[4.918597340583801,52.3655048324123],[4.918613433837891,52.36551138367574],[4.91862416267395,52.365521210569064],[4.91862416267395,52.3655310374602],[4.918597340583801,52.36554413997832],[4.918570518493652,52.365534313090095],[4.918565154075623,52.365521210569064],[4.918575882911682,52.36551138367574]]]]}},{"type":"Feature","properties":{"mvt_id":180963123,"intermittent":0,"class":"pond","id":18096312},"geometry":{"type":"MultiPolygon","coordinates":[[[[4.914713501930237,52.366657839815616],[4.91463840007782,52.366556297758386],[4.9145472049713135,52.366471133272356],[4.914450645446777,52.36641544871195],[4.914364814758301,52.36639907088671],[4.9142467975616455,52.3663925197549],[4.914203882217407,52.366379417488396],[4.914187788963318,52.366369590785965],[4.914150238037109,52.36632373281239],[4.914150238037109,52.366300803807746],[4.914177060127258,52.36628115036572],[4.914230704307556,52.3662483946096],[4.914252161979675,52.3662221899872],[4.914262890815735,52.36619926092986],[4.914214611053467,52.3661173713422],[4.914177060127258,52.366100993406455],[4.914101958274841,52.36609771781857],[4.914069771766663,52.36608789105348],[4.914042949676514,52.366068237516735],[4.914042949676514,52.36601910363664],[4.914069771766663,52.36596996970188],[4.914053678512573,52.36594376491434],[4.914032220840454,52.36593066251474],[4.913957118988037,52.36591756011126],[4.9138712882995605,52.36592411131348],[4.913844466209412,52.36593066251474],[4.913780093193054,52.365966694104294],[4.913753271102905,52.366022379230344],[4.913753271102905,52.36606168633588],[4.913769364356995,52.3661239225148],[4.913908839225769,52.366271323641435],[4.9139732122421265,52.36630735495314],[4.914085865020752,52.36634011066556],[4.91413950920105,52.366389244188646],[4.914160966873169,52.36642199984035],[4.914150238037109,52.366471133272356],[4.914160966873169,52.36653009331863],[4.914230704307556,52.36664146208024],[4.914284348487854,52.36669714635575],[4.914359450340271,52.36673972840144],[4.914429187774658,52.36676920825517],[4.914482831954956,52.36677575933111],[4.914579391479492,52.36677575933111],[4.914606213569641,52.36678231040607],[4.91463303565979,52.3667921370167],[4.914659857749939,52.36681179023139],[4.914692044258118,52.3668478211023],[4.914681315422058,52.36687730088391],[4.914611577987671,52.366900229589326],[4.914579391479492,52.36692315828285],[4.9145954847335815,52.36697556668051],[4.914579391479492,52.36700504637687],[4.914525747299194,52.36702469949684],[4.914423823356628,52.36701159741783],[4.9143970012664795,52.36701814845782],[4.914343357086182,52.36704435260807],[4.914327263832092,52.367057454677365],[4.914327263832092,52.36707383225853],[4.914343357086182,52.36709020983361],[4.91437554359436,52.36709348534791],[4.914429187774658,52.36709020983361],[4.914482831954956,52.36707710777403],[4.9145472049713135,52.36708365880431],[4.914584755897522,52.36710003637576],[4.914713501930237,52.367208128195],[4.914777874946594,52.36722778122462],[4.914810061454773,52.36722778122462],[4.915019273757935,52.36715899558267],[4.915051460266113,52.367142618033085],[4.915067553520203,52.36712624047743],[4.915056824684143,52.367103311889316],[4.914992451667786,52.36704762812576],[4.914981722831726,52.367027975015986],[4.914976358413696,52.36696246458692],[4.914992451667786,52.36694281143926],[4.915003180503845,52.36692315828285],[4.914992451667786,52.3668871274734],[4.914928078651428,52.36684454556979],[4.91487443447113,52.36682489236968],[4.914831519126892,52.36681834130102],[4.9147725105285645,52.366821616835466],[4.914724230766296,52.36677248379326],[4.914724230766296,52.36669059526816],[4.914713501930237,52.366657839815616]],[[4.914354085922241,52.36662180878976],[4.914300441741943,52.3665464710953],[4.914289712905884,52.36649406218859],[4.914327263832092,52.366474408832545],[4.91437554359436,52.3664809599522],[4.914423823356628,52.366507164421094],[4.914466738700867,52.36654319554045],[4.914525747299194,52.366618533240505],[4.9145472049713135,52.36666766645393],[4.914536476135254,52.36669714635575],[4.914498925209045,52.36670697298532],[4.914477467536926,52.36670697298532],[4.914429187774658,52.366687319723994],[4.914354085922241,52.36662180878976]],[[4.91487443447113,52.367136067011565],[4.914836883544922,52.367142618033085],[4.914777874946594,52.36712951598905],[4.914740324020386,52.36708038328929],[4.9147456884384155,52.36704762812576],[4.914756417274475,52.36703452605356],[4.914810061454773,52.36702469949684],[4.914836883544922,52.367027975015986],[4.9148476123809814,52.36703452605356],[4.914858341217041,52.36709020983361],[4.91487979888916,52.367113138428536],[4.91487443447113,52.367136067011565]],[[4.9148476123809814,52.36700504637687],[4.914799332618713,52.36700177085602],[4.914788603782654,52.366995219813596],[4.914777874946594,52.36698211772584],[4.914783239364624,52.36696246458692],[4.914810061454773,52.366946086964475],[4.914831519126892,52.366946086964475],[4.914863705635071,52.36696574011068],[4.914869070053101,52.36698211772584],[4.914863705635071,52.366995219813596],[4.9148476123809814,52.36700504637687]]]]}},{"type":"Feature","properties":{"mvt_id":187098833,"intermittent":0,"class":"lake","id":18709883},"geometry":{"type":"MultiPolygon","coordinates":[[[[4.919058680534363,52.36645803102916],[4.919101595878601,52.36640889758258],[4.919112324714661,52.36639907088671],[4.91913914680481,52.36638596862214],[4.919182062149048,52.3663826930554],[4.9192410707473755,52.3663630396498],[4.919278621673584,52.366327008383514],[4.919278621673584,52.366304079380576],[4.919262528419495,52.36626804806618],[4.9191659688949585,52.36618615860604],[4.919149875640869,52.36616650511301],[4.9191659688949585,52.36614030044204],[4.919208884239197,52.366127198100735],[4.919450283050537,52.36608789105348],[4.919423460960388,52.366055135154056],[4.919359087944031,52.36606168633588],[4.919332265853882,52.36605185956278],[4.919294714927673,52.36600600125938],[4.918447136878967,52.36629752823468],[4.918447136878967,52.36634666180513],[4.918457865715027,52.36635321294373],[4.918559789657593,52.36637286635369],[4.91862416267395,52.36639907088671],[4.9186670780181885,52.36643510209422],[4.918677806854248,52.366477684392486],[4.91862416267395,52.3665497466499],[4.918565154075623,52.36658250218259],[4.918447136878967,52.366618533240505],[4.918270111083984,52.366657839815616],[4.918259382247925,52.36668076863494],[4.9182915687561035,52.36669387081208],[4.918313026428223,52.366713524070484],[4.918313026428223,52.36672990177915],[4.918302297592163,52.366743003941714],[4.9182432889938354,52.3667921370167],[4.9180662631988525,52.36689040300275],[4.917948246002197,52.366929709335956],[4.917781949043274,52.366972291157474],[4.917696118354797,52.366988668770205],[4.917583465576172,52.36699194429202],[4.917578101158142,52.36701487293795],[4.9175941944122314,52.36702469949684],[4.9175941944122314,52.36704435260807],[4.9175673723220825,52.367067281226795],[4.917513728141785,52.36708038328929],[4.917433261871338,52.36707383225853],[4.91738498210907,52.367057454677365],[4.91737425327301,52.36703452605356],[4.91737961769104,52.36701159741783],[4.917411804199219,52.366995219813596],[4.9174171686172485,52.36698539324815],[4.9173903465271,52.36696574011068],[4.917347431182861,52.36695263801419],[4.917304515838623,52.366929709335956],[4.917272329330444,52.366903505117705],[4.917250871658325,52.36687074982302],[4.917256236076355,52.36684454556979],[4.917272329330444,52.366828167903634],[4.9173420667648315,52.36680196362515],[4.917309880256653,52.3667921370167],[4.917309880256653,52.36678231040607],[4.917240142822266,52.366762657178256],[4.917207956314087,52.36681506576633],[4.917181134223938,52.366880576413976],[4.917181134223938,52.366916607228774],[4.917202591896057,52.36696246458692],[4.917352795600891,52.36709348534791],[4.917406439781189,52.367149169053654],[4.918007254600525,52.36694936248946],[4.918334484100342,52.366834718970814],[4.918452501296997,52.36670042189918],[4.918500781059265,52.366657839815616],[4.918570518493652,52.366615257690995],[4.918693900108337,52.366556297758386],[4.918828010559082,52.366503888863335],[4.918897747993469,52.36648751107088],[4.919058680534363,52.36645803102916]],[[4.9190908670425415,52.36634993737456],[4.919047951698303,52.36641544871195],[4.919021129608154,52.36642199984035],[4.91887629032135,52.36644492878208],[4.918811917304993,52.3664416532197],[4.918785095214844,52.36643182653112],[4.918736815452576,52.36637286635369],[4.9186670780181885,52.36632045724103],[4.918650984764099,52.366294252661376],[4.918650984764099,52.36628115036572],[4.918699264526367,52.3662483946096],[4.918844103813171,52.36621563882918],[4.918897747993469,52.36620908767017],[4.918962121009827,52.3662123632498],[4.919010400772095,52.36622546556585],[4.919074773788452,52.366274599216446],[4.919096231460571,52.36631063052548],[4.9190908670425415,52.36634993737456]]]]}},{"type":"Feature","properties":{"mvt_id":192919263,"intermittent":0,"class":"lake","id":19291926},"geometry":{"type":"MultiPolygon","coordinates":[[[[4.9202656745910645,52.36545242226986],[4.920335412025452,52.36542621717533],[4.920153021812439,52.36522967847086],[4.92012619972229,52.365206748898395],[4.920045733451843,52.36519037062506],[4.920008182525635,52.365193646280204],[4.919922351837158,52.365216575859485],[4.919986724853516,52.36528208887755],[4.9200135469436646,52.36529191582188],[4.920142292976379,52.365305018410915],[4.920185208320618,52.365357428728224],[4.9201905727386475,52.36537708258118],[4.9202656745910645,52.36545242226986]],[[4.920099377632141,52.365246056729625],[4.920067191123962,52.365246056729625],[4.920056462287903,52.365242781078365],[4.920045733451843,52.36522640281839],[4.920061826705933,52.365216575859485],[4.920083284378052,52.365216575859485],[4.920104742050171,52.36522967847086],[4.920104742050171,52.36523950542685],[4.920099377632141,52.365246056729625]]]]}},{"type":"Feature","properties":{"mvt_id":192919273,"intermittent":0,"class":"lake","id":19291927},"geometry":{"type":"MultiPolygon","coordinates":[[[[4.91838276386261,52.36483987412029],[4.918420314788818,52.36483659843891],[4.918532967567444,52.36479401455881],[4.918565154075623,52.36475798201283],[4.918559789657593,52.364725225127344],[4.918549060821533,52.36470884667549],[4.918532967567444,52.364695743909635],[4.918495416641235,52.364685916832705],[4.918425679206848,52.364685916832705],[4.918361306190491,52.364699019601474],[4.9182915687561035,52.36473177650639],[4.918248653411865,52.36475798201283],[4.9182164669036865,52.36476453338702],[4.918184280395508,52.36476125770005],[4.918162822723389,52.36476453338702],[4.918152093887329,52.36479729024336],[4.91813600063324,52.36482022002835],[4.918076992034912,52.364859528203496],[4.9180179834365845,52.364882457956185],[4.917980432510376,52.364882457956185],[4.917975068092346,52.36487590659949],[4.917985796928406,52.36481366866242],[4.917975068092346,52.36480384161171],[4.9179428815841675,52.36480711729552],[4.917921423912048,52.36482022002835],[4.917937517166138,52.36487263092078],[4.917953610420227,52.364882457956185],[4.9179911613464355,52.3648922849894],[4.918039441108704,52.3648890093119],[4.918071627616882,52.36487918227795],[4.918178915977478,52.364810392979095],[4.918270111083984,52.36478418750374],[4.918323755264282,52.364777636132466],[4.918355941772461,52.36478418750374],[4.9183666706085205,52.36479729024336],[4.918355941772461,52.364810392979095],[4.918355941772461,52.364826771393304],[4.91838276386261,52.36483987412029]],[[4.918532967567444,52.36476453338702],[4.918479323387146,52.36479729024336],[4.918447136878967,52.364810392979095],[4.918420314788818,52.364810392979095],[4.918414950370789,52.36479729024336],[4.918431043624878,52.36478418750374],[4.918431043624878,52.36477108476023],[4.918409585952759,52.36476780907374],[4.91838276386261,52.36477108476023],[4.9183666706085205,52.36475470632538],[4.9183666706085205,52.36474160357313],[4.91838276386261,52.36472850081699],[4.918404221534729,52.36471867374733],[4.918447136878967,52.3647055709844],[4.9185168743133545,52.3647055709844],[4.918543696403503,52.364725225127344],[4.918543696403503,52.364751430637675],[4.918532967567444,52.36476453338702]]]]}},{"type":"Feature","properties":{"mvt_id":265252602,"intermittent":0,"class":"lake","id":26525260},"geometry":{"type":"MultiPolygon","coordinates":[[[[4.913265109062195,52.36712624047743],[4.913554787635803,52.367430862018836],[4.913763999938965,52.367355525704106],[4.913737177848816,52.36732932173843],[4.913565516471863,52.36739810711517],[4.913367033004761,52.367181924141896],[4.913409948348999,52.367165546600816],[4.913426041603088,52.367136067011565],[4.9133992195129395,52.367106587402624],[4.913737177848816,52.366988668770205],[4.913806915283203,52.367057454677365],[4.913844466209412,52.36704435260807],[4.913753271102905,52.36694936248946],[4.913265109062195,52.36712624047743]]]]}},{"type":"Feature","properties":{"mvt_id":266124102,"intermittent":0,"class":"lake","id":26612410},"geometry":{"type":"MultiPolygon","coordinates":[[[[4.91437554359436,52.36593721371503],[4.914439916610718,52.365933938115006],[4.914493560791016,52.36593721371503],[4.9145203828811646,52.36592411131348],[4.914536476135254,52.365891355292625],[4.914536476135254,52.36586842606357],[4.914515018463135,52.36584222121579],[4.914413094520569,52.36580946513421],[4.914354085922241,52.36579636269478],[4.914300441741943,52.36579308708432],[4.914209246635437,52.36581274074346],[4.914198517799377,52.365819291961245],[4.914182424545288,52.365858599247474],[4.914203882217407,52.365894630895795],[4.914268255233765,52.36591756011126],[4.91437554359436,52.36593721371503]]]]}},{"type":"Feature","properties":{"mvt_id":266130202,"intermittent":0,"class":"lake","id":26613020},"geometry":{"type":"MultiPolygon","coordinates":[[[[4.91513192653656,52.36665128872219],[4.915099740028381,52.36664146208024],[4.915067553520203,52.36665128872219],[4.915067553520203,52.36667421754492],[4.915099740028381,52.366684044179586],[4.915099740028381,52.36670697298532],[4.915067553520203,52.36672007515468],[4.915067553520203,52.36673972840144],[4.915099740028381,52.36674955502153],[4.915099740028381,52.36677248379326],[4.9151211977005005,52.36678231040607],[4.9151211977005005,52.36680196362515],[4.915148019790649,52.36681506576633],[4.91514265537262,52.36683799450406],[4.915190935134888,52.36687402535358],[4.915212392807007,52.366900229589326],[4.9152714014053345,52.36692643380953],[4.915303587913513,52.36691333170137],[4.915341138839722,52.36692315828285],[4.9153733253479,52.36691333170137],[4.9153947830200195,52.36692315828285],[4.915437698364258,52.36691333170137],[4.915459156036377,52.36692315828285],[4.915732741355896,52.36683144343735],[4.915732741355896,52.36681179023139],[4.915700554847717,52.36679868808923],[4.915700554847717,52.36677575933111],[4.915732741355896,52.36676593271684],[4.915732741355896,52.366743003941714],[4.9157702922821045,52.36673317732016],[4.915764927864075,52.366713524070484],[4.915797114372253,52.36670042189918],[4.915797114372253,52.36668076863494],[4.915823936462402,52.366670941999544],[4.915834665298462,52.366648013175116],[4.915759563446045,52.36659887993983],[4.915764927864075,52.36658577773452],[4.915705919265747,52.36654319554045],[4.9156951904296875,52.36658577773452],[4.915711283683777,52.36659887993983],[4.915711283683777,52.36662180878976],[4.915722012519836,52.366628359887564],[4.915738105773926,52.366628359887564],[4.915743470191956,52.366644737627794],[4.915738105773926,52.36667749309006],[4.915700554847717,52.36669714635575],[4.915700554847717,52.36672990177915],[4.915668368339539,52.366743003941714],[4.915663003921509,52.36676593271684],[4.91563618183136,52.36677903486872],[4.91563618183136,52.36683144343735],[4.915561079978943,52.36685437216658],[4.915528893470764,52.36684454556979],[4.915400147438049,52.36689040300275],[4.915217757225037,52.366828167903634],[4.9151962995529175,52.36679868808923],[4.9151962995529175,52.36677903486872],[4.915164113044739,52.36676920825517],[4.915164113044739,52.36672990177915],[4.915190935134888,52.36672990177915],[4.915190935134888,52.36669387081208],[4.915233850479126,52.36667749309006],[4.915223121643066,52.36663491098438],[4.915308952331543,52.36660870659126],[4.915330410003662,52.366618533240505],[4.915459156036377,52.36657922663042],[4.915432333946228,52.36656939997243],[4.915432333946228,52.3665497466499],[4.915405511856079,52.36653664443003],[4.915164113044739,52.36662180878976],[4.915158748626709,52.36664146208024],[4.91513192653656,52.36665128872219]]]]}},{"type":"Feature","properties":{"mvt_id":677165092,"intermittent":0,"class":"lake","id":67716509},"geometry":{"type":"MultiPolygon","coordinates":[[[[4.900985956192017,52.364450066330384],[4.9010396003723145,52.36444679062011],[4.901071786880493,52.36443041206503],[4.901184439659119,52.364453342040434],[4.901275634765625,52.36427972907347],[4.901168346405029,52.364260074732336],[4.90115761756897,52.364220766023834],[4.901120066642761,52.36420111165646],[4.89990234375,52.36398135587222],[4.89990234375,52.36424359758998],[4.900985956192017,52.364450066330384]]]]}},{"type":"Feature","properties":{"mvt_id":677165482,"intermittent":0,"class":"lake","id":67716548},"geometry":{"type":"MultiPolygon","coordinates":[[[[4.913839101791382,52.36360164925163],[4.910888671875,52.363018557797666],[4.910861849784851,52.36301528198125],[4.910813570022583,52.363025109429785],[4.910786747932434,52.36306114338907],[4.9105775356292725,52.36302183361384],[4.910588264465332,52.36297924798456],[4.910572171211243,52.3629595930649],[4.910556077957153,52.36295304142306],[4.906581304411361,52.362183216744256],[4.90554678787305,52.362183216744256],[4.910459518432617,52.36312338379496],[4.9105024337768555,52.36312338379496],[4.910523891448975,52.36311683217741],[4.910539984703064,52.36310372893941],[4.9105507135391235,52.363077522451746],[4.910765290260315,52.363120107986305],[4.910749197006226,52.363156141868096],[4.910765290260315,52.36317579670033],[4.910786747932434,52.36318234830913],[4.913817644119263,52.36375888607916],[4.91388738155365,52.36361147656975],[4.913839101791382,52.36360164925163]]],[[[4.904574751853943,52.362625458092786],[4.904478192329407,52.36279907756035],[4.9044352769851685,52.36290062825343],[4.904488921165466,52.36291700737562],[4.904462099075317,52.362992351259486],[4.904601573944092,52.363018557797666],[4.90464448928833,52.36293993813649],[4.904687404632568,52.36293993813649],[4.9047088623046875,52.362930110669005],[4.905085573196402,52.362183216744256],[4.904785824181431,52.362183216744256],[4.904574751853943,52.362625458092786]]]]}},{"type":"Feature","properties":{"mvt_id":677166432,"intermittent":0,"class":"lake","id":67716643},"geometry":{"type":"MultiPolygon","coordinates":[[[[4.902042746543884,52.36587497727308],[4.90190327167511,52.365848772429196],[4.901854991912842,52.36594376491434],[4.901994466781616,52.36596996970188],[4.902042746543884,52.36587497727308]]]]}},{"type":"Feature","properties":{"mvt_id":677166632,"intermittent":0,"class":"lake","id":67716663},"geometry":{"type":"MultiPolygon","coordinates":[[[[4.900379776954651,52.36573412605441],[4.9004065990448,52.36572429920845],[4.90041196346283,52.36571447236029],[4.900524616241455,52.36573412605441],[4.900540709495544,52.36569481865743],[4.900433421134949,52.36567516494582],[4.9004387855529785,52.365662062466555],[4.900551438331604,52.365684991802716],[4.900578260421753,52.36562603062855],[4.900470972061157,52.36560310126178],[4.900476336479187,52.36558999876115],[4.900583624839783,52.36561292813471],[4.900605082511902,52.365573620629895],[4.900497794151306,52.36555396686437],[4.900497794151306,52.36554413997832],[4.900487065315247,52.36552776183006],[4.89990234375,52.36541631452357],[4.89990234375,52.365644571078874],[4.900379776954651,52.36573412605441]]]]}},{"type":"Feature","properties":{"mvt_id":677166842,"intermittent":0,"class":"lake","id":67716684},"geometry":{"type":"MultiPolygon","coordinates":[[[[4.903426766395569,52.36281545672018],[4.903416037559509,52.36280235339279],[4.903298020362854,52.363028385245485],[4.903319478034973,52.363025109429785],[4.9033355712890625,52.36300873034767],[4.903507232666016,52.36304148850583],[4.903507232666016,52.36305459176229],[4.903528690338135,52.36306441920208],[4.906275272369385,52.36356233995731],[4.906286001205444,52.36353940951948],[4.906833171844482,52.363640958510985],[4.906822443008423,52.36365733735872],[4.909864068031311,52.36422731747768],[4.909960627555847,52.36418473301032],[4.910116195678711,52.36421421456901],[4.910164475440979,52.36427972907347],[4.910722374916077,52.36438127636338],[4.910743832588196,52.36437144921649],[4.910770654678345,52.364319037729516],[4.911012053489685,52.36436162206742],[4.911038875579834,52.36429283196271],[4.910797476768494,52.36424697183339],[4.910802841186523,52.36418800874003],[4.910797476768494,52.36417490581971],[4.910781383514404,52.36416835435809],[4.906940460205078,52.36345751500149],[4.9069297313690186,52.36347389391723],[4.90638792514801,52.363375620331695],[4.90639328956604,52.36335924137953],[4.904612302780151,52.36303493687613],[4.904601573944092,52.363018557797666],[4.904462099075317,52.362992351259486],[4.904429912567139,52.363018557797666],[4.904365539550781,52.362998902895484],[4.9036359786987305,52.36285149085044],[4.903614521026611,52.36285476667901],[4.903598427772522,52.36286459416325],[4.903426766395569,52.36283183587393],[4.903426766395569,52.36281545672018]]]]}},{"type":"Feature","properties":{"mvt_id":677166872,"intermittent":0,"class":"lake","id":67716687},"geometry":{"type":"MultiPolygon","coordinates":[[[[4.921601414680481,52.36576688219185],[4.9213385581970215,52.36577343341643],[4.921301007270813,52.36582584317804],[4.921579957008362,52.36582256756976],[4.921601414680481,52.36576688219185]]]]}},{"type":"Feature","properties":{"mvt_id":677167302,"intermittent":0,"class":"lake","id":67716730},"geometry":{"type":"MultiPolygon","coordinates":[[[[4.902026653289795,52.36257632038376],[4.901999831199646,52.36255994113529],[4.8999804558513915,52.362183216744256],[4.89990234375,52.362183216744256],[4.89990234375,52.36239670687366],[4.9018871784210205,52.362759767551964],[4.901940822601318,52.3627499400444],[4.902048110961914,52.362769595057344],[4.902133941650391,52.36259269962618],[4.902026653289795,52.36257632038376]]]]}},{"type":"Feature","properties":{"mvt_id":677167422,"intermittent":0,"class":"lake","id":67716742},"geometry":{"type":"MultiPolygon","coordinates":[[[[4.905025362968445,52.366448204344216],[4.904601573944092,52.366369590785965],[4.904553294181824,52.36645803102916],[4.904977083206177,52.36653664443003],[4.905025362968445,52.366448204344216]]]]}},{"type":"Feature","properties":{"mvt_id":677167712,"intermittent":0,"class":"river","id":67716771},"geometry":{"type":"MultiPolygon","coordinates":[[[[4.902048110961914,52.36586842606357],[4.901989102363586,52.365976520896346],[4.901994466781616,52.3659863476862],[4.901838898658752,52.365956867310054],[4.901790618896484,52.3659863476862],[4.902579188346863,52.36614030044204],[4.904456734657288,52.36649733774708],[4.9044835567474365,52.3664809599522],[4.904478192329407,52.3664416532197],[4.904553294181824,52.36645803102916],[4.904601573944092,52.366369590785965],[4.904521107673645,52.36635321294373],[4.9045586585998535,52.36632045724103],[4.904537200927734,52.36629097708783],[4.904322624206543,52.36625494576276],[4.9018871784210205,52.36579636269478],[4.90190327167511,52.36583239439387],[4.902058839797974,52.36586187485308],[4.902048110961914,52.36586842606357]]]]}},{"type":"Feature","properties":{"mvt_id":677167792,"intermittent":0,"class":"lake","id":67716779},"geometry":{"type":"MultiPolygon","coordinates":[[[[4.918688535690308,52.364020946214865],[4.918661713600159,52.364070082317255],[4.919300079345703,52.36432886488806],[4.920287132263184,52.36476453338702],[4.920437335968018,52.36489556066666],[4.920941591262817,52.365187094969656],[4.921081066131592,52.365288640174015],[4.921193718910217,52.36538035822249],[4.921343922615051,52.36557689625663],[4.9213868379592896,52.36572102359264],[4.9213385581970215,52.36577343341643],[4.921601414680481,52.36576688219185],[4.921681880950928,52.365747228512305],[4.921789169311523,52.36567188932637],[4.921853542327881,52.36560965251064],[4.921875,52.365568707189325],[4.921875,52.36551416299932],[4.9211883544921875,52.36507899820532],[4.920791387557983,52.36483659843891],[4.9203139543533325,52.36456799173892],[4.9192410707473755,52.364102839688485],[4.918801188468933,52.36391939809674],[4.918763637542725,52.363945604085046],[4.918500781059265,52.36385388305796],[4.918538331985474,52.36380147095699],[4.916682243347168,52.36328389812132],[4.916489124298096,52.36323476114457],[4.916338920593262,52.36321183053672],[4.916226267814636,52.363205278932284],[4.9161189794540405,52.363215106338565],[4.915952682495117,52.36324131274463],[4.915861487388611,52.36326424333717],[4.915008544921875,52.36355906418122],[4.915035367012024,52.363588546157416],[4.914482831954956,52.36377854064326],[4.914429187774658,52.363716301160295],[4.91388738155365,52.36361147656975],[4.913817644119263,52.36375888607916],[4.9140214920043945,52.36379491943999],[4.914053678512573,52.36381457398806],[4.914069771766663,52.36383422852738],[4.914075136184692,52.3638571588122],[4.914064407348633,52.36387681333258],[4.914037585258484,52.36389319209288],[4.912401437759399,52.36445989345979],[4.912315607070923,52.36445989345979],[4.911178350448608,52.36423714465663],[4.911119341850281,52.36424042038245],[4.911087155342102,52.36425024755849],[4.911065697669983,52.364260074732336],[4.911044239997864,52.36429283196271],[4.911038875579834,52.36429283196271],[4.910985231399536,52.364456617750236],[4.910990595817566,52.3644828234199],[4.9110013246536255,52.364509029074],[4.911237359046936,52.36477436044647],[4.911285638809204,52.36480384161171],[4.911242723464966,52.364866079562624],[4.91114616394043,52.36488573363416],[4.910765290260315,52.36500693354883],[4.9107277393341064,52.36502331189017],[4.910711646080017,52.36504296589177],[4.910711646080017,52.3651117548285],[4.910470247268677,52.365196921935116],[4.910405874252319,52.36516416537508],[4.910373687744141,52.36516088971774],[4.910325407981873,52.36517071668903],[4.908818006515503,52.365684991802716],[4.905937314033508,52.36513468445028],[4.90590512752533,52.36518381931401],[4.905374050140381,52.36507899820532],[4.90540623664856,52.36503313889206],[4.902745485305786,52.364525407599935],[4.902713298797607,52.36455161322879],[4.902600646018982,52.364531959008595],[4.902595281600952,52.364492650542005],[4.902552366256714,52.36447954771203],[4.902423620223999,52.36472850081699],[4.902482628822327,52.36473505219554],[4.902514815330505,52.36470884667549],[4.902627468109131,52.36472850081699],[4.902627468109131,52.36476780907374],[4.905256032943726,52.36525915933227],[4.9052828550338745,52.36521330020602],[4.905813932418823,52.36531812099607],[4.9057817459106445,52.36536725565579],[4.908099174499512,52.365799638305],[4.908244013786316,52.36582584317804],[4.908260107040405,52.36580946513421],[4.90865170955658,52.36588480408553],[4.908780455589294,52.36590118210143],[4.908936023712158,52.365897906498745],[4.909188151359558,52.365855323641625],[4.909322261810303,52.36581274074346],[4.910598993301392,52.36537380693964],[4.910615086555481,52.365360704370985],[4.910620450973511,52.36534432615473],[4.910609722137451,52.36532139664175],[4.910818934440613,52.36525260803144],[4.910845756530762,52.36527226193103],[4.910872578620911,52.36527553758011],[4.91089940071106,52.36527226193103],[4.912170767784119,52.36483987412029],[4.912176132202148,52.364846425482334],[4.913662075996399,52.36433541632587],[4.914166331291199,52.36415525143194],[4.9156254529953,52.36365078582034],[4.916011691093445,52.36350992751049],[4.916253089904785,52.36346734235167],[4.91639256477356,52.36346406656851],[4.916510581970215,52.36347716969966],[4.916671514511108,52.3635066517305],[4.916676878929138,52.363500100169794],[4.917213320732117,52.36365078582034],[4.91788387298584,52.3638571588122],[4.91837203502655,52.36398163729359],[4.918420314788818,52.36392922534418],[4.918688535690308,52.364020946214865]]]]}},{"type":"Feature","properties":{"mvt_id":740792342,"intermittent":0,"class":"river","id":74079234},"geometry":{"type":"MultiPolygon","coordinates":[[[[4.90414559841156,52.37089946884622],[4.9041348695755005,52.37087326698278],[4.9023109674453735,52.37010030501876],[4.9028366804122925,52.36973347087924],[4.90290641784668,52.369648312518294],[4.902799129486084,52.369566429324095],[4.901806712150574,52.369966017874745],[4.901753067970276,52.36993326485086],[4.901715517044067,52.36994964136584],[4.9016886949539185,52.36994636606333],[4.901624321937561,52.36990706241426],[4.901602864265442,52.36994964136584],[4.901533126831055,52.369959467271904],[4.901597499847412,52.36999877087435],[4.901602864265442,52.37001842266245],[4.901280999183655,52.3704573103187],[4.901286363601685,52.37047696190279],[4.901361465454102,52.37049661347815],[4.90140438079834,52.37048351242888],[4.901543855667114,52.37030992315927],[4.901608228683472,52.370296822054634],[4.903737902641296,52.37123026603536],[4.903780817985535,52.371223715620005],[4.90388810634613,52.3712662933024],[4.903882741928101,52.371272843711424],[4.90389347076416,52.371299045337835],[4.90465521812439,52.37162656435655],[4.9051594734191895,52.3718263497654],[4.905545711517334,52.37198355732066],[4.905669093132019,52.37196718155977],[4.905744194984436,52.37199665792501],[4.905760288238525,52.372068711179466],[4.905679821968079,52.37209818747695],[4.905728101730347,52.37214731459572],[4.906205534934998,52.372356923021854],[4.906414747238159,52.37236019814562],[4.90738570690155,52.3727761368899],[4.907498359680176,52.37271391008283],[4.907492995262146,52.372704084789504],[4.907509088516235,52.37268115909654],[4.907525181770325,52.372671333795914],[4.907557368278503,52.372677883996566],[4.90788996219635,52.37284163869736],[4.9079811573028564,52.372789237259155],[4.90764319896698,52.37262548236409],[4.90763783454895,52.37260583173589],[4.90764856338501,52.37259600641851],[4.907691478729248,52.37258618109894],[4.907712936401367,52.3725894562057],[4.907847046852112,52.37249120289709],[4.907015562057495,52.37208836204663],[4.906978011131287,52.3720719863246],[4.9069297313690186,52.37202285912205],[4.9069297313690186,52.37199338277429],[4.906940460205078,52.37196718155977],[4.907015562057495,52.37191150392729],[4.907476902008057,52.37162001399997],[4.90738570690155,52.37157743665856],[4.907369613647461,52.371580711840124],[4.907364249229431,52.3715708862947],[4.907369613647461,52.3715610607471],[4.907267689704895,52.371511932976254],[4.9072301387786865,52.37154140964532],[4.9071818590164185,52.37152175853479],[4.907208681106567,52.3714955570405],[4.90713894367218,52.37146280515077],[4.907112121582031,52.371459529960454],[4.907090663909912,52.37146280515077],[4.9064040184021,52.37181324911054],[4.906371831893921,52.37180342361684],[4.904290437698364,52.37093877161223],[4.904247522354126,52.37094204684116],[4.904247522354126,52.37094859729828],[4.90414023399353,52.37090274407806],[4.90414559841156,52.37089946884622]]]]}},{"type":"Feature","properties":{"mvt_id":740793732,"intermittent":0,"class":"lake","id":74079373},"geometry":{"type":"MultiPolygon","coordinates":[[[[4.904327988624573,52.37164949059691],[4.902949333190918,52.37242570056993],[4.903002977371216,52.372481377554216],[4.903040528297424,52.37247810243943],[4.903324842453003,52.37232744689704],[4.904440641403198,52.37170189338733],[4.9043869972229,52.37163311471215],[4.904370903968811,52.37162983953447],[4.904327988624573,52.37164949059691]]]]}},{"type":"Feature","properties":{"mvt_id":740795582,"intermittent":0,"class":"lake","id":74079558},"geometry":{"type":"MultiPolygon","coordinates":[[[[4.921708703041077,52.37267460889637],[4.921542406082153,52.37277941198258],[4.921558499336243,52.37279251235087],[4.921547770500183,52.37280888780577],[4.9215638637542725,52.37282198816531],[4.921875,52.373015056948034],[4.921875,52.372778274318826],[4.921708703041077,52.37267460889637]]]]}},{"type":"Feature","properties":{"mvt_id":740796242,"intermittent":0,"class":"lake","id":74079624},"geometry":{"type":"MultiPolygon","coordinates":[[[[4.904585480690002,52.37159708774432],[4.904494285583496,52.37155778556407],[4.904494285583496,52.37156761111241],[4.9043869972229,52.37163311471215],[4.904440641403198,52.37170189338733],[4.904472827911377,52.37167569199988],[4.904472827911377,52.371665866475595],[4.904456734657288,52.371665866475595],[4.904574751853943,52.37159708774432],[4.904585480690002,52.37159708774432]]]]}},{"type":"Feature","properties":{"mvt_id":740797352,"intermittent":0,"class":"lake","id":74079735},"geometry":{"type":"MultiPolygon","coordinates":[[[[4.902793765068054,52.3723765737608],[4.9026113748550415,52.37203268456693],[4.9024879932403564,52.37208508690272],[4.9026864767074585,52.37245190151245],[4.902793765068054,52.3723765737608]]]]}},{"type":"Feature","properties":{"mvt_id":740800232,"intermittent":0,"class":"lake","id":74080023},"geometry":{"type":"MultiPolygon","coordinates":[[[[4.918645620346069,52.36745379043694],[4.918844103813171,52.36738172965423],[4.918806552886963,52.3673456992188],[4.918613433837891,52.367417760060285],[4.918645620346069,52.36745379043694]]]]}},{"type":"Feature","properties":{"mvt_id":740801472,"intermittent":0,"class":"river","id":74080147},"geometry":{"type":"MultiPolygon","coordinates":[[[[4.9013131856918335,52.37056211866619],[4.9012380838394165,52.37054246711998],[4.901221990585327,52.37055229289418],[4.9011147022247314,52.37057521969215],[4.901071786880493,52.37067675251152],[4.9010396003723145,52.37084051463161],[4.901431202888489,52.37092894592401],[4.901549220085144,52.370997725695695],[4.901576042175293,52.371001000920245],[4.9016135931015015,52.37095514775442],[4.901608228683472,52.37094532206984],[4.901232719421387,52.37074880791917],[4.901227355003357,52.37072915645601],[4.901323914527893,52.370588320714205],[4.901323914527893,52.37057521969215],[4.9013131856918335,52.37056211866619]]]]}},{"type":"Feature","properties":{"mvt_id":740802292,"intermittent":0,"class":"lake","id":74080229},"geometry":{"type":"MultiPolygon","coordinates":[[[[4.9002134799957275,52.375337185205005],[4.900197386741638,52.37532736049524],[4.900170564651489,52.37532736049524],[4.90014374256134,52.37530443616395],[4.90014910697937,52.37528806163433],[4.89990234375,52.37505388898397],[4.89990234375,52.37540432066322],[4.899929165840149,52.37542888239073],[4.899918437004089,52.37544525686815],[4.899929165840149,52.37545508155168],[4.900109879672527,52.3755991766591],[4.90051189835151,52.3755991766591],[4.900723099708557,52.375360109519285],[4.900749921798706,52.37530443616395],[4.900755286216736,52.37517671467184],[4.900749921798706,52.375143965511796],[4.9006640911102295,52.37515379026236],[4.9006640911102295,52.37518326450093],[4.9006587266922,52.37524221291907],[4.90064799785614,52.37524548782887],[4.9006587266922,52.37525531255686],[4.9005889892578125,52.37535683461797],[4.900546073913574,52.37540268321424],[4.900374412536621,52.37549110537262],[4.9002134799957275,52.375337185205005]]]]}},{"type":"Feature","properties":{"mvt_id":740802742,"intermittent":0,"class":"river","id":74080274},"geometry":{"type":"MultiPolygon","coordinates":[[[[4.900025725364685,52.36929130067978],[4.900068640708923,52.36927164856818],[4.900122284889221,52.36931750348164],[4.900133013725281,52.369340430920516],[4.900122284889221,52.36935680765528],[4.9000900983810425,52.36937318438399],[4.900116920471191,52.36939611179396],[4.900175929069519,52.369441966578215],[4.900208115577698,52.369448517257794],[4.900465607643127,52.36932405417968],[4.9005138874053955,52.36932405417968],[4.9009108543396,52.36957953064537],[4.900921583175659,52.369572979985215],[4.900959134101868,52.369572979985215],[4.901533126831055,52.369959467271904],[4.901602864265442,52.36994964136584],[4.901624321937561,52.36990706241426],[4.901002049446106,52.36948782131487],[4.900433421134949,52.368963764345054],[4.900310039520264,52.368944112087746],[4.89990234375,52.36856893946073],[4.89990234375,52.36917959976818],[4.900025725364685,52.36929130067978]]]]}},{"type":"Feature","properties":{"mvt_id":740802922,"intermittent":0,"class":"lake","id":74080292},"geometry":{"type":"MultiPolygon","coordinates":[[[[4.902997612953186,52.36951074866534],[4.902820587158203,52.369582805975085],[4.90290641784668,52.369648312518294],[4.903078079223633,52.369576255315415],[4.902997612953186,52.36951074866534]]]]}},{"type":"Feature","properties":{"mvt_id":740803182,"intermittent":0,"class":"lake","id":74080318},"geometry":{"type":"MultiPolygon","coordinates":[[[[4.9029117822647095,52.37254687979881],[4.902842044830322,52.37246827709363],[4.902724027633667,52.372540329578726],[4.902697205543518,52.37256980556147],[4.901935458183289,52.37298901740895],[4.902048110961914,52.37303159338963],[4.9029117822647095,52.37254687979881]]]]}},{"type":"Feature","properties":{"mvt_id":740803202,"intermittent":0,"class":"river","id":74080320},"geometry":{"type":"MultiPolygon","coordinates":[[[[4.912712574005127,52.37094204684116],[4.912728667259216,52.37093222115366],[4.9126482009887695,52.37087654221656],[4.912728667259216,52.370827413684346],[4.911983013153076,52.370352501722515],[4.911977648735046,52.37035905226706],[4.9118971824646,52.37030664788348],[4.911854267120361,52.37030992315927],[4.9118006229400635,52.37034595117699],[4.911602139472961,52.370218215345204],[4.911596775054932,52.37022149062756],[4.9115753173828125,52.37026734455499],[4.911510944366455,52.370280445668364],[4.911677241325378,52.37039180497523],[4.911682605743408,52.370401630782936],[4.911677241325378,52.37041473185649],[4.911623597145081,52.37044093399194],[4.911618232727051,52.37047368663939],[4.912444353103638,52.3709944504709],[4.912492632865906,52.37096824866379],[4.912508726119995,52.37096824866379],[4.912927150726318,52.3712269908278],[4.913050532341003,52.371151660987096],[4.912712574005127,52.37094204684116]]]]}},{"type":"Feature","properties":{"mvt_id":740804432,"intermittent":0,"class":"river","id":74080443},"geometry":{"type":"MultiPolygon","coordinates":[[[[4.9132221937179565,52.37496384469747],[4.913608431816101,52.37442675281728],[4.9143970012664795,52.37321499714491],[4.9158936738967896,52.37356542720238],[4.916612505912781,52.37315277095616],[4.915539622306824,52.37256653045324],[4.915400147438049,52.37264840808595],[4.914954900741577,52.37247482732441],[4.9154216051101685,52.37193115486442],[4.915314316749573,52.37189840329769],[4.915019273757935,52.372117838331015],[4.91464376449585,52.37201630882424],[4.914456009864807,52.3722193676044],[4.914552569389343,52.3722193676044],[4.914552569389343,52.37220299193093],[4.914649128913879,52.37220299193093],[4.9146705865859985,52.372406049852835],[4.914568662643433,52.37240932497296],[4.914568662643433,52.37239294936992],[4.914488196372986,52.372396224491006],[4.914504289627075,52.37267460889637],[4.914364814758301,52.372677883996566],[4.914311170578003,52.37214731459572],[4.914482831954956,52.371970456712425],[4.9143970012664795,52.37192787970883],[4.9141234159469604,52.37183290009138],[4.914289712905884,52.37162656435655],[4.914241433143616,52.37160363810429],[4.914370179176331,52.37146935553065],[4.914413094520569,52.37148245628752],[4.9145472049713135,52.371331797349],[4.91489052772522,52.37144315400527],[4.914960265159607,52.371364549335865],[4.914708137512207,52.37126301809751],[4.9146974086761475,52.37124991727556],[4.914718866348267,52.371220440411975],[4.914579391479492,52.371158211413125],[4.914568662643433,52.37114511056009],[4.914568662643433,52.37113200970317],[4.914584755897522,52.37111890884237],[4.914364814758301,52.37101410181602],[4.914166331291199,52.37093549638307],[4.914005398750305,52.37090274407806],[4.913924932479858,52.37089619361414],[4.913790822029114,52.37093877161223],[4.913806915283203,52.37096497343682],[4.913318753242493,52.37112218405793],[4.913308024406433,52.37112873448833],[4.9133241176605225,52.37114183534623],[4.913329482078552,52.371154936200234],[4.913318753242493,52.37117131226228],[4.913302659988403,52.371177862685386],[4.913259744644165,52.371177862685386],[4.913168549537659,52.371207339577396],[4.913066625595093,52.37114511056009],[4.913050532341003,52.371151660987096],[4.912744760513306,52.37134162294761],[4.9127984046936035,52.37149228185262],[4.912417531013489,52.37161346364243],[4.912186861038208,52.37170189338733],[4.91214394569397,52.37172481958859],[4.912122488021851,52.37175102094688],[4.912106394767761,52.37177722228963],[4.912106394767761,52.371806698781654],[4.912122488021851,52.37184272557852],[4.912326335906982,52.3722160924702],[4.9124228954315186,52.372196441659845],[4.9124497175216675,52.37224229353706],[4.912337064743042,52.372261944327015],[4.912540912628174,52.37272373537399],[4.912589192390442,52.37288748990476],[4.912669658660889,52.37320517196304],[4.912691116333008,52.373526126773605],[4.912701845169067,52.37390602945344],[4.912685751914978,52.37412545451245],[4.912685751914978,52.374328503595905],[4.91264283657074,52.374505352037],[4.9124979972839355,52.374947470041555],[4.912471175193787,52.37496056976677],[4.912433624267578,52.37495729483584],[4.9124228954315186,52.374947470041555],[4.912417531013489,52.37493109537958],[4.9124497175216675,52.3747149492724],[4.91239607334137,52.37471167432325],[4.91237998008728,52.37485577185626],[4.912320971488953,52.375179989586506],[4.912232372068587,52.3755991766591],[4.914156508445728,52.3755991766591],[4.9132221937179565,52.37496384469747]]],[[[4.916261059897295,52.3755991766591],[4.920376068667338,52.3755991766591],[4.920528531074524,52.37555005337985],[4.921182990074158,52.37536338442035],[4.921424388885498,52.3753240855915],[4.921472668647766,52.375478005804766],[4.921794533729553,52.37538958362016],[4.921875,52.37537714729308],[4.921875,52.37475723409132],[4.921247363090515,52.37485249691754],[4.921258091926575,52.374872146546174],[4.921252727508545,52.37487869642043],[4.921000599861145,52.374914720711516],[4.920995235443115,52.37491144577719],[4.9209898710250854,52.37491144577719],[4.920957684516907,52.37486232173295],[4.920351505279541,52.37495401990465],[4.919262528419495,52.375147240428895],[4.917926788330078,52.37535028481462],[4.916261059897295,52.3755991766591]]],[[[4.9217140674591064,52.36945179259722],[4.921553134918213,52.369389561106615],[4.9216121435165405,52.36935353230882],[4.921531677246094,52.3692978513817],[4.921445846557617,52.369343706267955],[4.921349287033081,52.369376459729004],[4.92138147354126,52.36940921316575],[4.921327829360962,52.36942558987502],[4.921333193778992,52.36943869123807],[4.92112934589386,52.369517299334724],[4.920941591262817,52.36938628576257],[4.920828938484192,52.369320778830776],[4.920796751976013,52.369340430920516],[4.9207377433776855,52.369301126732296],[4.920673370361328,52.36932405417968],[4.920732378959656,52.36937318438399],[4.920716285705566,52.36938301041828],[4.920893311500549,52.369500922659455],[4.920727014541626,52.369582805975085],[4.921022057533264,52.369759673418805],[4.921177625656128,52.369664689138915],[4.921349287033081,52.36977604999814],[4.921327829360962,52.36979242657141],[4.921553134918213,52.36993326485086],[4.921579957008362,52.36991688832981],[4.9217623472213745,52.370028248553226],[4.921735525131226,52.37004462503298],[4.921875,52.37013374344434],[4.921875,52.36953814236719],[4.9217140674591064,52.36945179259722]]]]}},{"type":"Feature","properties":{"mvt_id":740805752,"intermittent":0,"class":"lake","id":74080575},"geometry":{"type":"MultiPolygon","coordinates":[[[[4.900095462799072,52.374488977211094],[4.9001544713974,52.374544651594405],[4.900234937667847,52.37451845189336],[4.89990234375,52.37421065622566],[4.89990234375,52.3743168446738],[4.900095462799072,52.374488977211094]]]]}},{"type":"Feature","properties":{"mvt_id":740814722,"intermittent":0,"class":"lake","id":74081472},"geometry":{"type":"MultiPolygon","coordinates":[[[[4.900267124176025,52.374505352037],[4.900234937667847,52.37451845189336],[4.9001544713974,52.374544651594405],[4.900551438331604,52.37492782044645],[4.900610446929932,52.375006418774426],[4.90064799785614,52.375094841726195],[4.9006640911102295,52.37515379026236],[4.900749921798706,52.375143965511796],[4.900707006454468,52.37501296862877],[4.90065336227417,52.374917995645625],[4.900519251823425,52.37473787390967],[4.900267124176025,52.374505352037]]]]}},{"type":"Feature","properties":{"mvt_id":740814772,"intermittent":0,"class":"lake","id":74081477},"geometry":{"type":"MultiPolygon","coordinates":[[[[4.921542406082153,52.37277941198258],[4.921708703041077,52.37267460889637],[4.921660423278809,52.37264513298356],[4.9214887619018555,52.37274338594974],[4.921542406082153,52.37277941198258]]]]}},{"type":"Feature","properties":{"mvt_id":740815532,"intermittent":0,"class":"lake","id":74081553},"geometry":{"type":"MultiPolygon","coordinates":[[[[4.901967644691467,52.37307416932928],[4.901881814002991,52.3730152180173],[4.901307821273804,52.37333617420825],[4.901302456855774,52.37334599936098],[4.901340007781982,52.373418050414195],[4.901356101036072,52.37342132545926],[4.9013882875442505,52.37340822527749],[4.901967644691467,52.37307416932928]]]]}},{"type":"Feature","properties":{"mvt_id":740815552,"intermittent":0,"class":"lake","id":74081555},"geometry":{"type":"MultiPolygon","coordinates":[[[[4.907450079917908,52.371498832228134],[4.907369613647461,52.37142677804402],[4.907267689704895,52.371511932976254],[4.907369613647461,52.3715610607471],[4.907450079917908,52.371498832228134]]]]}},{"type":"Feature","properties":{"mvt_id":740816722,"intermittent":0,"class":"lake","id":74081672},"geometry":{"type":"MultiPolygon","coordinates":[[[[4.9061572551727295,52.372415875212475],[4.905685186386108,52.37220626706611],[4.905486702919006,52.372189891387784],[4.904167056083679,52.37290714040767],[4.903298020362854,52.3733918500448],[4.903239011764526,52.37344097572464],[4.9031853675842285,52.373509751584635],[4.903201460838318,52.373526126773605],[4.903281927108765,52.37356215216798],[4.903818368911743,52.373716078521994],[4.903882741928101,52.37372590359022],[4.903931021690369,52.37372590359022],[4.9057334661483765,52.37272046027718],[4.906184077262878,52.37247482732441],[4.906173348426819,52.37243880104314],[4.9061572551727295,52.372415875212475]]]]}},{"type":"Feature","properties":{"mvt_id":740816942,"intermittent":0,"class":"lake","id":74081694},"geometry":{"type":"MultiPolygon","coordinates":[[[[4.903002977371216,52.372481377554216],[4.902949333190918,52.37242570056993],[4.902949333190918,52.37244207616083],[4.90289568901062,52.37247482732441],[4.902868866920471,52.372465001977886],[4.902842044830322,52.37246827709363],[4.9029117822647095,52.37254687979881],[4.902949333190918,52.372523954024246],[4.902949333190918,52.37251085357631],[4.903002977371216,52.372481377554216]]]]}},{"type":"Feature","properties":{"mvt_id":740818032,"intermittent":0,"class":"lake","id":74081803},"geometry":{"type":"MultiPolygon","coordinates":[[[[4.91962194442749,52.371685517522],[4.919450283050537,52.37177722228963],[4.919579029083252,52.37184600074041],[4.91963267326355,52.37185582622464],[4.919691681861877,52.37185910138556],[4.919933080673218,52.37185582622464],[4.919986724853516,52.37186237654623],[4.920035004615784,52.371878752345985],[4.920759201049805,52.37231762151772],[4.9213385581970215,52.37268770929574],[4.921397566795349,52.37268443419626],[4.9214887619018555,52.37274338594974],[4.921660423278809,52.37264513298356],[4.920067191123962,52.37164949059691],[4.919959902763367,52.37165276577313],[4.919847249984741,52.3716822423482],[4.919766783714294,52.37169861821475],[4.919675588607788,52.37169861821475],[4.91962194442749,52.371685517522]]]]}},{"type":"Feature","properties":{"mvt_id":740818472,"intermittent":0,"class":"lake","id":74081847},"geometry":{"type":"MultiPolygon","coordinates":[[[[4.919450283050537,52.37177722228963],[4.91962194442749,52.371685517522],[4.919525384902954,52.37163638988959],[4.91937518119812,52.37173136992961],[4.919450283050537,52.37177722228963]]]]}},{"type":"Feature","properties":{"mvt_id":740819292,"intermittent":0,"class":"lake","id":74081929},"geometry":{"type":"MultiPolygon","coordinates":[[[[4.902048110961914,52.37303159338963],[4.901935458183289,52.37298901740895],[4.90190327167511,52.373008667866664],[4.901881814002991,52.3730152180173],[4.901967644691467,52.37307416932928],[4.902048110961914,52.37303159338963]]]]}},{"type":"Feature","properties":{"mvt_id":740820282,"intermittent":0,"class":"river","id":74082028},"geometry":{"type":"MultiPolygon","coordinates":[[[[4.900031089782715,52.36943541589767],[4.899982810020447,52.36942886521614],[4.89990234375,52.36946848625891],[4.89990234375,52.36960008615884],[4.900095462799072,52.369494371987656],[4.9000900983810425,52.36948127064112],[4.900175929069519,52.369441966578215],[4.900116920471191,52.36939611179396],[4.900031089782715,52.36943541589767]]]]}},{"type":"Feature","properties":{"mvt_id":740820692,"intermittent":0,"class":"lake","id":74082069},"geometry":{"type":"MultiPolygon","coordinates":[[[[4.908592700958252,52.37099117524586],[4.908308386802673,52.37085361557499],[4.908206462860107,52.370833964158464],[4.906940460205078,52.37031647371014],[4.906017780303955,52.36992671424317],[4.906044602394104,52.3699037871086],[4.905787110328674,52.36981862907601],[4.905679821968079,52.36977604999814],[4.905674457550049,52.369782600628184],[4.904505014419556,52.369304402082655],[4.9044835567474365,52.369304402082655],[4.904188513755798,52.36918976467576],[4.904177784919739,52.36917338787906],[4.904199242591858,52.369143909629706],[4.904027581214905,52.36908167770534],[4.903995394706726,52.369062025500476],[4.903968572616577,52.369075126971346],[4.903973937034607,52.36908167770534],[4.903791546821594,52.36915701107629],[4.903780817985535,52.36915046035348],[4.903619885444641,52.36921596753785],[4.903630614280701,52.36922579360713],[4.903442859649658,52.369301126732296],[4.903437495231628,52.36929457603085],[4.903271198272705,52.36936008300152],[4.903281927108765,52.36936663369324],[4.9029868841171265,52.36949109665138],[4.902997612953186,52.36951074866534],[4.903078079223633,52.369576255315415],[4.903120994567871,52.36959590729149],[4.903716444969177,52.369330604876744],[4.903737902641296,52.36932732952833],[4.903775453567505,52.369340430920516],[4.904038310050964,52.369445241918136],[4.9049341678619385,52.36982190438798],[4.905336499214172,52.369972568476605],[4.906693696975708,52.37056866917966],[4.907364249229431,52.37083723939516],[4.907364249229431,52.37084378986782],[4.907412528991699,52.370866716514485],[4.907251596450806,52.37102065226246],[4.907600283622742,52.37117131226228],[4.907283782958984,52.371367824533216],[4.907251596450806,52.37139730129845],[4.907299876213074,52.37142350285103],[4.907321333885193,52.371407126882495],[4.907369613647461,52.37142677804402],[4.907450079917908,52.371498832228134],[4.907460808753967,52.37149228185262],[4.907476902008057,52.37149228185262],[4.907476902008057,52.37150538260268],[4.907578825950623,52.371554510380804],[4.907788038253784,52.371439878813504],[4.907766580581665,52.37138420051633],[4.908077716827393,52.371223715620005],[4.90813672542572,52.37123681644973],[4.908592700958252,52.37099117524586]]]]}},{"type":"Feature","properties":{"mvt_id":740820932,"intermittent":0,"class":"lake","id":74082093},"geometry":{"type":"MultiPolygon","coordinates":[[[[4.902552366256714,52.3719409803297],[4.902547001838684,52.37192460455301],[4.902428984642029,52.37199010762332],[4.902471899986267,52.37200320822573],[4.902498722076416,52.37205233545014],[4.9024879932403564,52.372068711179466],[4.9024879932403564,52.37208508690272],[4.9026113748550415,52.37203268456693],[4.902595281600952,52.37201958397327],[4.902568459510803,52.37201630882424],[4.9025362730026245,52.3719606312537],[4.902552366256714,52.3719409803297]]]]}},{"type":"Feature","properties":{"mvt_id":740823142,"intermittent":0,"class":"lake","id":74082314},"geometry":{"type":"MultiPolygon","coordinates":[[[[4.91239607334137,52.37471167432325],[4.912202954292297,52.374701849474334],[4.912186861038208,52.3748459470394],[4.91212785243988,52.375166889926376],[4.912035890987937,52.3755991766591],[4.912232372068587,52.3755991766591],[4.912320971488953,52.375179989586506],[4.91237998008728,52.37485577185626],[4.91239607334137,52.37471167432325]]]]}},{"type":"Feature","properties":{"mvt_id":740823652,"intermittent":0,"class":"lake","id":74082365},"geometry":{"type":"MultiPolygon","coordinates":[[[[4.919198155403137,52.368036823355844],[4.9193912744522095,52.3679647635242],[4.919353723526001,52.36792218265934],[4.9191659688949585,52.36799424256045],[4.919198155403137,52.368036823355844]]]]}},{"type":"Feature","properties":{"mvt_id":740823842,"intermittent":0,"class":"lake","id":74082384},"geometry":{"type":"MultiPolygon","coordinates":[[[[4.903357028961182,52.374983494276556],[4.90338921546936,52.375006418774426],[4.90364134311676,52.374868871608676],[4.903550148010254,52.3746658250096],[4.903458952903748,52.3744038280185],[4.903458952903748,52.37436125336064],[4.903555512428284,52.374204054268404],[4.903829097747803,52.37381105408984],[4.903748631477356,52.3737750288985],[4.903233647346497,52.37362765280974],[4.9031853675842285,52.37361455268915],[4.9031102657318115,52.3736080026274],[4.902675747871399,52.37429575380687],[4.902670383453369,52.3743940031011],[4.902938604354858,52.37508829188399],[4.9029868841171265,52.3752291132774],[4.903239011764526,52.375091566805224],[4.903206825256348,52.37507191727422],[4.903206825256348,52.37505881758204],[4.903217554092407,52.37504899281034],[4.903233647346497,52.37504571788596],[4.903249740600586,52.375052267734475],[4.903276562690735,52.375068642351536],[4.903351664543152,52.37502934326041],[4.903319478034973,52.375006418774426],[4.903324842453003,52.3749900441343],[4.903340935707092,52.374983494276556],[4.903357028961182,52.374983494276556]]]]}},{"type":"Feature","properties":{"mvt_id":740824072,"intermittent":0,"class":"lake","id":74082407},"geometry":{"type":"MultiPolygon","coordinates":[[[[4.901495575904846,52.37413527948959],[4.901205897331238,52.37423025415597],[4.901221990585327,52.374269553958165],[4.901211261749268,52.37430230376662],[4.901195168495178,52.37433177857347],[4.901120066642761,52.374367803310676],[4.901775598526029,52.3755991766591],[4.902213536596577,52.3755991766591],[4.901495575904846,52.37413527948959]]]]}},{"type":"Feature","properties":{"mvt_id":740824882,"intermittent":0,"class":"lake","id":74082488},"geometry":{"type":"MultiPolygon","coordinates":[[[[4.902209043502808,52.3714955570405],[4.9023109674453735,52.37145625476991],[4.902225136756897,52.37126956850703],[4.901720881462097,52.37099117524586],[4.901699423789978,52.37098790002058],[4.901683330535889,52.37099117524586],[4.90164041519165,52.37103702837428],[4.90165114402771,52.371063230140585],[4.901940822601318,52.371210614786406],[4.901973009109497,52.37123354124267],[4.902209043502808,52.3714955570405]]]]}},{"type":"Feature","properties":{"mvt_id":740827922,"intermittent":0,"class":"river","id":74082792},"geometry":{"type":"MultiPolygon","coordinates":[[[[4.9191659688949585,52.36799424256045],[4.919353723526001,52.36792218265934],[4.919246435165405,52.367804266203976],[4.919326901435852,52.36777151157718],[4.919005036354065,52.36743413750786],[4.918929934501648,52.367463616898206],[4.918854832649231,52.36738172965423],[4.9186402559280396,52.36745706592428],[4.918720722198486,52.3675389530286],[4.91863489151001,52.36757498330641],[4.9189674854278564,52.367909080846516],[4.919047951698303,52.36788287720919],[4.9191659688949585,52.36799424256045]]]]}},{"type":"Feature","properties":{"mvt_id":740828002,"intermittent":0,"class":"lake","id":74082800},"geometry":{"type":"MultiPolygon","coordinates":[[[[4.901184439659119,52.373463901023214],[4.90114688873291,52.37338529995003],[4.901120066642761,52.373378749854275],[4.901168346405029,52.37347372614752],[4.901184439659119,52.373463901023214]]]]}},{"type":"Feature","properties":{"mvt_id":740828342,"intermittent":0,"class":"lake","id":74082834},"geometry":{"type":"MultiPolygon","coordinates":[[[[4.901334643363953,52.37340822527749],[4.901302456855774,52.37334599936098],[4.90114688873291,52.37338529995003],[4.901184439659119,52.373463901023214],[4.901334643363953,52.37340822527749]]]]}},{"type":"Feature","properties":{"mvt_id":740829542,"intermittent":0,"class":"lake","id":74082954},"geometry":{"type":"MultiPolygon","coordinates":[[[[4.902428984642029,52.37199010762332],[4.902547001838684,52.37192460455301],[4.902353882789612,52.371538134460835],[4.9023377895355225,52.37152830890593],[4.902268052101135,52.37156761111241],[4.902268052101135,52.37157743665856],[4.902428984642029,52.37199010762332]]]]}},{"type":"Feature","properties":{"mvt_id":740831212,"intermittent":0,"class":"lake","id":74083121},"geometry":{"type":"MultiPolygon","coordinates":[[[[4.901034235954285,52.37319534677899],[4.900572896003723,52.373273948190224],[4.901018142700195,52.37413855448149],[4.90115761756897,52.37414182947314],[4.9011629819869995,52.374161479417964],[4.901452660560608,52.374063229606456],[4.901034235954285,52.37319534677899]]]]}},{"type":"Feature","properties":{"mvt_id":740832062,"intermittent":0,"class":"lake","id":74083206},"geometry":{"type":"MultiPolygon","coordinates":[[[[4.915180206298828,52.37143332842925],[4.91513192653656,52.37149228185262],[4.915115833282471,52.37151520816268],[4.9155449867248535,52.37165276577313],[4.915367960929871,52.37184927590206],[4.915459156036377,52.37187547718653],[4.915700554847717,52.371600362924426],[4.915180206298828,52.37143332842925]]]]}},{"type":"Feature","properties":{"mvt_id":740832252,"intermittent":0,"class":"lake","id":74083225},"geometry":{"type":"MultiPolygon","coordinates":[[[[4.906205534934998,52.372356923021854],[4.905744194984436,52.37215386487409],[4.905685186386108,52.37220626706611],[4.90614652633667,52.37240932497296],[4.906205534934998,52.372356923021854]]]]}},{"type":"Feature","properties":{"mvt_id":740835702,"intermittent":0,"class":"lake","id":74083570},"geometry":{"type":"MultiPolygon","coordinates":[[[[4.902268052101135,52.37156761111241],[4.9023377895355225,52.37152830890593],[4.9023109674453735,52.371479181098664],[4.9023109674453735,52.37145625476991],[4.902209043502808,52.3714955570405],[4.902230501174927,52.37151520816268],[4.902246594429016,52.37151848334885],[4.902268052101135,52.37156761111241]]]]}},{"type":"Feature","properties":{"mvt_id":740838632,"intermittent":0,"class":"lake","id":74083863},"geometry":{"type":"MultiPolygon","coordinates":[[[[4.912202954292297,52.374701849474334],[4.912047386169434,52.3746985745242],[4.912042021751404,52.37482957233977],[4.911861930574673,52.3755991766591],[4.912035890987937,52.3755991766591],[4.91212785243988,52.375166889926376],[4.912186861038208,52.3748459470394],[4.912202954292297,52.374701849474334]]]]}},{"type":"Feature","properties":{"mvt_id":740839592,"intermittent":0,"class":"lake","id":74083959},"geometry":{"type":"MultiPolygon","coordinates":[[[[4.917583465576172,52.37061779799965],[4.917921423912048,52.370827413684346],[4.918414950370789,52.37112873448833],[4.91937518119812,52.37173136992961],[4.919525384902954,52.37163638988959],[4.919477105140686,52.37158398702145],[4.919471740722656,52.37152830890593],[4.919482469558716,52.37147590590957],[4.919568300247192,52.371374374927186],[4.919568300247192,52.37132524694871],[4.919546842575073,52.37128921972975],[4.919520020484924,52.37125974289239],[4.919477105140686,52.3712269908278],[4.918178915977478,52.370411456588464],[4.917781949043274,52.37055229289418],[4.917556643486023,52.37039180497523],[4.917411804199219,52.370444209257776],[4.917583465576172,52.37061779799965]]]]}},{"type":"Feature","properties":{"mvt_id":740840402,"intermittent":0,"class":"lake","id":74084040},"geometry":{"type":"MultiPolygon","coordinates":[[[[4.901683330535889,52.37099117524586],[4.9016135931015015,52.37095514775442],[4.901576042175293,52.371001000920245],[4.90164041519165,52.37103702837428],[4.901683330535889,52.37099117524586]]]]}},{"type":"Feature","properties":{"mvt_id":740842512,"intermittent":0,"class":"lake","id":74084251},"geometry":{"type":"MultiPolygon","coordinates":[[[[4.9028098583221436,52.37239949961186],[4.902793765068054,52.3723765737608],[4.9026864767074585,52.37245190151245],[4.902697205543518,52.37246827709363],[4.902718663215637,52.37247155220915],[4.9027615785598755,52.37251085357631],[4.902724027633667,52.372540329578726],[4.902842044830322,52.37246827709363],[4.902793765068054,52.37242897568859],[4.9028098583221436,52.372415875212475],[4.9028098583221436,52.37239949961186]]]]}},{"type":"Feature","properties":{"mvt_id":740842992,"intermittent":0,"class":"lake","id":74084299},"geometry":{"type":"MultiPolygon","coordinates":[[[[4.901361465454102,52.37049661347815],[4.901286363601685,52.37047696190279],[4.9012380838394165,52.37054246711998],[4.9013131856918335,52.37056211866619],[4.901361465454102,52.37049661347815]]]]}},{"type":"Feature","properties":{"mvt_id":2527542432,"intermittent":0,"class":"lake","id":252754243},"geometry":{"type":"MultiPolygon","coordinates":[[[[4.9063825607299805,52.366503888863335],[4.906264543533325,52.366575951078],[4.906194806098938,52.36661198214125],[4.906334280967712,52.36668076863494],[4.90639328956604,52.36664146208024],[4.906709790229797,52.36659560438887],[4.906876087188721,52.36653991998536],[4.907042384147644,52.36652681776256],[4.907246232032776,52.366484235511656],[4.90739643573761,52.366448204344216],[4.90740180015564,52.36643510209422],[4.90739107131958,52.36641217314738],[4.907315969467163,52.366333559525025],[4.907278418540955,52.36635321294373],[4.907197952270508,52.36634011066556],[4.907074570655823,52.36636631521801],[4.907015562057495,52.366369590785965],[4.9066561460494995,52.36645475546775],[4.9063825607299805,52.366503888863335]]]]}},{"type":"Feature","properties":{"mvt_id":2527542442,"intermittent":0,"class":"lake","id":252754244},"geometry":{"type":"MultiPolygon","coordinates":[[[[4.907332062721252,52.366327008383514],[4.907315969467163,52.366333559525025],[4.90739107131958,52.36641217314738],[4.907439351081848,52.366395795320926],[4.907487630844116,52.36639907088671],[4.907519817352295,52.366395795320926],[4.907734394073486,52.36633683509542],[4.907825589179993,52.366300803807746],[4.908024072647095,52.366205812090314],[4.90814745426178,52.3660715131068],[4.908168911933899,52.36601910363664],[4.90813672542572,52.36599289887823],[4.908217191696167,52.365819291961245],[4.908099174499512,52.365799638305],[4.908018708229065,52.36597324529924],[4.907873868942261,52.36602893041702],[4.907691478729248,52.36613702485708],[4.907412528991699,52.366235292300345],[4.907353520393372,52.36626804806618],[4.907321333885193,52.36628770151404],[4.907321333885193,52.366313906097574],[4.907332062721252,52.366327008383514]]]]}},{"type":"Feature","properties":{"mvt_id":5312438862,"intermittent":0,"class":"lake","id":531243886},"geometry":{"type":"MultiPolygon","coordinates":[[[[4.916998744010925,52.36681834130102],[4.916950464248657,52.366821616835466],[4.91687536239624,52.36687730088391],[4.916864633560181,52.366929709335956],[4.9168860912323,52.36696246458692],[4.9169182777404785,52.36698539324815],[4.916950464248657,52.366988668770205],[4.916966557502747,52.3669788422033],[4.916982650756836,52.3669788422033],[4.916988015174866,52.36698539324815],[4.916998744010925,52.36698539324815],[4.917009472846985,52.36700504637687],[4.917025566101074,52.36700504637687],[4.917025566101074,52.36701814845782],[4.917047023773193,52.36702142397744],[4.917047023773193,52.36703452605356],[4.917079210281372,52.36704762812576],[4.917079210281372,52.36707383225853],[4.9170684814453125,52.36707383225853],[4.917052388191223,52.367106587402624],[4.917041659355164,52.367106587402624],[4.917036294937134,52.36712624047743],[4.917047023773193,52.367175373126194],[4.917084574699402,52.3672179547109],[4.917100667953491,52.3672179547109],[4.917100667953491,52.36721140370055],[4.91713285446167,52.36720485268921],[4.91713285446167,52.367195026170386],[4.917148947715759,52.367195026170386],[4.917148947715759,52.36719175066363],[4.917197227478027,52.367188475156624],[4.9172186851501465,52.367172097617974],[4.917240142822266,52.367172097617974],[4.917240142822266,52.367162271091864],[4.9172669649124146,52.36715899558267],[4.9172669649124146,52.367149169053654],[4.917288422584534,52.367149169053654],[4.917288422584534,52.367162271091864],[4.917304515838623,52.367162271091864],[4.917304515838623,52.36718519964938],[4.9173688888549805,52.367162271091864],[4.917250871658325,52.36703452605356],[4.9171435832977295,52.366988668770205],[4.917111396789551,52.36695263801419],[4.917111396789551,52.366900229589326],[4.91712212562561,52.36687074982302],[4.917202591896057,52.36675283056108],[4.917159676551819,52.36673972840144],[4.917020201683044,52.36678231040607],[4.917025566101074,52.36678886148007],[4.917036294937134,52.36678886148007],[4.917036294937134,52.36679541255309],[4.917047023773193,52.36679541255309],[4.917047023773193,52.36681506576633],[4.917014837265015,52.36681179023139],[4.916998744010925,52.36681834130102]]]]}},{"type":"Feature","properties":{"mvt_id":5623282402,"intermittent":0,"class":"lake","id":562328240},"geometry":{"type":"MultiPolygon","coordinates":[[[[4.912964701652527,52.3665497466499],[4.912980794906616,52.36657267552534],[4.913560152053833,52.36638596862214],[4.913544058799744,52.36636631521801],[4.912964701652527,52.3665497466499]]]]}},{"type":"Feature","properties":{"mvt_id":5857816672,"intermittent":0,"class":"lake","id":585781667},"geometry":{"type":"MultiPolygon","coordinates":[[[[4.901495575904846,52.37413527948959],[4.901452660560608,52.374063229606456],[4.9011629819869995,52.374161479417964],[4.901205897331238,52.37423025415597],[4.901495575904846,52.37413527948959]]]]}},{"type":"Feature","properties":{"mvt_id":6702702252,"intermittent":0,"class":"lake","id":670270225},"geometry":{"type":"MultiPolygon","coordinates":[[[[4.915491342544556,52.36703452605356],[4.915528893470764,52.36708365880431],[4.915593266487122,52.36705090364321],[4.91563081741333,52.367027975015986],[4.915679097175598,52.36701159741783],[4.915732741355896,52.36700177085602],[4.915823936462402,52.366998495334926],[4.9157702922821045,52.36694281143926],[4.915668368339539,52.36694936248946],[4.915593266487122,52.3669690156342],[4.915555715560913,52.366988668770205],[4.915491342544556,52.36703452605356]]]]}},{"type":"Feature","properties":{"mvt_id":8036070802,"intermittent":0,"class":"lake","id":803607080},"geometry":{"type":"MultiPolygon","coordinates":[[[[4.9111407995224,52.369920163634504],[4.911038875579834,52.369972568476605],[4.911510944366455,52.370280445668364],[4.9115753173828125,52.37026734455499],[4.911596775054932,52.37022149062756],[4.9111407995224,52.369920163634504]]]]}},{"type":"Feature","properties":{"mvt_id":8863008912,"intermittent":0,"class":"river","id":886300891},"geometry":{"type":"MultiPolygon","coordinates":[[[[4.907476902008057,52.37150538260268],[4.90738570690155,52.37157743665856],[4.907444715499878,52.371600362924426],[4.9075305461883545,52.37152830890593],[4.907476902008057,52.37150538260268]]]]}},{"type":"Feature","properties":{"mvt_id":9204599902,"intermittent":0,"class":"lake","id":920459990},"geometry":{"type":"MultiPolygon","coordinates":[[[[4.903855919837952,52.3654491466339],[4.903845191001892,52.365475351714835],[4.903968572616577,52.36549500551532],[4.903979301452637,52.36546880044605],[4.903855919837952,52.3654491466339]]]]}},{"type":"Feature","properties":{"mvt_id":10200112182,"intermittent":0,"class":"lake","id":1020011218},"geometry":{"type":"MultiPolygon","coordinates":[[[[4.903748631477356,52.3737750288985],[4.903796911239624,52.37370952847532],[4.903281927108765,52.37356215216798],[4.903233647346497,52.37362765280974],[4.903748631477356,52.3737750288985]]]]}},{"type":"Feature","properties":{"mvt_id":13601442062,"intermittent":0,"class":"lake","id":1360144206},"geometry":{"type":"MultiPolygon","coordinates":[[[[4.919428825378418,52.36606496192644],[4.919444918632507,52.36608461546462],[4.919482469558716,52.36608461546462],[4.919536113739014,52.36611082016862],[4.919600486755371,52.366120646928614],[4.919680953025818,52.36616650511301],[4.919707775115967,52.366169780695785],[4.9197399616241455,52.366169780695785],[4.919745326042175,52.36616322952999],[4.9197399616241455,52.36615340277947],[4.919686317443848,52.36614685161124],[4.919605851173401,52.366104268994086],[4.919552206993103,52.366100993406455],[4.919503927230835,52.366068237516735],[4.919455647468567,52.36606168633588],[4.919428825378418,52.36606496192644]]]]}},{"type":"Feature","properties":{"mvt_id":13753401472,"intermittent":0,"class":"pond","id":1375340147},"geometry":{"type":"MultiPolygon","coordinates":[[[[4.908694624900818,52.36696574011068],[4.908716082572937,52.36700504637687],[4.908742904663086,52.36701487293795],[4.908764362335205,52.36700504637687],[4.908758997917175,52.366972291157474],[4.908769726753235,52.36695918906292],[4.908785820007324,52.36695263801419],[4.908844828605652,52.36696246458692],[4.908860921859741,52.36695263801419],[4.908850193023682,52.366936260388094],[4.908823370933533,52.36692315828285],[4.908785820007324,52.366916607228774],[4.908737540245056,52.36692315828285],[4.908705353736877,52.366939535913794],[4.908694624900818,52.36696574011068]]]]}},{"type":"Feature","properties":{"mvt_id":13753401502,"intermittent":0,"class":"pond","id":1375340150},"geometry":{"type":"MultiPolygon","coordinates":[[[[4.908072352409363,52.36691988275594],[4.908093810081482,52.36693298486214],[4.908125996589661,52.366936260388094],[4.90814745426178,52.36691988275594],[4.90814745426178,52.36690678064583],[4.908125996589661,52.366893678531845],[4.908099174499512,52.366893678531845],[4.908083081245422,52.366900229589326],[4.908072352409363,52.36691988275594]]]]}},{"type":"Feature","properties":{"mvt_id":13766734142,"intermittent":0,"class":"river","id":1376673414},"geometry":{"type":"MultiPolygon","coordinates":[[[[4.901195168495178,52.366670941999544],[4.901205897331238,52.366618533240505],[4.901195168495178,52.36658577773452],[4.9011629819869995,52.366556297758386],[4.900454878807068,52.366389244188646],[4.900379776954651,52.36640234645223],[4.900342226028442,52.36642199984035],[4.900310039520264,52.366448204344216],[4.900202751159668,52.36658250218259],[4.90015983581543,52.36660543104102],[4.900068640708923,52.36663818653243],[4.89990234375,52.36668765567726],[4.89990234375,52.36720064930942],[4.901130795478821,52.36671679961271],[4.901168346405029,52.36669387081208],[4.901184439659119,52.36668076863494],[4.901184439659119,52.366670941999544],[4.901195168495178,52.366670941999544]]]]}},{"type":"Feature","properties":{"mvt_id":13962409942,"intermittent":0,"class":"lake","id":1396240994},"geometry":{"type":"MultiPolygon","coordinates":[[[[4.912927150726318,52.36662180878976],[4.912953972816467,52.36665456426903],[4.913678169250488,52.36641544871195],[4.913774728775024,52.36653009331863],[4.913254380226135,52.36669714635575],[4.913286566734314,52.36672990177915],[4.913865923881531,52.36654319554045],[4.913710355758667,52.36636631521801],[4.912927150726318,52.36662180878976]]]]}},{"type":"Feature","properties":{"mvt_id":13968325492,"intermittent":0,"class":"lake","id":1396832549},"geometry":{"type":"MultiPolygon","coordinates":[[[[4.915711283683777,52.36548190298263],[4.91563081741333,52.36550810804413],[4.915722012519836,52.36552776183006],[4.915743470191956,52.36551793493819],[4.915786385536194,52.365521210569064],[4.915802478790283,52.36551465930709],[4.915711283683777,52.36548190298263]]]]}},{"type":"Feature","properties":{"mvt_id":13968325502,"intermittent":0,"class":"lake","id":1396832550},"geometry":{"type":"MultiPolygon","coordinates":[[[[4.915341138839722,52.36582256756976],[4.915367960929871,52.36586515045845],[4.915614724159241,52.365845496822615],[4.91563081741333,52.36579308708432],[4.915341138839722,52.36582256756976]]]]}},{"type":"Feature","properties":{"mvt_id":14092880902,"intermittent":0,"class":"lake","id":1409288090},"geometry":{"type":"MultiPolygon","coordinates":[[[[4.917030930519104,52.36642855096776],[4.9170684814453125,52.36643837765708],[4.917100667953491,52.36641544871195],[4.917014837265015,52.36629097708783],[4.916945099830627,52.366313906097574],[4.917030930519104,52.36642855096776]]]]}},{"type":"Feature","properties":{"mvt_id":14095204902,"intermittent":0,"class":"lake","id":1409520490},"geometry":{"type":"MultiPolygon","coordinates":[[[[4.917798042297363,52.36513140879075],[4.917830228805542,52.36517071668903],[4.9180179834365845,52.365108479167276],[4.917985796928406,52.36506917121363],[4.917798042297363,52.36513140879075]]]]}},{"type":"Feature","properties":{"mvt_id":14098548012,"intermittent":0,"class":"lake","id":1409854801},"geometry":{"type":"MultiPolygon","coordinates":[[[[4.918699264526367,52.364636781415214],[4.918731451034546,52.36464333280737],[4.9187421798706055,52.36463350571877],[4.918726086616516,52.364607300138495],[4.918677806854248,52.36459092164292],[4.918650984764099,52.36459419734253],[4.918650984764099,52.36460402443986],[4.9186670780181885,52.36462040293057],[4.918699264526367,52.364636781415214]]]]}},{"type":"Feature","properties":{"mvt_id":14100741272,"intermittent":0,"class":"lake","id":1410074127},"geometry":{"type":"MultiPolygon","coordinates":[[[[4.916585683822632,52.36631063052548],[4.9166339635849,52.36629097708783],[4.91662323474884,52.366274599216446],[4.916580319404602,52.36627787479121],[4.916574954986572,52.36628770151404],[4.916548132896423,52.366294252661376],[4.916564226150513,52.36632045724103],[4.916537404060364,52.36634993737456],[4.916553497314453,52.36635648851266],[4.916580319404602,52.36635976408135],[4.9166178703308105,52.366389244188646],[4.916650056838989,52.3663925197549],[4.916687607765198,52.36641544871195],[4.916687607765198,52.36643182653112],[4.916682243347168,52.36643510209422],[4.916666150093079,52.366418724276265],[4.916655421257019,52.36642199984035],[4.916660785675049,52.36644492878208],[4.916676878929138,52.36646458215124],[4.916709065437317,52.3664809599522],[4.916725158691406,52.366474408832545],[4.916735887527466,52.36643182653112],[4.916660785675049,52.36634993737456],[4.9166339635849,52.36635648851266],[4.916612505912781,52.36635976408135],[4.916591048240662,52.36635321294373],[4.916580319404602,52.36633683509542],[4.916585683822632,52.36631063052548]]]]}}],"crs":{"type":"name","properties":{"name":"urn:ogc:def:crs:OGC:1.3:CRS84"}}}