{
 "type": "FeatureCollection",
 "properties": {
  "eclipse": "Total solar eclipse of 2026 August 12",
  "source": "Besselian elements: NASA/GSFC, Fred Espenak — https://eclipse.gsfc.nasa.gov/SEsearch/SEdata.php?Ecl=20260812",
  "deltaTSeconds": 75.4
 },
 "features": [
  {
   "type": "Feature",
   "properties": {
    "kind": "totality",
    "obscuration": 1,
    "title": "Path of totality (umbral footprint)"
   },
   "geometry": {
    "type": "Polygon",
    "coordinates": [
     [
      [
       108.7341,
       76.4676
      ],
      [
       108.6265,
       77.1684
      ],
      [
       108.4327,
       77.7198
      ],
      [
       108.2757,
       78.1491
      ],
      [
       108.0586,
       78.5443
      ],
      [
       107.8195,
       78.9021
      ],
      [
       107.6017,
       79.2138
      ],
      [
       107.3685,
       79.5039
      ],
      [
       107.0754,
       79.7921
      ],
      [
       106.8111,
       80.0486
      ],
      [
       106.5326,
       80.2924
      ],
      [
       106.2399,
       80.525
      ],
      [
       105.9331,
       80.7478
      ],
      [
       105.6121,
       80.9618
      ],
      [
       105.2213,
       81.1812
      ],
      [
       104.8695,
       81.3795
      ],
      [
       104.5028,
       81.5714
      ],
      [
       104.121,
       81.7571
      ],
      [
       103.7236,
       81.9373
      ],
      [
       103.3755,
       82.1011
      ],
      [
       102.948,
       82.2715
      ],
      [
       102.5039,
       82.4372
      ],
      [
       102.0426,
       82.5986
      ],
      [
       101.5636,
       82.7558
      ],
      [
       101.0665,
       82.909
      ],
      [
       100.5507,
       83.0585
      ],
      [
       100.0155,
       83.2043
      ],
      [
       99.4605,
       83.3467
      ],
      [
       98.8848,
       83.4857
      ],
      [
       98.288,
       83.6214
      ],
      [
       97.6692,
       83.754
      ],
      [
       97.1188,
       83.877
      ],
      [
       96.4565,
       84.0038
      ],
      [
       95.7701,
       84.1276
      ],
      [
       95.0588,
       84.2484
      ],
      [
       94.3219,
       84.3665
      ],
      [
       93.5585,
       84.4817
      ],
      [
       92.7678,
       84.5942
      ],
      [
       91.949,
       84.7039
      ],
      [
       91.1012,
       84.8108
      ],
      [
       90.2236,
       84.915
      ],
      [
       89.3153,
       85.0165
      ],
      [
       88.3757,
       85.1153
      ],
      [
       87.4038,
       85.2113
      ],
      [
       86.3989,
       85.3046
      ],
      [
       85.3602,
       85.3952
      ],
      [
       84.2872,
       85.4829
      ],
      [
       83.1792,
       85.5679
      ],
      [
       82.0357,
       85.65
      ],
      [
       80.8563,
       85.7293
      ],
      [
       79.6405,
       85.8056
      ],
      [
       78.3883,
       85.879
      ],
      [
       77.0995,
       85.9495
      ],
      [
       75.7742,
       86.0169
      ],
      [
       74.4127,
       86.0813
      ],
      [
       73.0155,
       86.1425
      ],
      [
       71.5831,
       86.2006
      ],
      [
       70.1165,
       86.2555
      ],
      [
       68.6167,
       86.3072
      ],
      [
       67.0851,
       86.3556
      ],
      [
       65.5233,
       86.4006
      ],
      [
       63.9331,
       86.4424
      ],
      [
       62.3166,
       86.4807
      ],
      [
       60.6762,
       86.5156
      ],
      [
       59.0143,
       86.5471
      ],
      [
       57.3337,
       86.5751
      ],
      [
       55.6375,
       86.5997
      ],
      [
       53.9287,
       86.6209
      ],
      [
       52.2107,
       86.6386
      ],
      [
       50.4867,
       86.6528
      ],
      [
       48.7602,
       86.6637
      ],
      [
       47.0347,
       86.6712
      ],
      [
       45.3136,
       86.6754
      ],
      [
       43.6003,
       86.6763
      ],
      [
       41.898,
       86.674
      ],
      [
       40.21,
       86.6685
      ],
      [
       38.5392,
       86.66
      ],
      [
       36.8885,
       86.6484
      ],
      [
       35.2605,
       86.6339
      ],
      [
       33.6574,
       86.6166
      ],
      [
       32.0816,
       86.5965
      ],
      [
       30.5348,
       86.5738
      ],
      [
       29.0187,
       86.5486
      ],
      [
       27.5348,
       86.5209
      ],
      [
       25.9969,
       86.4826
      ],
      [
       24.5851,
       86.4502
      ],
      [
       23.2081,
       86.4156
      ],
      [
       21.8664,
       86.3789
      ],
      [
       20.5601,
       86.3404
      ],
      [
       19.2896,
       86.2999
      ],
      [
       17.9853,
       86.2489
      ],
      [
       16.79,
       86.2049
      ],
      [
       15.6295,
       86.1594
      ],
      [
       14.5036,
       86.1123
      ],
      [
       13.4116,
       86.0639
      ],
      [
       12.2951,
       86.0049
      ],
      [
       11.2729,
       85.9538
      ],
      [
       10.2825,
       85.9015
      ],
      [
       9.3233,
       85.8481
      ],
      [
       8.3943,
       85.7937
      ],
      [
       7.4459,
       85.7287
      ],
      [
       6.5781,
       85.6723
      ],
      [
       5.738,
       85.6151
      ],
      [
       4.9247,
       85.557
      ],
      [
       4.1374,
       85.4982
      ],
      [
       3.3334,
       85.4288
      ],
      [
       2.5981,
       85.3686
      ],
      [
       1.8862,
       85.3077
      ],
      [
       1.1969,
       85.2463
      ],
      [
       0.5294,
       85.1843
      ],
      [
       -0.1534,
       85.1117
      ],
      [
       -0.7773,
       85.0487
      ],
      [
       -1.3818,
       84.9853
      ],
      [
       -1.9674,
       84.9215
      ],
      [
       -2.5349,
       84.8573
      ],
      [
       -3.085,
       84.7927
      ],
      [
       -3.6485,
       84.7175
      ],
      [
       -4.1637,
       84.6523
      ],
      [
       -4.6633,
       84.5868
      ],
      [
       -5.1478,
       84.521
      ],
      [
       -5.6179,
       84.4551
      ],
      [
       -6.074,
       84.3889
      ],
      [
       -6.5427,
       84.3119
      ],
      [
       -6.9709,
       84.2453
      ],
      [
       -7.3866,
       84.1785
      ],
      [
       -7.7904,
       84.1116
      ],
      [
       -8.1825,
       84.0445
      ],
      [
       -8.5635,
       83.9773
      ],
      [
       -8.9336,
       83.91
      ],
      [
       -9.315,
       83.8319
      ],
      [
       -9.6635,
       83.7644
      ],
      [
       -10.0024,
       83.6968
      ],
      [
       -10.3319,
       83.6291
      ],
      [
       -10.6524,
       83.5614
      ],
      [
       -10.9642,
       83.4937
      ],
      [
       -11.2676,
       83.4259
      ],
      [
       -11.5629,
       83.358
      ],
      [
       -11.8503,
       83.2901
      ],
      [
       -12.1468,
       83.2113
      ],
      [
       -12.4183,
       83.1434
      ],
      [
       -12.6828,
       83.0755
      ],
      [
       -12.9404,
       83.0076
      ],
      [
       -13.1914,
       82.9397
      ],
      [
       -13.4359,
       82.8718
      ],
      [
       -13.6743,
       82.8039
      ],
      [
       -13.9066,
       82.736
      ],
      [
       -14.1331,
       82.6682
      ],
      [
       -14.3674,
       82.5893
      ],
      [
       -14.5821,
       82.5215
      ],
      [
       -14.7914,
       82.4537
      ],
      [
       -14.9957,
       82.386
      ],
      [
       -15.1949,
       82.3184
      ],
      [
       -15.3894,
       82.2507
      ],
      [
       -15.5791,
       82.1831
      ],
      [
       -15.7643,
       82.1156
      ],
      [
       -15.9451,
       82.0481
      ],
      [
       -16.1217,
       81.9807
      ],
      [
       -16.294,
       81.9133
      ],
      [
       -16.4727,
       81.8349
      ],
      [
       -16.6365,
       81.7676
      ],
      [
       -16.7966,
       81.7004
      ],
      [
       -16.953,
       81.6333
      ],
      [
       -17.1058,
       81.5663
      ],
      [
       -17.2551,
       81.4993
      ],
      [
       -17.401,
       81.4324
      ],
      [
       -17.5436,
       81.3655
      ],
      [
       -17.683,
       81.2988
      ],
      [
       -17.8193,
       81.2321
      ],
      [
       -17.9525,
       81.1654
      ],
      [
       -18.0828,
       81.0989
      ],
      [
       -18.2101,
       81.0324
      ],
      [
       -18.3347,
       80.966
      ],
      [
       -18.4637,
       80.8886
      ],
      [
       -18.5825,
       80.8224
      ],
      [
       -18.6987,
       80.7562
      ],
      [
       -18.8124,
       80.6902
      ],
      [
       -18.9236,
       80.6242
      ],
      [
       -19.0324,
       80.5583
      ],
      [
       -19.1389,
       80.4925
      ],
      [
       -19.2431,
       80.4267
      ],
      [
       -19.3451,
       80.3611
      ],
      [
       -19.4449,
       80.2955
      ],
      [
       -19.5425,
       80.2301
      ],
      [
       -19.6382,
       80.1647
      ],
      [
       -19.7318,
       80.0994
      ],
      [
       -19.8234,
       80.0341
      ],
      [
       -19.9131,
       79.969
      ],
      [
       -20.0009,
       79.904
      ],
      [
       -20.0916,
       79.8278
      ],
      [
       -20.1756,
       79.763
      ],
      [
       -20.2577,
       79.6982
      ],
      [
       -20.3382,
       79.6335
      ],
      [
       -20.417,
       79.5689
      ],
      [
       -20.4942,
       79.5044
      ],
      [
       -20.5698,
       79.4399
      ],
      [
       -20.6438,
       79.3756
      ],
      [
       -20.7164,
       79.3113
      ],
      [
       -20.7874,
       79.2472
      ],
      [
       -20.8569,
       79.1831
      ],
      [
       -20.9251,
       79.1191
      ],
      [
       -20.9918,
       79.0552
      ],
      [
       -21.0572,
       78.9913
      ],
      [
       -21.1212,
       78.9276
      ],
      [
       -21.1839,
       78.8639
      ],
      [
       -21.2454,
       78.8004
      ],
      [
       -21.3056,
       78.7369
      ],
      [
       -21.3645,
       78.6735
      ],
      [
       -21.4223,
       78.6102
      ],
      [
       -21.4789,
       78.5469
      ],
      [
       -21.5366,
       78.4727
      ],
      [
       -21.5907,
       78.4097
      ],
      [
       -21.6437,
       78.3467
      ],
      [
       -21.6956,
       78.2838
      ],
      [
       -21.7465,
       78.221
      ],
      [
       -21.7963,
       78.1583
      ],
      [
       -21.8451,
       78.0957
      ],
      [
       -21.8929,
       78.0331
      ],
      [
       -21.9398,
       77.9707
      ],
      [
       -21.9856,
       77.9083
      ],
      [
       -22.0305,
       77.846
      ],
      [
       -22.0745,
       77.7838
      ],
      [
       -22.1176,
       77.7216
      ],
      [
       -22.1598,
       77.6596
      ],
      [
       -22.2011,
       77.5976
      ],
      [
       -22.2416,
       77.5357
      ],
      [
       -22.2812,
       77.4739
      ],
      [
       -22.32,
       77.4122
      ],
      [
       -22.3579,
       77.3506
      ],
      [
       -22.3951,
       77.289
      ],
      [
       -22.4315,
       77.2275
      ],
      [
       -22.4671,
       77.1661
      ],
      [
       -22.502,
       77.1048
      ],
      [
       -22.5361,
       77.0435
      ],
      [
       -22.5696,
       76.9823
      ],
      [
       -22.6022,
       76.9212
      ],
      [
       -22.6347,
       76.8493
      ],
      [
       -22.6658,
       76.7883
      ],
      [
       -22.6963,
       76.7275
      ],
      [
       -22.7262,
       76.6667
      ],
      [
       -22.7554,
       76.606
      ],
      [
       -22.7839,
       76.5454
      ],
      [
       -22.8118,
       76.4848
      ],
      [
       -22.8391,
       76.4244
      ],
      [
       -22.8658,
       76.364
      ],
      [
       -22.8919,
       76.3036
      ],
      [
       -22.9174,
       76.2434
      ],
      [
       -22.9423,
       76.1832
      ],
      [
       -22.9666,
       76.1231
      ],
      [
       -22.9904,
       76.0631
      ],
      [
       -23.0136,
       76.0031
      ],
      [
       -23.0363,
       75.9433
      ],
      [
       -23.0584,
       75.8834
      ],
      [
       -23.08,
       75.8237
      ],
      [
       -23.1011,
       75.764
      ],
      [
       -23.1217,
       75.7044
      ],
      [
       -23.1418,
       75.6449
      ],
      [
       -23.1614,
       75.5855
      ],
      [
       -23.1805,
       75.5261
      ],
      [
       -23.1991,
       75.4668
      ],
      [
       -23.2173,
       75.4075
      ],
      [
       -23.235,
       75.3483
      ],
      [
       -23.2522,
       75.2892
      ],
      [
       -23.269,
       75.2302
      ],
      [
       -23.2854,
       75.1712
      ],
      [
       -23.3013,
       75.1123
      ],
      [
       -23.3167,
       75.0535
      ],
      [
       -23.3318,
       74.9947
      ],
      [
       -23.3464,
       74.936
      ],
      [
       -23.3606,
       74.8774
      ],
      [
       -23.3733,
       74.808
      ],
      [
       -23.3866,
       74.7496
      ],
      [
       -23.3995,
       74.6911
      ],
      [
       -23.4121,
       74.6328
      ],
      [
       -23.4243,
       74.5745
      ],
      [
       -23.4361,
       74.5162
      ],
      [
       -23.4475,
       74.4581
      ],
      [
       -23.4586,
       74.4
      ],
      [
       -23.4693,
       74.3419
      ],
      [
       -23.4796,
       74.2839
      ],
      [
       -23.4896,
       74.226
      ],
      [
       -23.4993,
       74.1682
      ],
      [
       -23.5086,
       74.1104
      ],
      [
       -23.5176,
       74.0526
      ],
      [
       -23.5262,
       73.995
      ],
      [
       -23.5345,
       73.9374
      ],
      [
       -23.5425,
       73.8798
      ],
      [
       -23.5502,
       73.8223
      ],
      [
       -23.5575,
       73.7649
      ],
      [
       -23.5646,
       73.7075
      ],
      [
       -23.5713,
       73.6502
      ],
      [
       -23.5777,
       73.593
      ],
      [
       -23.5839,
       73.5358
      ],
      [
       -23.5897,
       73.4787
      ],
      [
       -23.5953,
       73.4216
      ],
      [
       -23.6005,
       73.3646
      ],
      [
       -23.6055,
       73.3076
      ],
      [
       -23.6102,
       73.2507
      ],
      [
       -23.6146,
       73.1939
      ],
      [
       -23.6188,
       73.1371
      ],
      [
       -23.6227,
       73.0804
      ],
      [
       -23.6263,
       73.0237
      ],
      [
       -23.6296,
       72.9671
      ],
      [
       -23.6327,
       72.9105
      ],
      [
       -23.6356,
       72.854
      ],
      [
       -23.6381,
       72.7976
      ],
      [
       -23.6405,
       72.7412
      ],
      [
       -23.6425,
       72.6848
      ],
      [
       -23.6444,
       72.6285
      ],
      [
       -23.646,
       72.5723
      ],
      [
       -23.6473,
       72.5161
      ],
      [
       -23.6485,
       72.46
      ],
      [
       -23.647,
       72.3934
      ],
      [
       -23.6476,
       72.3374
      ],
      [
       -23.6479,
       72.2814
      ],
      [
       -23.6481,
       72.2255
      ],
      [
       -23.648,
       72.1697
      ],
      [
       -23.6477,
       72.1139
      ],
      [
       -23.6472,
       72.0581
      ],
      [
       -23.6465,
       72.0024
      ],
      [
       -23.6456,
       71.9468
      ],
      [
       -23.6444,
       71.8912
      ],
      [
       -23.6431,
       71.8356
      ],
      [
       -23.6415,
       71.7801
      ],
      [
       -23.6398,
       71.7247
      ],
      [
       -23.6378,
       71.6693
      ],
      [
       -23.6356,
       71.6139
      ],
      [
       -23.6333,
       71.5586
      ],
      [
       -23.6307,
       71.5033
      ],
      [
       -23.628,
       71.4481
      ],
      [
       -23.625,
       71.393
      ],
      [
       -23.6219,
       71.3379
      ],
      [
       -23.6186,
       71.2828
      ],
      [
       -23.6151,
       71.2278
      ],
      [
       -23.6114,
       71.1728
      ],
      [
       -23.6075,
       71.1179
      ],
      [
       -23.6035,
       71.063
      ],
      [
       -23.5993,
       71.0082
      ],
      [
       -23.5949,
       70.9534
      ],
      [
       -23.5903,
       70.8987
      ],
      [
       -23.5855,
       70.844
      ],
      [
       -23.5806,
       70.7893
      ],
      [
       -23.5755,
       70.7347
      ],
      [
       -23.5703,
       70.6802
      ],
      [
       -23.5649,
       70.6256
      ],
      [
       -23.5593,
       70.5712
      ],
      [
       -23.5535,
       70.5167
      ],
      [
       -23.5476,
       70.4624
      ],
      [
       -23.5415,
       70.408
      ],
      [
       -23.5353,
       70.3537
      ],
      [
       -23.5289,
       70.2995
      ],
      [
       -23.5224,
       70.2453
      ],
      [
       -23.5157,
       70.1911
      ],
      [
       -23.5088,
       70.137
      ],
      [
       -23.5018,
       70.0829
      ],
      [
       -23.4947,
       70.0288
      ],
      [
       -23.4874,
       69.9748
      ],
      [
       -23.4799,
       69.9209
      ],
      [
       -23.4723,
       69.867
      ],
      [
       -23.4646,
       69.8131
      ],
      [
       -23.4567,
       69.7592
      ],
      [
       -23.4487,
       69.7054
      ],
      [
       -23.4405,
       69.6517
      ],
      [
       -23.4322,
       69.598
      ],
      [
       -23.4237,
       69.5443
      ],
      [
       -23.4151,
       69.4906
      ],
      [
       -23.4064,
       69.437
      ],
      [
       -23.3976,
       69.3835
      ],
      [
       -23.3852,
       69.3197
      ],
      [
       -23.376,
       69.2662
      ],
      [
       -23.3667,
       69.2128
      ],
      [
       -23.3573,
       69.1594
      ],
      [
       -23.3477,
       69.106
      ],
      [
       -23.338,
       69.0527
      ],
      [
       -23.3282,
       68.9994
      ],
      [
       -23.3183,
       68.9462
      ],
      [
       -23.3082,
       68.893
      ],
      [
       -23.298,
       68.8398
      ],
      [
       -23.2877,
       68.7866
      ],
      [
       -23.2772,
       68.7335
      ],
      [
       -23.2667,
       68.6805
      ],
      [
       -23.256,
       68.6274
      ],
      [
       -23.2452,
       68.5744
      ],
      [
       -23.2342,
       68.5215
      ],
      [
       -23.2232,
       68.4685
      ],
      [
       -23.212,
       68.4156
      ],
      [
       -23.2007,
       68.3628
      ],
      [
       -23.1893,
       68.31
      ],
      [
       -23.1778,
       68.2572
      ],
      [
       -23.1662,
       68.2044
      ],
      [
       -23.1544,
       68.1517
      ],
      [
       -23.1426,
       68.099
      ],
      [
       -23.1306,
       68.0463
      ],
      [
       -23.1185,
       67.9937
      ],
      [
       -23.1063,
       67.9411
      ],
      [
       -23.094,
       67.8886
      ],
      [
       -23.0816,
       67.836
      ],
      [
       -23.069,
       67.7836
      ],
      [
       -23.0564,
       67.7311
      ],
      [
       -23.0436,
       67.6787
      ],
      [
       -23.0308,
       67.6263
      ],
      [
       -23.0178,
       67.5739
      ],
      [
       -23.0047,
       67.5216
      ],
      [
       -22.9915,
       67.4693
      ],
      [
       -22.9782,
       67.417
      ],
      [
       -22.9648,
       67.3648
      ],
      [
       -22.9514,
       67.3125
      ],
      [
       -22.9377,
       67.2604
      ],
      [
       -22.924,
       67.2082
      ],
      [
       -22.9102,
       67.1561
      ],
      [
       -22.8963,
       67.104
      ],
      [
       -22.8823,
       67.0519
      ],
      [
       -22.8682,
       66.9999
      ],
      [
       -22.854,
       66.9479
      ],
      [
       -22.8397,
       66.8959
      ],
      [
       -22.8253,
       66.844
      ],
      [
       -22.8108,
       66.7921
      ],
      [
       -22.7961,
       66.7402
      ],
      [
       -22.7814,
       66.6883
      ],
      [
       -22.7666,
       66.6365
      ],
      [
       -22.7517,
       66.5847
      ],
      [
       -22.7367,
       66.5329
      ],
      [
       -22.7216,
       66.4812
      ],
      [
       -22.7064,
       66.4294
      ],
      [
       -22.6911,
       66.3777
      ],
      [
       -22.6758,
       66.3261
      ],
      [
       -22.6603,
       66.2744
      ],
      [
       -22.6447,
       66.2228
      ],
      [
       -22.629,
       66.1712
      ],
      [
       -22.6133,
       66.1197
      ],
      [
       -22.5974,
       66.0681
      ],
      [
       -22.5815,
       66.0166
      ],
      [
       -22.5654,
       65.9651
      ],
      [
       -22.5493,
       65.9137
      ],
      [
       -22.5331,
       65.8622
      ],
      [
       -22.5167,
       65.8108
      ],
      [
       -22.5003,
       65.7594
      ],
      [
       -22.4838,
       65.7081
      ],
      [
       -22.4672,
       65.6567
      ],
      [
       -22.4506,
       65.6054
      ],
      [
       -22.4338,
       65.5541
      ],
      [
       -22.4169,
       65.5029
      ],
      [
       -22.3956,
       65.4417
      ],
      [
       -22.3786,
       65.3905
      ],
      [
       -22.3614,
       65.3393
      ],
      [
       -22.3442,
       65.2882
      ],
      [
       -22.3269,
       65.237
      ],
      [
       -22.3095,
       65.1859
      ],
      [
       -22.292,
       65.1348
      ],
      [
       -22.2744,
       65.0837
      ],
      [
       -22.2567,
       65.0327
      ],
      [
       -22.2389,
       64.9817
      ],
      [
       -22.2211,
       64.9306
      ],
      [
       -22.2031,
       64.8797
      ],
      [
       -22.1851,
       64.8287
      ],
      [
       -22.167,
       64.7777
      ],
      [
       -22.1488,
       64.7268
      ],
      [
       -22.1305,
       64.6759
      ],
      [
       -22.1121,
       64.625
      ],
      [
       -22.0937,
       64.5742
      ],
      [
       -22.0752,
       64.5233
      ],
      [
       -22.0565,
       64.4725
      ],
      [
       -22.0378,
       64.4217
      ],
      [
       -22.019,
       64.3709
      ],
      [
       -22.0001,
       64.3202
      ],
      [
       -21.9812,
       64.2694
      ],
      [
       -21.9621,
       64.2187
      ],
      [
       -21.943,
       64.168
      ],
      [
       -21.9238,
       64.1173
      ],
      [
       -21.9045,
       64.0667
      ],
      [
       -21.8851,
       64.016
      ],
      [
       -21.8656,
       63.9654
      ],
      [
       -21.8461,
       63.9148
      ],
      [
       -21.8265,
       63.8642
      ],
      [
       -21.8067,
       63.8136
      ],
      [
       -21.7869,
       63.763
      ],
      [
       -21.7671,
       63.7125
      ],
      [
       -21.7471,
       63.662
      ],
      [
       -21.727,
       63.6115
      ],
      [
       -21.7069,
       63.561
      ],
      [
       -21.6867,
       63.5105
      ],
      [
       -21.6664,
       63.4601
      ],
      [
       -21.646,
       63.4096
      ],
      [
       -21.6256,
       63.3592
      ],
      [
       -21.605,
       63.3088
      ],
      [
       -21.5844,
       63.2584
      ],
      [
       -21.5637,
       63.208
      ],
      [
       -21.5429,
       63.1577
      ],
      [
       -21.522,
       63.1073
      ],
      [
       -21.501,
       63.057
      ],
      [
       -21.48,
       63.0067
      ],
      [
       -21.4589,
       62.9564
      ],
      [
       -21.4377,
       62.9061
      ],
      [
       -21.4164,
       62.8559
      ],
      [
       -21.395,
       62.8056
      ],
      [
       -21.3736,
       62.7554
      ],
      [
       -21.3521,
       62.7051
      ],
      [
       -21.3304,
       62.6549
      ],
      [
       -21.3087,
       62.6047
      ],
      [
       -21.287,
       62.5546
      ],
      [
       -21.2651,
       62.5044
      ],
      [
       -21.2432,
       62.4542
      ],
      [
       -21.2211,
       62.4041
      ],
      [
       -21.199,
       62.354
      ],
      [
       -21.1768,
       62.3038
      ],
      [
       -21.1546,
       62.2537
      ],
      [
       -21.1322,
       62.2036
      ],
      [
       -21.1098,
       62.1536
      ],
      [
       -21.0873,
       62.1035
      ],
      [
       -21.0647,
       62.0534
      ],
      [
       -21.042,
       62.0034
      ],
      [
       -21.0192,
       61.9534
      ],
      [
       -20.9964,
       61.9033
      ],
      [
       -20.9734,
       61.8533
      ],
      [
       -20.9504,
       61.8033
      ],
      [
       -20.9273,
       61.7533
      ],
      [
       -20.9041,
       61.7034
      ],
      [
       -20.8809,
       61.6534
      ],
      [
       -20.8575,
       61.6034
      ],
      [
       -20.8341,
       61.5535
      ],
      [
       -20.8106,
       61.5036
      ],
      [
       -20.787,
       61.4536
      ],
      [
       -20.7633,
       61.4037
      ],
      [
       -20.7396,
       61.3538
      ],
      [
       -20.7157,
       61.3039
      ],
      [
       -20.6918,
       61.254
      ],
      [
       -20.6678,
       61.2041
      ],
      [
       -20.6437,
       61.1543
      ],
      [
       -20.6195,
       61.1044
      ],
      [
       -20.5952,
       61.0545
      ],
      [
       -20.5709,
       61.0047
      ],
      [
       -20.5465,
       60.9549
      ],
      [
       -20.5219,
       60.905
      ],
      [
       -20.4973,
       60.8552
      ],
      [
       -20.4727,
       60.8054
      ],
      [
       -20.4479,
       60.7556
      ],
      [
       -20.423,
       60.7058
      ],
      [
       -20.3981,
       60.656
      ],
      [
       -20.3731,
       60.6062
      ],
      [
       -20.3479,
       60.5564
      ],
      [
       -20.3227,
       60.5066
      ],
      [
       -20.2975,
       60.4569
      ],
      [
       -20.2721,
       60.4071
      ],
      [
       -20.2466,
       60.3573
      ],
      [
       -20.2211,
       60.3076
      ],
      [
       -20.1955,
       60.2578
      ],
      [
       -20.1697,
       60.2081
      ],
      [
       -20.1439,
       60.1584
      ],
      [
       -20.118,
       60.1086
      ],
      [
       -20.0921,
       60.0589
      ],
      [
       -20.0604,
       59.9997
      ],
      [
       -20.0343,
       59.9499
      ],
      [
       -20.008,
       59.9002
      ],
      [
       -19.9816,
       59.8505
      ],
      [
       -19.9552,
       59.8008
      ],
      [
       -19.9287,
       59.7511
      ],
      [
       -19.9021,
       59.7014
      ],
      [
       -19.8754,
       59.6517
      ],
      [
       -19.8486,
       59.6021
      ],
      [
       -19.8217,
       59.5524
      ],
      [
       -19.7947,
       59.5027
      ],
      [
       -19.7676,
       59.453
      ],
      [
       -19.7405,
       59.4033
      ],
      [
       -19.7132,
       59.3537
      ],
      [
       -19.6859,
       59.304
      ],
      [
       -19.6585,
       59.2543
      ],
      [
       -19.6309,
       59.2046
      ],
      [
       -19.6033,
       59.155
      ],
      [
       -19.5756,
       59.1053
      ],
      [
       -19.5478,
       59.0556
      ],
      [
       -19.5199,
       59.006
      ],
      [
       -19.4919,
       58.9563
      ],
      [
       -19.4639,
       58.9066
      ],
      [
       -19.4357,
       58.857
      ],
      [
       -19.4074,
       58.8073
      ],
      [
       -19.3791,
       58.7576
      ],
      [
       -19.3506,
       58.708
      ],
      [
       -19.3221,
       58.6583
      ],
      [
       -19.2934,
       58.6086
      ],
      [
       -19.2647,
       58.559
      ],
      [
       -19.2358,
       58.5093
      ],
      [
       -19.2069,
       58.4596
      ],
      [
       -19.1779,
       58.41
      ],
      [
       -19.1487,
       58.3603
      ],
      [
       -19.1195,
       58.3106
      ],
      [
       -19.0902,
       58.2609
      ],
      [
       -19.0608,
       58.2113
      ],
      [
       -19.0312,
       58.1616
      ],
      [
       -19.0016,
       58.1119
      ],
      [
       -18.9719,
       58.0622
      ],
      [
       -18.9421,
       58.0125
      ],
      [
       -18.9122,
       57.9628
      ],
      [
       -18.8822,
       57.9131
      ],
      [
       -18.852,
       57.8634
      ],
      [
       -18.8218,
       57.8137
      ],
      [
       -18.7915,
       57.764
      ],
      [
       -18.7611,
       57.7143
      ],
      [
       -18.7305,
       57.6645
      ],
      [
       -18.6999,
       57.6148
      ],
      [
       -18.6692,
       57.5651
      ],
      [
       -18.6383,
       57.5153
      ],
      [
       -18.6074,
       57.4656
      ],
      [
       -18.5763,
       57.4159
      ],
      [
       -18.5452,
       57.3661
      ],
      [
       -18.5139,
       57.3163
      ],
      [
       -18.4826,
       57.2666
      ],
      [
       -18.4511,
       57.2168
      ],
      [
       -18.4195,
       57.167
      ],
      [
       -18.3878,
       57.1172
      ],
      [
       -18.356,
       57.0674
      ],
      [
       -18.3241,
       57.0176
      ],
      [
       -18.2921,
       56.9678
      ],
      [
       -18.26,
       56.918
      ],
      [
       -18.2277,
       56.8682
      ],
      [
       -18.1954,
       56.8183
      ],
      [
       -18.1629,
       56.7685
      ],
      [
       -18.1304,
       56.7186
      ],
      [
       -18.0977,
       56.6688
      ],
      [
       -18.0649,
       56.6189
      ],
      [
       -18.032,
       56.569
      ],
      [
       -17.999,
       56.5191
      ],
      [
       -17.9658,
       56.4692
      ],
      [
       -17.9326,
       56.4193
      ],
      [
       -17.8992,
       56.3694
      ],
      [
       -17.8657,
       56.3194
      ],
      [
       -17.8321,
       56.2695
      ],
      [
       -17.7984,
       56.2195
      ],
      [
       -17.7645,
       56.1695
      ],
      [
       -17.7306,
       56.1196
      ],
      [
       -17.6965,
       56.0696
      ],
      [
       -17.6623,
       56.0196
      ],
      [
       -17.628,
       55.9695
      ],
      [
       -17.5935,
       55.9195
      ],
      [
       -17.559,
       55.8694
      ],
      [
       -17.5243,
       55.8194
      ],
      [
       -17.4895,
       55.7693
      ],
      [
       -17.4546,
       55.7192
      ],
      [
       -17.4195,
       55.6691
      ],
      [
       -17.3843,
       55.619
      ],
      [
       -17.349,
       55.5689
      ],
      [
       -17.3136,
       55.5187
      ],
      [
       -17.278,
       55.4685
      ],
      [
       -17.2423,
       55.4184
      ],
      [
       -17.2065,
       55.3682
      ],
      [
       -17.1705,
       55.3179
      ],
      [
       -17.1344,
       55.2677
      ],
      [
       -17.0982,
       55.2175
      ],
      [
       -17.0619,
       55.1672
      ],
      [
       -17.0254,
       55.1169
      ],
      [
       -16.9888,
       55.0666
      ],
      [
       -16.952,
       55.0163
      ],
      [
       -16.9151,
       54.9659
      ],
      [
       -16.8781,
       54.9156
      ],
      [
       -16.8409,
       54.8652
      ],
      [
       -16.8036,
       54.8148
      ],
      [
       -16.7662,
       54.7644
      ],
      [
       -16.7286,
       54.7139
      ],
      [
       -16.6909,
       54.6635
      ],
      [
       -16.653,
       54.613
      ],
      [
       -16.615,
       54.5625
      ],
      [
       -16.5769,
       54.512
      ],
      [
       -16.5386,
       54.4614
      ],
      [
       -16.5001,
       54.4109
      ],
      [
       -16.4616,
       54.3603
      ],
      [
       -16.4228,
       54.3097
      ],
      [
       -16.3839,
       54.259
      ],
      [
       -16.3449,
       54.2084
      ],
      [
       -16.3057,
       54.1577
      ],
      [
       -16.2664,
       54.107
      ],
      [
       -16.2269,
       54.0563
      ],
      [
       -16.1873,
       54.0055
      ],
      [
       -16.1475,
       53.9547
      ],
      [
       -16.1075,
       53.9039
      ],
      [
       -16.0674,
       53.8531
      ],
      [
       -16.0271,
       53.8022
      ],
      [
       -15.9867,
       53.7513
      ],
      [
       -15.9461,
       53.7004
      ],
      [
       -15.9054,
       53.6495
      ],
      [
       -15.8645,
       53.5985
      ],
      [
       -15.8234,
       53.5475
      ],
      [
       -15.7822,
       53.4965
      ],
      [
       -15.7408,
       53.4454
      ],
      [
       -15.6992,
       53.3943
      ],
      [
       -15.6575,
       53.3432
      ],
      [
       -15.6156,
       53.2921
      ],
      [
       -15.5735,
       53.2409
      ],
      [
       -15.5312,
       53.1897
      ],
      [
       -15.4888,
       53.1384
      ],
      [
       -15.4462,
       53.0872
      ],
      [
       -15.4034,
       53.0358
      ],
      [
       -15.3605,
       52.9845
      ],
      [
       -15.3173,
       52.9331
      ],
      [
       -15.274,
       52.8817
      ],
      [
       -15.2305,
       52.8303
      ],
      [
       -15.1868,
       52.7788
      ],
      [
       -15.143,
       52.7273
      ],
      [
       -15.0989,
       52.6757
      ],
      [
       -15.0547,
       52.6242
      ],
      [
       -15.0103,
       52.5725
      ],
      [
       -14.9656,
       52.5209
      ],
      [
       -14.9208,
       52.4692
      ],
      [
       -14.8758,
       52.4174
      ],
      [
       -14.8306,
       52.3657
      ],
      [
       -14.7852,
       52.3138
      ],
      [
       -14.7396,
       52.262
      ],
      [
       -14.6938,
       52.2101
      ],
      [
       -14.6478,
       52.1582
      ],
      [
       -14.6016,
       52.1062
      ],
      [
       -14.5552,
       52.0542
      ],
      [
       -14.5086,
       52.0021
      ],
      [
       -14.4618,
       51.95
      ],
      [
       -14.4147,
       51.8978
      ],
      [
       -14.3675,
       51.8456
      ],
      [
       -14.32,
       51.7934
      ],
      [
       -14.2723,
       51.7411
      ],
      [
       -14.2244,
       51.6888
      ],
      [
       -14.1763,
       51.6364
      ],
      [
       -14.128,
       51.584
      ],
      [
       -14.0794,
       51.5315
      ],
      [
       -14.0306,
       51.479
      ],
      [
       -13.9816,
       51.4264
      ],
      [
       -13.9323,
       51.3738
      ],
      [
       -13.8828,
       51.3211
      ],
      [
       -13.8331,
       51.2684
      ],
      [
       -13.7831,
       51.2156
      ],
      [
       -13.7329,
       51.1628
      ],
      [
       -13.6825,
       51.1099
      ],
      [
       -13.6318,
       51.0569
      ],
      [
       -13.5808,
       51.0039
      ],
      [
       -13.5296,
       50.9509
      ],
      [
       -13.4782,
       50.8978
      ],
      [
       -13.4265,
       50.8446
      ],
      [
       -13.3746,
       50.7914
      ],
      [
       -13.3223,
       50.7381
      ],
      [
       -13.2699,
       50.6848
      ],
      [
       -13.2171,
       50.6314
      ],
      [
       -13.1641,
       50.5779
      ],
      [
       -13.1108,
       50.5244
      ],
      [
       -13.0573,
       50.4708
      ],
      [
       -13.0034,
       50.4171
      ],
      [
       -12.9493,
       50.3634
      ],
      [
       -12.8949,
       50.3096
      ],
      [
       -12.8403,
       50.2558
      ],
      [
       -12.7853,
       50.2019
      ],
      [
       -12.73,
       50.1479
      ],
      [
       -12.6745,
       50.0938
      ],
      [
       -12.6186,
       50.0397
      ],
      [
       -12.5625,
       49.9855
      ],
      [
       -12.506,
       49.9313
      ],
      [
       -12.4492,
       49.8769
      ],
      [
       -12.3922,
       49.8225
      ],
      [
       -12.3348,
       49.768
      ],
      [
       -12.2771,
       49.7134
      ],
      [
       -12.219,
       49.6588
      ],
      [
       -12.1607,
       49.6041
      ],
      [
       -12.102,
       49.5493
      ],
      [
       -12.0429,
       49.4944
      ],
      [
       -11.9836,
       49.4394
      ],
      [
       -11.9238,
       49.3844
      ],
      [
       -11.8638,
       49.3292
      ],
      [
       -11.8034,
       49.274
      ],
      [
       -11.7426,
       49.2187
      ],
      [
       -11.6815,
       49.1633
      ],
      [
       -11.62,
       49.1078
      ],
      [
       -11.5581,
       49.0522
      ],
      [
       -11.4959,
       48.9965
      ],
      [
       -11.4333,
       48.9408
      ],
      [
       -11.3703,
       48.8849
      ],
      [
       -11.3069,
       48.8289
      ],
      [
       -11.2431,
       48.7729
      ],
      [
       -11.1789,
       48.7167
      ],
      [
       -11.1143,
       48.6605
      ],
      [
       -11.0493,
       48.6041
      ],
      [
       -10.9839,
       48.5476
      ],
      [
       -10.9181,
       48.4911
      ],
      [
       -10.8518,
       48.4344
      ],
      [
       -10.7851,
       48.3776
      ],
      [
       -10.7179,
       48.3207
      ],
      [
       -10.6503,
       48.2636
      ],
      [
       -10.5823,
       48.2065
      ],
      [
       -10.5138,
       48.1493
      ],
      [
       -10.4448,
       48.0919
      ],
      [
       -10.3754,
       48.0344
      ],
      [
       -10.3054,
       47.9768
      ],
      [
       -10.235,
       47.919
      ],
      [
       -10.1641,
       47.8611
      ],
      [
       -10.0927,
       47.8031
      ],
      [
       -10.0207,
       47.745
      ],
      [
       -9.9483,
       47.6867
      ],
      [
       -9.8753,
       47.6283
      ],
      [
       -9.8018,
       47.5698
      ],
      [
       -9.7277,
       47.5111
      ],
      [
       -9.6531,
       47.4522
      ],
      [
       -9.5779,
       47.3932
      ],
      [
       -9.5021,
       47.3341
      ],
      [
       -9.4257,
       47.2748
      ],
      [
       -9.3488,
       47.2154
      ],
      [
       -9.2712,
       47.1558
      ],
      [
       -9.193,
       47.096
      ],
      [
       -9.1142,
       47.0361
      ],
      [
       -9.0348,
       46.976
      ],
      [
       -8.9547,
       46.9157
      ],
      [
       -8.8739,
       46.8552
      ],
      [
       -8.7925,
       46.7946
      ],
      [
       -8.7104,
       46.7338
      ],
      [
       -8.6275,
       46.6728
      ],
      [
       -8.544,
       46.6116
      ],
      [
       -8.4597,
       46.5502
      ],
      [
       -8.3747,
       46.4886
      ],
      [
       -8.2755,
       46.4167
      ],
      [
       -8.1888,
       46.3547
      ],
      [
       -8.1014,
       46.2924
      ],
      [
       -8.0131,
       46.23
      ],
      [
       -7.924,
       46.1673
      ],
      [
       -7.834,
       46.1044
      ],
      [
       -7.7432,
       46.0413
      ],
      [
       -7.6515,
       45.9779
      ],
      [
       -7.5588,
       45.9143
      ],
      [
       -7.4653,
       45.8504
      ],
      [
       -7.3708,
       45.7863
      ],
      [
       -7.2753,
       45.7219
      ],
      [
       -7.1788,
       45.6572
      ],
      [
       -7.0813,
       45.5923
      ],
      [
       -6.9827,
       45.5271
      ],
      [
       -6.8831,
       45.4616
      ],
      [
       -6.7823,
       45.3958
      ],
      [
       -6.6804,
       45.3296
      ],
      [
       -6.5774,
       45.2632
      ],
      [
       -6.4731,
       45.1964
      ],
      [
       -6.3676,
       45.1293
      ],
      [
       -6.2609,
       45.0619
      ],
      [
       -6.1528,
       44.9941
      ],
      [
       -6.0434,
       44.9259
      ],
      [
       -5.9326,
       44.8573
      ],
      [
       -5.8204,
       44.7884
      ],
      [
       -5.7066,
       44.719
      ],
      [
       -5.5914,
       44.6493
      ],
      [
       -5.4746,
       44.5791
      ],
      [
       -5.3562,
       44.5084
      ],
      [
       -5.236,
       44.4373
      ],
      [
       -5.1142,
       44.3657
      ],
      [
       -4.9905,
       44.2937
      ],
      [
       -4.8649,
       44.2211
      ],
      [
       -4.7374,
       44.1479
      ],
      [
       -4.6079,
       44.0742
      ],
      [
       -4.4763,
       44
      ],
      [
       -4.3424,
       43.9251
      ],
      [
       -4.2063,
       43.8496
      ],
      [
       -4.0678,
       43.7734
      ],
      [
       -3.9268,
       43.6966
      ],
      [
       -3.7832,
       43.619
      ],
      [
       -3.6369,
       43.5407
      ],
      [
       -3.4678,
       43.4497
      ],
      [
       -3.3152,
       43.3697
      ],
      [
       -3.1594,
       43.2888
      ],
      [
       -3.0002,
       43.2069
      ],
      [
       -2.8375,
       43.1241
      ],
      [
       -2.671,
       43.0402
      ],
      [
       -2.5005,
       42.9552
      ],
      [
       -2.3257,
       42.869
      ],
      [
       -2.1463,
       42.7816
      ],
      [
       -1.9621,
       42.6928
      ],
      [
       -1.7726,
       42.6026
      ],
      [
       -1.5538,
       42.4978
      ],
      [
       -1.3519,
       42.4042
      ],
      [
       -1.1433,
       42.3086
      ],
      [
       -0.9273,
       42.2111
      ],
      [
       -0.7033,
       42.1113
      ],
      [
       -0.4704,
       42.0091
      ],
      [
       -0.2004,
       41.8901
      ],
      [
       0.0548,
       41.7817
      ],
      [
       0.3227,
       41.6698
      ],
      [
       0.6346,
       41.5391
      ],
      [
       0.9362,
       41.4178
      ],
      [
       1.2893,
       41.2756
      ],
      [
       1.639,
       41.1411
      ],
      [
       2.0547,
       40.9815
      ],
      [
       2.5175,
       40.8087
      ],
      [
       3.0479,
       40.6172
      ],
      [
       3.7263,
       40.3773
      ],
      [
       4.6528,
       40.0686
      ],
      [
       5.7146,
       39.7819
      ],
      [
       5.0942,
       38.6752
      ],
      [
       3.4842,
       37.8987
      ],
      [
       2.7857,
       38.0881
      ],
      [
       2.2584,
       38.2446
      ],
      [
       2.0737,
       38.2999
      ],
      [
       1.6683,
       38.4224
      ],
      [
       0.9526,
       38.6497
      ],
      [
       0.3851,
       38.8374
      ],
      [
       -0.0982,
       39.0027
      ],
      [
       -0.5252,
       39.1529
      ],
      [
       -0.9113,
       39.2923
      ],
      [
       -1.2657,
       39.4232
      ],
      [
       -1.5949,
       39.5473
      ],
      [
       -1.9033,
       39.6659
      ],
      [
       -2.194,
       39.7798
      ],
      [
       -2.4697,
       39.8896
      ],
      [
       -2.7323,
       39.996
      ],
      [
       -2.9833,
       40.0992
      ],
      [
       -3.2241,
       40.1997
      ],
      [
       -3.4557,
       40.2978
      ],
      [
       -3.6789,
       40.3936
      ],
      [
       -3.8946,
       40.4874
      ],
      [
       -4.1034,
       40.5793
      ],
      [
       -4.3058,
       40.6696
      ],
      [
       -4.5023,
       40.7583
      ],
      [
       -4.6934,
       40.8455
      ],
      [
       -4.8795,
       40.9313
      ],
      [
       -5.0608,
       41.016
      ],
      [
       -5.2378,
       41.0994
      ],
      [
       -5.4105,
       41.1817
      ],
      [
       -5.5794,
       41.263
      ],
      [
       -5.7446,
       41.3432
      ],
      [
       -5.9063,
       41.4226
      ],
      [
       -6.0647,
       41.5011
      ],
      [
       -6.22,
       41.5787
      ],
      [
       -6.3723,
       41.6556
      ],
      [
       -6.5218,
       41.7316
      ],
      [
       -6.6686,
       41.807
      ],
      [
       -6.8128,
       41.8817
      ],
      [
       -6.9546,
       41.9557
      ],
      [
       -7.0939,
       42.0291
      ],
      [
       -7.2311,
       42.1019
      ],
      [
       -7.2951,
       42.1362
      ],
      [
       -7.3182,
       42.1508
      ],
      [
       -7.4517,
       42.2226
      ],
      [
       -7.5831,
       42.2938
      ],
      [
       -7.7125,
       42.3645
      ],
      [
       -7.8401,
       42.4348
      ],
      [
       -7.9659,
       42.5045
      ],
      [
       -8.1127,
       42.5851
      ],
      [
       -8.2348,
       42.6538
      ],
      [
       -8.3553,
       42.7222
      ],
      [
       -8.4742,
       42.7901
      ],
      [
       -8.5916,
       42.8576
      ],
      [
       -8.7075,
       42.9247
      ],
      [
       -8.8219,
       42.9914
      ],
      [
       -8.935,
       43.0578
      ],
      [
       -9.0467,
       43.1238
      ],
      [
       -9.1572,
       43.1895
      ],
      [
       -9.2663,
       43.2548
      ],
      [
       -9.3939,
       43.3305
      ],
      [
       -9.5004,
       43.3951
      ],
      [
       -9.6059,
       43.4595
      ],
      [
       -9.7101,
       43.5235
      ],
      [
       -9.8133,
       43.5872
      ],
      [
       -9.9154,
       43.6507
      ],
      [
       -10.0164,
       43.7139
      ],
      [
       -10.1164,
       43.7768
      ],
      [
       -10.2155,
       43.8394
      ],
      [
       -10.3135,
       43.9018
      ],
      [
       -10.4106,
       43.964
      ],
      [
       -10.5068,
       44.0259
      ],
      [
       -10.6021,
       44.0875
      ],
      [
       -10.6965,
       44.1489
      ],
      [
       -10.79,
       44.2101
      ],
      [
       -10.8827,
       44.2711
      ],
      [
       -10.9745,
       44.3319
      ],
      [
       -11.082,
       44.4026
      ],
      [
       -11.1721,
       44.4629
      ],
      [
       -11.2615,
       44.523
      ],
      [
       -11.3501,
       44.5829
      ],
      [
       -11.4379,
       44.6426
      ],
      [
       -11.5251,
       44.7021
      ],
      [
       -11.6115,
       44.7615
      ],
      [
       -11.6972,
       44.8206
      ],
      [
       -11.7822,
       44.8796
      ],
      [
       -11.8666,
       44.9384
      ],
      [
       -11.9502,
       44.997
      ],
      [
       -12.0333,
       45.0555
      ],
      [
       -12.1157,
       45.1138
      ],
      [
       -12.1975,
       45.1719
      ],
      [
       -12.2786,
       45.2299
      ],
      [
       -12.3592,
       45.2877
      ],
      [
       -12.4392,
       45.3453
      ],
      [
       -12.5185,
       45.4028
      ],
      [
       -12.5974,
       45.4602
      ],
      [
       -12.6756,
       45.5174
      ],
      [
       -12.7533,
       45.5745
      ],
      [
       -12.8305,
       45.6314
      ],
      [
       -12.9071,
       45.6882
      ],
      [
       -12.9832,
       45.7449
      ],
      [
       -13.0588,
       45.8014
      ],
      [
       -13.1338,
       45.8578
      ],
      [
       -13.2084,
       45.9141
      ],
      [
       -13.2825,
       45.9702
      ],
      [
       -13.356,
       46.0262
      ],
      [
       -13.4291,
       46.0821
      ],
      [
       -13.5018,
       46.1379
      ],
      [
       -13.574,
       46.1935
      ],
      [
       -13.6587,
       46.2587
      ],
      [
       -13.7299,
       46.3142
      ],
      [
       -13.8007,
       46.3695
      ],
      [
       -13.871,
       46.4247
      ],
      [
       -13.9409,
       46.4797
      ],
      [
       -14.0104,
       46.5347
      ],
      [
       -14.0794,
       46.5896
      ],
      [
       -14.1481,
       46.6443
      ],
      [
       -14.2163,
       46.699
      ],
      [
       -14.2842,
       46.7536
      ],
      [
       -14.3516,
       46.808
      ],
      [
       -14.4187,
       46.8624
      ],
      [
       -14.4853,
       46.9167
      ],
      [
       -14.5516,
       46.9709
      ],
      [
       -14.6175,
       47.0249
      ],
      [
       -14.6831,
       47.0789
      ],
      [
       -14.7483,
       47.1328
      ],
      [
       -14.8131,
       47.1866
      ],
      [
       -14.8776,
       47.2404
      ],
      [
       -14.9417,
       47.294
      ],
      [
       -15.0054,
       47.3475
      ],
      [
       -15.0689,
       47.401
      ],
      [
       -15.132,
       47.4544
      ],
      [
       -15.1947,
       47.5077
      ],
      [
       -15.2571,
       47.5609
      ],
      [
       -15.3193,
       47.6141
      ],
      [
       -15.381,
       47.6671
      ],
      [
       -15.4425,
       47.7201
      ],
      [
       -15.5037,
       47.773
      ],
      [
       -15.5645,
       47.8258
      ],
      [
       -15.625,
       47.8786
      ],
      [
       -15.6853,
       47.9313
      ],
      [
       -15.7452,
       47.9839
      ],
      [
       -15.8048,
       48.0364
      ],
      [
       -15.8642,
       48.0889
      ],
      [
       -15.9232,
       48.1413
      ],
      [
       -15.982,
       48.1936
      ],
      [
       -16.0405,
       48.2459
      ],
      [
       -16.0987,
       48.2981
      ],
      [
       -16.1567,
       48.3502
      ],
      [
       -16.2143,
       48.4023
      ],
      [
       -16.2717,
       48.4543
      ],
      [
       -16.3288,
       48.5063
      ],
      [
       -16.3857,
       48.5581
      ],
      [
       -16.4423,
       48.6099
      ],
      [
       -16.4986,
       48.6617
      ],
      [
       -16.5547,
       48.7134
      ],
      [
       -16.6106,
       48.765
      ],
      [
       -16.6661,
       48.8166
      ],
      [
       -16.7215,
       48.8681
      ],
      [
       -16.7766,
       48.9196
      ],
      [
       -16.8314,
       48.971
      ],
      [
       -16.886,
       49.0223
      ],
      [
       -16.9404,
       49.0736
      ],
      [
       -16.9945,
       49.1249
      ],
      [
       -17.0484,
       49.1761
      ],
      [
       -17.1021,
       49.2272
      ],
      [
       -17.1556,
       49.2783
      ],
      [
       -17.2088,
       49.3293
      ],
      [
       -17.2618,
       49.3803
      ],
      [
       -17.3145,
       49.4312
      ],
      [
       -17.3671,
       49.4821
      ],
      [
       -17.4194,
       49.5329
      ],
      [
       -17.4716,
       49.5837
      ],
      [
       -17.5235,
       49.6345
      ],
      [
       -17.5752,
       49.6852
      ],
      [
       -17.6362,
       49.7451
      ],
      [
       -17.6875,
       49.7957
      ],
      [
       -17.7385,
       49.8463
      ],
      [
       -17.7894,
       49.8968
      ],
      [
       -17.84,
       49.9472
      ],
      [
       -17.8905,
       49.9976
      ],
      [
       -17.9407,
       50.048
      ],
      [
       -17.9908,
       50.0983
      ],
      [
       -18.0406,
       50.1486
      ],
      [
       -18.0903,
       50.1989
      ],
      [
       -18.1398,
       50.2491
      ],
      [
       -18.1891,
       50.2992
      ],
      [
       -18.2382,
       50.3494
      ],
      [
       -18.2871,
       50.3994
      ],
      [
       -18.3358,
       50.4495
      ],
      [
       -18.3844,
       50.4995
      ],
      [
       -18.4328,
       50.5495
      ],
      [
       -18.481,
       50.5994
      ],
      [
       -18.529,
       50.6493
      ],
      [
       -18.5768,
       50.6991
      ],
      [
       -18.6245,
       50.749
      ],
      [
       -18.672,
       50.7987
      ],
      [
       -18.7193,
       50.8485
      ],
      [
       -18.7665,
       50.8982
      ],
      [
       -18.8135,
       50.9479
      ],
      [
       -18.8603,
       50.9975
      ],
      [
       -18.9069,
       51.0471
      ],
      [
       -18.9534,
       51.0967
      ],
      [
       -18.9998,
       51.1463
      ],
      [
       -19.0459,
       51.1958
      ],
      [
       -19.0919,
       51.2453
      ],
      [
       -19.1378,
       51.2947
      ],
      [
       -19.1835,
       51.3441
      ],
      [
       -19.229,
       51.3935
      ],
      [
       -19.2744,
       51.4429
      ],
      [
       -19.3196,
       51.4922
      ],
      [
       -19.3647,
       51.5415
      ],
      [
       -19.4097,
       51.5908
      ],
      [
       -19.4544,
       51.64
      ],
      [
       -19.4991,
       51.6892
      ],
      [
       -19.5436,
       51.7384
      ],
      [
       -19.5879,
       51.7876
      ],
      [
       -19.6321,
       51.8367
      ],
      [
       -19.6761,
       51.8858
      ],
      [
       -19.7201,
       51.9349
      ],
      [
       -19.7638,
       51.9839
      ],
      [
       -19.8074,
       52.0329
      ],
      [
       -19.8509,
       52.0819
      ],
      [
       -19.8943,
       52.1309
      ],
      [
       -19.9375,
       52.1798
      ],
      [
       -19.9806,
       52.2288
      ],
      [
       -20.0235,
       52.2776
      ],
      [
       -20.0663,
       52.3265
      ],
      [
       -20.109,
       52.3754
      ],
      [
       -20.1515,
       52.4242
      ],
      [
       -20.194,
       52.473
      ],
      [
       -20.2362,
       52.5218
      ],
      [
       -20.2784,
       52.5705
      ],
      [
       -20.3204,
       52.6193
      ],
      [
       -20.3623,
       52.668
      ],
      [
       -20.4041,
       52.7167
      ],
      [
       -20.4457,
       52.7653
      ],
      [
       -20.4873,
       52.814
      ],
      [
       -20.5287,
       52.8626
      ],
      [
       -20.5699,
       52.9112
      ],
      [
       -20.6111,
       52.9598
      ],
      [
       -20.6521,
       53.0084
      ],
      [
       -20.6931,
       53.0569
      ],
      [
       -20.7339,
       53.1054
      ],
      [
       -20.7745,
       53.1539
      ],
      [
       -20.8151,
       53.2024
      ],
      [
       -20.8555,
       53.2509
      ],
      [
       -20.8959,
       53.2994
      ],
      [
       -20.9361,
       53.3478
      ],
      [
       -20.9762,
       53.3962
      ],
      [
       -21.0162,
       53.4446
      ],
      [
       -21.0561,
       53.493
      ],
      [
       -21.0958,
       53.5414
      ],
      [
       -21.1355,
       53.5897
      ],
      [
       -21.1751,
       53.638
      ],
      [
       -21.2145,
       53.6864
      ],
      [
       -21.2538,
       53.7347
      ],
      [
       -21.293,
       53.7829
      ],
      [
       -21.3322,
       53.8312
      ],
      [
       -21.3712,
       53.8795
      ],
      [
       -21.4101,
       53.9277
      ],
      [
       -21.4489,
       53.9759
      ],
      [
       -21.4876,
       54.0242
      ],
      [
       -21.5262,
       54.0724
      ],
      [
       -21.5647,
       54.1205
      ],
      [
       -21.6031,
       54.1687
      ],
      [
       -21.6414,
       54.2169
      ],
      [
       -21.6795,
       54.265
      ],
      [
       -21.7176,
       54.3131
      ],
      [
       -21.7556,
       54.3613
      ],
      [
       -21.7935,
       54.4094
      ],
      [
       -21.8313,
       54.4575
      ],
      [
       -21.869,
       54.5055
      ],
      [
       -21.9066,
       54.5536
      ],
      [
       -21.9441,
       54.6017
      ],
      [
       -21.9815,
       54.6497
      ],
      [
       -22.0189,
       54.6978
      ],
      [
       -22.0561,
       54.7458
      ],
      [
       -22.0932,
       54.7938
      ],
      [
       -22.1303,
       54.8418
      ],
      [
       -22.1672,
       54.8898
      ],
      [
       -22.2041,
       54.9378
      ],
      [
       -22.2408,
       54.9858
      ],
      [
       -22.2775,
       55.0337
      ],
      [
       -22.3141,
       55.0817
      ],
      [
       -22.3506,
       55.1296
      ],
      [
       -22.387,
       55.1776
      ],
      [
       -22.4233,
       55.2255
      ],
      [
       -22.4596,
       55.2734
      ],
      [
       -22.4957,
       55.3213
      ],
      [
       -22.5318,
       55.3692
      ],
      [
       -22.5677,
       55.4171
      ],
      [
       -22.6036,
       55.465
      ],
      [
       -22.6394,
       55.5129
      ],
      [
       -22.6752,
       55.5608
      ],
      [
       -22.7108,
       55.6086
      ],
      [
       -22.7464,
       55.6565
      ],
      [
       -22.7818,
       55.7044
      ],
      [
       -22.8172,
       55.7522
      ],
      [
       -22.8526,
       55.8
      ],
      [
       -22.8878,
       55.8479
      ],
      [
       -22.9229,
       55.8957
      ],
      [
       -22.958,
       55.9435
      ],
      [
       -22.993,
       55.9913
      ],
      [
       -23.0279,
       56.0392
      ],
      [
       -23.0628,
       56.087
      ],
      [
       -23.0975,
       56.1348
      ],
      [
       -23.1322,
       56.1826
      ],
      [
       -23.1668,
       56.2304
      ],
      [
       -23.2013,
       56.2781
      ],
      [
       -23.2358,
       56.3259
      ],
      [
       -23.2702,
       56.3737
      ],
      [
       -23.3045,
       56.4215
      ],
      [
       -23.3387,
       56.4693
      ],
      [
       -23.3729,
       56.517
      ],
      [
       -23.407,
       56.5648
      ],
      [
       -23.441,
       56.6126
      ],
      [
       -23.4749,
       56.6603
      ],
      [
       -23.5088,
       56.7081
      ],
      [
       -23.5426,
       56.7558
      ],
      [
       -23.5763,
       56.8036
      ],
      [
       -23.6099,
       56.8513
      ],
      [
       -23.6435,
       56.8991
      ],
      [
       -23.677,
       56.9468
      ],
      [
       -23.7105,
       56.9946
      ],
      [
       -23.7439,
       57.0423
      ],
      [
       -23.7772,
       57.0901
      ],
      [
       -23.8104,
       57.1378
      ],
      [
       -23.8436,
       57.1855
      ],
      [
       -23.8767,
       57.2333
      ],
      [
       -23.9097,
       57.281
      ],
      [
       -23.9427,
       57.3287
      ],
      [
       -23.9756,
       57.3765
      ],
      [
       -24.0084,
       57.4242
      ],
      [
       -24.0412,
       57.472
      ],
      [
       -24.0739,
       57.5197
      ],
      [
       -24.1065,
       57.5674
      ],
      [
       -24.1391,
       57.6152
      ],
      [
       -24.1716,
       57.6629
      ],
      [
       -24.2041,
       57.7107
      ],
      [
       -24.2365,
       57.7584
      ],
      [
       -24.2688,
       57.8061
      ],
      [
       -24.3011,
       57.8539
      ],
      [
       -24.3333,
       57.9016
      ],
      [
       -24.3654,
       57.9494
      ],
      [
       -24.3975,
       57.9971
      ],
      [
       -24.4295,
       58.0449
      ],
      [
       -24.4615,
       58.0926
      ],
      [
       -24.4934,
       58.1404
      ],
      [
       -24.5252,
       58.1881
      ],
      [
       -24.557,
       58.2359
      ],
      [
       -24.5887,
       58.2837
      ],
      [
       -24.6204,
       58.3314
      ],
      [
       -24.652,
       58.3792
      ],
      [
       -24.6835,
       58.427
      ],
      [
       -24.715,
       58.4747
      ],
      [
       -24.7464,
       58.5225
      ],
      [
       -24.7778,
       58.5703
      ],
      [
       -24.8091,
       58.6181
      ],
      [
       -24.8404,
       58.6659
      ],
      [
       -24.8716,
       58.7137
      ],
      [
       -24.9028,
       58.7615
      ],
      [
       -24.9338,
       58.8093
      ],
      [
       -24.9649,
       58.8571
      ],
      [
       -24.9959,
       58.9049
      ],
      [
       -25.0268,
       58.9527
      ],
      [
       -25.0577,
       59.0005
      ],
      [
       -25.0885,
       59.0484
      ],
      [
       -25.1193,
       59.0962
      ],
      [
       -25.15,
       59.144
      ],
      [
       -25.1807,
       59.1919
      ],
      [
       -25.2113,
       59.2397
      ],
      [
       -25.2418,
       59.2876
      ],
      [
       -25.2723,
       59.3355
      ],
      [
       -25.3028,
       59.3833
      ],
      [
       -25.3332,
       59.4312
      ],
      [
       -25.3635,
       59.4791
      ],
      [
       -25.3938,
       59.527
      ],
      [
       -25.4241,
       59.5749
      ],
      [
       -25.4543,
       59.6228
      ],
      [
       -25.4845,
       59.6707
      ],
      [
       -25.5146,
       59.7186
      ],
      [
       -25.5446,
       59.7665
      ],
      [
       -25.5746,
       59.8145
      ],
      [
       -25.6046,
       59.8624
      ],
      [
       -25.6345,
       59.9104
      ],
      [
       -25.6643,
       59.9583
      ],
      [
       -25.6942,
       60.0063
      ],
      [
       -25.7239,
       60.0543
      ],
      [
       -25.7536,
       60.1023
      ],
      [
       -25.7833,
       60.1503
      ],
      [
       -25.8129,
       60.1983
      ],
      [
       -25.8425,
       60.2463
      ],
      [
       -25.872,
       60.2943
      ],
      [
       -25.9015,
       60.3423
      ],
      [
       -25.931,
       60.3904
      ],
      [
       -25.9603,
       60.4384
      ],
      [
       -25.9897,
       60.4865
      ],
      [
       -26.019,
       60.5345
      ],
      [
       -26.0483,
       60.5826
      ],
      [
       -26.0775,
       60.6307
      ],
      [
       -26.1066,
       60.6788
      ],
      [
       -26.1358,
       60.7269
      ],
      [
       -26.1648,
       60.775
      ],
      [
       -26.1939,
       60.8232
      ],
      [
       -26.2229,
       60.8713
      ],
      [
       -26.2518,
       60.9195
      ],
      [
       -26.2807,
       60.9676
      ],
      [
       -26.3096,
       61.0158
      ],
      [
       -26.3384,
       61.064
      ],
      [
       -26.3672,
       61.1122
      ],
      [
       -26.396,
       61.1604
      ],
      [
       -26.4247,
       61.2087
      ],
      [
       -26.4533,
       61.2569
      ],
      [
       -26.4819,
       61.3051
      ],
      [
       -26.5105,
       61.3534
      ],
      [
       -26.539,
       61.4017
      ],
      [
       -26.5675,
       61.45
      ],
      [
       -26.596,
       61.4983
      ],
      [
       -26.6244,
       61.5466
      ],
      [
       -26.6528,
       61.5949
      ],
      [
       -26.6811,
       61.6433
      ],
      [
       -26.7094,
       61.6916
      ],
      [
       -26.7377,
       61.74
      ],
      [
       -26.7659,
       61.7884
      ],
      [
       -26.7941,
       61.8368
      ],
      [
       -26.8222,
       61.8852
      ],
      [
       -26.8503,
       61.9336
      ],
      [
       -26.8784,
       61.982
      ],
      [
       -26.9064,
       62.0305
      ],
      [
       -26.9344,
       62.079
      ],
      [
       -26.9623,
       62.1274
      ],
      [
       -26.9903,
       62.1759
      ],
      [
       -27.0181,
       62.2245
      ],
      [
       -27.046,
       62.273
      ],
      [
       -27.0738,
       62.3215
      ],
      [
       -27.1015,
       62.3701
      ],
      [
       -27.1293,
       62.4187
      ],
      [
       -27.157,
       62.4673
      ],
      [
       -27.1846,
       62.5159
      ],
      [
       -27.2122,
       62.5645
      ],
      [
       -27.2398,
       62.6131
      ],
      [
       -27.2674,
       62.6618
      ],
      [
       -27.2949,
       62.7105
      ],
      [
       -27.3224,
       62.7592
      ],
      [
       -27.3498,
       62.8079
      ],
      [
       -27.3772,
       62.8566
      ],
      [
       -27.4046,
       62.9053
      ],
      [
       -27.432,
       62.9541
      ],
      [
       -27.4593,
       63.0029
      ],
      [
       -27.4866,
       63.0517
      ],
      [
       -27.5138,
       63.1005
      ],
      [
       -27.541,
       63.1493
      ],
      [
       -27.5682,
       63.1982
      ],
      [
       -27.5953,
       63.2471
      ],
      [
       -27.6224,
       63.2959
      ],
      [
       -27.6495,
       63.3449
      ],
      [
       -27.6766,
       63.3938
      ],
      [
       -27.7036,
       63.4427
      ],
      [
       -27.7305,
       63.4917
      ],
      [
       -27.7575,
       63.5407
      ],
      [
       -27.7844,
       63.5897
      ],
      [
       -27.8113,
       63.6387
      ],
      [
       -27.8381,
       63.6877
      ],
      [
       -27.865,
       63.7368
      ],
      [
       -27.8917,
       63.7859
      ],
      [
       -27.9185,
       63.835
      ],
      [
       -27.9452,
       63.8841
      ],
      [
       -27.9719,
       63.9333
      ],
      [
       -27.9986,
       63.9824
      ],
      [
       -28.0252,
       64.0316
      ],
      [
       -28.0518,
       64.0808
      ],
      [
       -28.0784,
       64.1301
      ],
      [
       -28.1049,
       64.1793
      ],
      [
       -28.1315,
       64.2286
      ],
      [
       -28.1579,
       64.2779
      ],
      [
       -28.1844,
       64.3272
      ],
      [
       -28.2108,
       64.3765
      ],
      [
       -28.2372,
       64.4259
      ],
      [
       -28.2636,
       64.4753
      ],
      [
       -28.2899,
       64.5247
      ],
      [
       -28.3162,
       64.5741
      ],
      [
       -28.3425,
       64.6235
      ],
      [
       -28.3687,
       64.673
      ],
      [
       -28.395,
       64.7225
      ],
      [
       -28.4212,
       64.772
      ],
      [
       -28.4473,
       64.8216
      ],
      [
       -28.4735,
       64.8711
      ],
      [
       -28.4996,
       64.9207
      ],
      [
       -28.5256,
       64.9703
      ],
      [
       -28.5517,
       65.02
      ],
      [
       -28.5777,
       65.0697
      ],
      [
       -28.6037,
       65.1193
      ],
      [
       -28.6297,
       65.1691
      ],
      [
       -28.6556,
       65.2188
      ],
      [
       -28.6815,
       65.2686
      ],
      [
       -28.7074,
       65.3183
      ],
      [
       -28.7333,
       65.3682
      ],
      [
       -28.7591,
       65.418
      ],
      [
       -28.7849,
       65.4679
      ],
      [
       -28.8107,
       65.5177
      ],
      [
       -28.8365,
       65.5677
      ],
      [
       -28.8622,
       65.6176
      ],
      [
       -28.8879,
       65.6676
      ],
      [
       -28.9135,
       65.7176
      ],
      [
       -28.9392,
       65.7676
      ],
      [
       -28.9648,
       65.8176
      ],
      [
       -28.9904,
       65.8677
      ],
      [
       -29.016,
       65.9178
      ],
      [
       -29.0415,
       65.968
      ],
      [
       -29.067,
       66.0181
      ],
      [
       -29.0925,
       66.0683
      ],
      [
       -29.118,
       66.1185
      ],
      [
       -29.1434,
       66.1688
      ],
      [
       -29.1688,
       66.219
      ],
      [
       -29.1942,
       66.2693
      ],
      [
       -29.2196,
       66.3197
      ],
      [
       -29.2449,
       66.37
      ],
      [
       -29.2702,
       66.4204
      ],
      [
       -29.2955,
       66.4708
      ],
      [
       -29.3208,
       66.5213
      ],
      [
       -29.346,
       66.5717
      ],
      [
       -29.3712,
       66.6222
      ],
      [
       -29.3964,
       66.6728
      ],
      [
       -29.4216,
       66.7233
      ],
      [
       -29.4467,
       66.7739
      ],
      [
       -29.4719,
       66.8246
      ],
      [
       -29.4969,
       66.8752
      ],
      [
       -29.522,
       66.9259
      ],
      [
       -29.547,
       66.9766
      ],
      [
       -29.5721,
       67.0274
      ],
      [
       -29.5971,
       67.0782
      ],
      [
       -29.622,
       67.129
      ],
      [
       -29.647,
       67.1798
      ],
      [
       -29.6719,
       67.2307
      ],
      [
       -29.6968,
       67.2816
      ],
      [
       -29.7217,
       67.3325
      ],
      [
       -29.7465,
       67.3835
      ],
      [
       -29.7713,
       67.4345
      ],
      [
       -29.7961,
       67.4856
      ],
      [
       -29.8209,
       67.5366
      ],
      [
       -29.8457,
       67.5878
      ],
      [
       -29.8704,
       67.6389
      ],
      [
       -29.8951,
       67.6901
      ],
      [
       -29.9198,
       67.7413
      ],
      [
       -29.9444,
       67.7925
      ],
      [
       -29.9691,
       67.8438
      ],
      [
       -29.9937,
       67.8951
      ],
      [
       -30.0182,
       67.9465
      ],
      [
       -30.0428,
       67.9978
      ],
      [
       -30.0673,
       68.0493
      ],
      [
       -30.0919,
       68.1007
      ],
      [
       -30.1164,
       68.1522
      ],
      [
       -30.1408,
       68.2037
      ],
      [
       -30.1653,
       68.2553
      ],
      [
       -30.1897,
       68.3069
      ],
      [
       -30.2141,
       68.3585
      ],
      [
       -30.2385,
       68.4102
      ],
      [
       -30.2628,
       68.4619
      ],
      [
       -30.2871,
       68.5136
      ],
      [
       -30.3114,
       68.5654
      ],
      [
       -30.3357,
       68.6172
      ],
      [
       -30.36,
       68.6691
      ],
      [
       -30.3842,
       68.721
      ],
      [
       -30.4084,
       68.7729
      ],
      [
       -30.4326,
       68.8249
      ],
      [
       -30.4567,
       68.8769
      ],
      [
       -30.4809,
       68.9289
      ],
      [
       -30.505,
       68.981
      ],
      [
       -30.5291,
       69.0332
      ],
      [
       -30.5531,
       69.0853
      ],
      [
       -30.5772,
       69.1375
      ],
      [
       -30.6012,
       69.1898
      ],
      [
       -30.6252,
       69.2421
      ],
      [
       -30.6491,
       69.2944
      ],
      [
       -30.6731,
       69.3468
      ],
      [
       -30.697,
       69.3992
      ],
      [
       -30.7209,
       69.4516
      ],
      [
       -30.7447,
       69.5041
      ],
      [
       -30.7686,
       69.5567
      ],
      [
       -30.7924,
       69.6092
      ],
      [
       -30.8162,
       69.6619
      ],
      [
       -30.84,
       69.7145
      ],
      [
       -30.8637,
       69.7672
      ],
      [
       -30.8874,
       69.82
      ],
      [
       -30.9111,
       69.8728
      ],
      [
       -30.9348,
       69.9256
      ],
      [
       -30.9584,
       69.9785
      ],
      [
       -30.982,
       70.0314
      ],
      [
       -31.0056,
       70.0844
      ],
      [
       -31.0292,
       70.1374
      ],
      [
       -31.0527,
       70.1904
      ],
      [
       -31.0762,
       70.2435
      ],
      [
       -31.0997,
       70.2967
      ],
      [
       -31.1232,
       70.3499
      ],
      [
       -31.1466,
       70.4031
      ],
      [
       -31.17,
       70.4564
      ],
      [
       -31.1934,
       70.5097
      ],
      [
       -31.2168,
       70.5631
      ],
      [
       -31.2401,
       70.6165
      ],
      [
       -31.2634,
       70.67
      ],
      [
       -31.2867,
       70.7235
      ],
      [
       -31.3099,
       70.777
      ],
      [
       -31.3331,
       70.8306
      ],
      [
       -31.3563,
       70.8843
      ],
      [
       -31.3795,
       70.938
      ],
      [
       -31.4026,
       70.9918
      ],
      [
       -31.4257,
       71.0456
      ],
      [
       -31.4488,
       71.0994
      ],
      [
       -31.4718,
       71.1533
      ],
      [
       -31.4948,
       71.2073
      ],
      [
       -31.5178,
       71.2613
      ],
      [
       -31.5408,
       71.3153
      ],
      [
       -31.5637,
       71.3694
      ],
      [
       -31.5866,
       71.4236
      ],
      [
       -31.6094,
       71.4778
      ],
      [
       -31.6323,
       71.5321
      ],
      [
       -31.6551,
       71.5864
      ],
      [
       -31.6778,
       71.6407
      ],
      [
       -31.7006,
       71.6951
      ],
      [
       -31.7233,
       71.7496
      ],
      [
       -31.746,
       71.8041
      ],
      [
       -31.7686,
       71.8587
      ],
      [
       -31.7912,
       71.9133
      ],
      [
       -31.8138,
       71.968
      ],
      [
       -31.8363,
       72.0228
      ],
      [
       -31.8588,
       72.0775
      ],
      [
       -31.8813,
       72.1324
      ],
      [
       -31.9037,
       72.1873
      ],
      [
       -31.9261,
       72.2422
      ],
      [
       -31.9485,
       72.2972
      ],
      [
       -31.9708,
       72.3523
      ],
      [
       -31.9931,
       72.4074
      ],
      [
       -32.0153,
       72.4626
      ],
      [
       -32.0376,
       72.5179
      ],
      [
       -32.0597,
       72.5732
      ],
      [
       -32.0819,
       72.6285
      ],
      [
       -32.104,
       72.6839
      ],
      [
       -32.126,
       72.7394
      ],
      [
       -32.1481,
       72.7949
      ],
      [
       -32.17,
       72.8505
      ],
      [
       -32.192,
       72.9061
      ],
      [
       -32.2139,
       72.9619
      ],
      [
       -32.2357,
       73.0176
      ],
      [
       -32.2575,
       73.0734
      ],
      [
       -32.2793,
       73.1293
      ],
      [
       -32.301,
       73.1853
      ],
      [
       -32.3227,
       73.2413
      ],
      [
       -32.3444,
       73.2974
      ],
      [
       -32.366,
       73.3535
      ],
      [
       -32.3875,
       73.4097
      ],
      [
       -32.409,
       73.466
      ],
      [
       -32.4304,
       73.5223
      ],
      [
       -32.4519,
       73.5787
      ],
      [
       -32.4732,
       73.6351
      ],
      [
       -32.4945,
       73.6916
      ],
      [
       -32.5158,
       73.7482
      ],
      [
       -32.537,
       73.8049
      ],
      [
       -32.5581,
       73.8616
      ],
      [
       -32.5792,
       73.9184
      ],
      [
       -32.6003,
       73.9752
      ],
      [
       -32.6212,
       74.0321
      ],
      [
       -32.6422,
       74.0891
      ],
      [
       -32.6631,
       74.1462
      ],
      [
       -32.6839,
       74.2033
      ],
      [
       -32.7046,
       74.2605
      ],
      [
       -32.7253,
       74.3177
      ],
      [
       -32.746,
       74.375
      ],
      [
       -32.7666,
       74.4324
      ],
      [
       -32.7871,
       74.4899
      ],
      [
       -32.8076,
       74.5474
      ],
      [
       -32.8279,
       74.605
      ],
      [
       -32.8483,
       74.6627
      ],
      [
       -32.8685,
       74.7205
      ],
      [
       -32.8887,
       74.7783
      ],
      [
       -32.9089,
       74.8362
      ],
      [
       -32.9289,
       74.8942
      ],
      [
       -32.9489,
       74.9522
      ],
      [
       -32.9688,
       75.0103
      ],
      [
       -32.9887,
       75.0685
      ],
      [
       -33.0084,
       75.1268
      ],
      [
       -33.0281,
       75.1851
      ],
      [
       -33.0477,
       75.2435
      ],
      [
       -33.0673,
       75.302
      ],
      [
       -33.0867,
       75.3606
      ],
      [
       -33.1061,
       75.4192
      ],
      [
       -33.1254,
       75.478
      ],
      [
       -33.1446,
       75.5368
      ],
      [
       -33.1637,
       75.5957
      ],
      [
       -33.1827,
       75.6546
      ],
      [
       -33.2017,
       75.7137
      ],
      [
       -33.2205,
       75.7728
      ],
      [
       -33.2393,
       75.832
      ],
      [
       -33.258,
       75.8913
      ],
      [
       -33.2765,
       75.9507
      ],
      [
       -33.295,
       76.0101
      ],
      [
       -33.3134,
       76.0697
      ],
      [
       -33.3316,
       76.1293
      ],
      [
       -33.3498,
       76.189
      ],
      [
       -33.3678,
       76.2488
      ],
      [
       -33.3858,
       76.3086
      ],
      [
       -33.4036,
       76.3686
      ],
      [
       -33.4213,
       76.4286
      ],
      [
       -33.4389,
       76.4888
      ],
      [
       -33.4564,
       76.549
      ],
      [
       -33.4738,
       76.6093
      ],
      [
       -33.491,
       76.6697
      ],
      [
       -33.5082,
       76.7302
      ],
      [
       -33.5252,
       76.7908
      ],
      [
       -33.542,
       76.8514
      ],
      [
       -33.5588,
       76.9122
      ],
      [
       -33.5753,
       76.9731
      ],
      [
       -33.5918,
       77.034
      ],
      [
       -33.6081,
       77.095
      ],
      [
       -33.6243,
       77.1562
      ],
      [
       -33.6403,
       77.2174
      ],
      [
       -33.6562,
       77.2787
      ],
      [
       -33.6719,
       77.3401
      ],
      [
       -33.6842,
       77.4145
      ],
      [
       -33.6995,
       77.4761
      ],
      [
       -33.7146,
       77.5378
      ],
      [
       -33.7296,
       77.5997
      ],
      [
       -33.7444,
       77.6616
      ],
      [
       -33.759,
       77.7236
      ],
      [
       -33.7735,
       77.7857
      ],
      [
       -33.7878,
       77.8479
      ],
      [
       -33.8018,
       77.9103
      ],
      [
       -33.8157,
       77.9727
      ],
      [
       -33.8294,
       78.0352
      ],
      [
       -33.8428,
       78.0978
      ],
      [
       -33.8561,
       78.1606
      ],
      [
       -33.8692,
       78.2234
      ],
      [
       -33.882,
       78.2864
      ],
      [
       -33.8946,
       78.3494
      ],
      [
       -33.907,
       78.4126
      ],
      [
       -33.9192,
       78.4758
      ],
      [
       -33.9311,
       78.5392
      ],
      [
       -33.9428,
       78.6027
      ],
      [
       -33.9542,
       78.6663
      ],
      [
       -33.9653,
       78.73
      ],
      [
       -33.9762,
       78.7938
      ],
      [
       -33.9869,
       78.8578
      ],
      [
       -33.9972,
       78.9218
      ],
      [
       -34.0073,
       78.986
      ],
      [
       -34.0171,
       79.0503
      ],
      [
       -34.0266,
       79.1147
      ],
      [
       -34.0358,
       79.1792
      ],
      [
       -34.0446,
       79.2438
      ],
      [
       -34.0532,
       79.3085
      ],
      [
       -34.0614,
       79.3734
      ],
      [
       -34.0604,
       79.4522
      ],
      [
       -34.0678,
       79.5173
      ],
      [
       -34.0748,
       79.5825
      ],
      [
       -34.0814,
       79.6479
      ],
      [
       -34.0877,
       79.7134
      ],
      [
       -34.0936,
       79.779
      ],
      [
       -34.0991,
       79.8448
      ],
      [
       -34.1042,
       79.9107
      ],
      [
       -34.1088,
       79.9767
      ],
      [
       -34.1131,
       80.0428
      ],
      [
       -34.1168,
       80.1091
      ],
      [
       -34.1202,
       80.1755
      ],
      [
       -34.1231,
       80.242
      ],
      [
       -34.1254,
       80.3087
      ],
      [
       -34.1273,
       80.3755
      ],
      [
       -34.1287,
       80.4424
      ],
      [
       -34.1296,
       80.5095
      ],
      [
       -34.1299,
       80.5767
      ],
      [
       -34.1149,
       80.6585
      ],
      [
       -34.1138,
       80.726
      ],
      [
       -34.1122,
       80.7936
      ],
      [
       -34.1099,
       80.8614
      ],
      [
       -34.1071,
       80.9294
      ],
      [
       -34.1035,
       80.9975
      ],
      [
       -34.0993,
       81.0657
      ],
      [
       -34.0945,
       81.134
      ],
      [
       -34.0889,
       81.2026
      ],
      [
       -34.0826,
       81.2712
      ],
      [
       -34.0755,
       81.34
      ],
      [
       -34.047,
       81.424
      ],
      [
       -34.038,
       81.4932
      ],
      [
       -34.0282,
       81.5625
      ],
      [
       -34.0175,
       81.6319
      ],
      [
       -34.0059,
       81.7015
      ],
      [
       -33.9934,
       81.7713
      ],
      [
       -33.98,
       81.8412
      ],
      [
       -33.9656,
       81.9113
      ],
      [
       -33.9501,
       81.9815
      ],
      [
       -33.9066,
       82.0675
      ],
      [
       -33.8885,
       82.1381
      ],
      [
       -33.8693,
       82.2088
      ],
      [
       -33.849,
       82.2798
      ],
      [
       -33.8274,
       82.3509
      ],
      [
       -33.8046,
       82.4221
      ],
      [
       -33.7804,
       82.4936
      ],
      [
       -33.7211,
       82.5812
      ],
      [
       -33.6936,
       82.653
      ],
      [
       -33.6646,
       82.725
      ],
      [
       -33.6341,
       82.7971
      ],
      [
       -33.6021,
       82.8695
      ],
      [
       -33.5279,
       82.9584
      ],
      [
       -33.4917,
       83.0311
      ],
      [
       -33.4537,
       83.104
      ],
      [
       -33.4138,
       83.1771
      ],
      [
       -33.3721,
       83.2504
      ],
      [
       -33.2801,
       83.3407
      ],
      [
       -33.2333,
       83.4144
      ],
      [
       -33.1842,
       83.4882
      ],
      [
       -33.1328,
       83.5623
      ],
      [
       -33.0231,
       83.6538
      ],
      [
       -32.9657,
       83.7282
      ],
      [
       -32.9056,
       83.8029
      ],
      [
       -32.7792,
       83.8953
      ],
      [
       -32.7121,
       83.9704
      ],
      [
       -32.6419,
       84.0457
      ],
      [
       -32.5685,
       84.1212
      ],
      [
       -32.4183,
       84.2148
      ],
      [
       -32.3364,
       84.2907
      ],
      [
       -32.1695,
       84.3851
      ],
      [
       -32.078,
       84.4614
      ],
      [
       -31.9824,
       84.538
      ],
      [
       -31.7905,
       84.6333
      ],
      [
       -31.6837,
       84.7103
      ],
      [
       -31.4706,
       84.8063
      ],
      [
       -31.351,
       84.8838
      ],
      [
       -31.1143,
       84.9805
      ],
      [
       -30.9805,
       85.0584
      ],
      [
       -30.7174,
       85.1558
      ],
      [
       -30.5672,
       85.2341
      ],
      [
       -30.2745,
       85.3322
      ],
      [
       -30.1057,
       85.411
      ],
      [
       -29.7795,
       85.5096
      ],
      [
       -29.5895,
       85.5889
      ],
      [
       -29.2254,
       85.6881
      ],
      [
       -29.0108,
       85.7678
      ],
      [
       -28.6035,
       85.8676
      ],
      [
       -28.1658,
       85.9678
      ],
      [
       -27.9037,
       86.048
      ],
      [
       -27.4122,
       86.1486
      ],
      [
       -27.1137,
       86.2292
      ],
      [
       -26.56,
       86.3302
      ],
      [
       -25.9627,
       86.4314
      ],
      [
       -25.5925,
       86.5123
      ],
      [
       -24.9156,
       86.6137
      ],
      [
       -24.183,
       86.7151
      ],
      [
       -23.7187,
       86.7961
      ],
      [
       -22.8826,
       86.8975
      ],
      [
       -22.3434,
       86.9785
      ],
      [
       -21.384,
       87.0795
      ],
      [
       -20.7541,
       87.1603
      ],
      [
       -19.6465,
       87.2607
      ],
      [
       -18.9057,
       87.3411
      ],
      [
       -17.6188,
       87.4404
      ],
      [
       -16.7416,
       87.5201
      ],
      [
       -15.2359,
       87.6177
      ],
      [
       -14.1894,
       87.6963
      ],
      [
       -12.4155,
       87.7916
      ],
      [
       -11.158,
       87.8684
      ],
      [
       -9.7959,
       87.9444
      ],
      [
       -8.3182,
       88.0193
      ],
      [
       -5.8799,
       88.1077
      ],
      [
       -4.082,
       88.1792
      ],
      [
       -2.1241,
       88.249
      ],
      [
       1.0329,
       88.3281
      ],
      [
       3.422,
       88.3924
      ],
      [
       6.0239,
       88.4537
      ],
      [
       8.8547,
       88.5117
      ],
      [
       13.2347,
       88.5706
      ],
      [
       16.6245,
       88.6184
      ],
      [
       21.708,
       88.6608
      ],
      [
       25.6434,
       88.6954
      ],
      [
       29.7988,
       88.7234
      ],
      [
       35.6607,
       88.7354
      ],
      [
       40.1392,
       88.746
      ],
      [
       44.6924,
       88.7486
      ],
      [
       49.2615,
       88.743
      ],
      [
       52.4428,
       88.7483
      ],
      [
       56.9524,
       88.7287
      ],
      [
       60.1231,
       88.7239
      ],
      [
       64.4093,
       88.6906
      ],
      [
       67.4531,
       88.6758
      ],
      [
       70.4341,
       88.6569
      ],
      [
       73.3359,
       88.6337
      ],
      [
       76.1443,
       88.6066
      ],
      [
       78.8484,
       88.5755
      ],
      [
       80.7349,
       88.5699
      ],
      [
       83.2735,
       88.532
      ],
      [
       85.6865,
       88.4906
      ],
      [
       87.4327,
       88.4756
      ],
      [
       89.6474,
       88.428
      ],
      [
       91.2818,
       88.4069
      ],
      [
       93.2895,
       88.3534
      ],
      [
       94.7965,
       88.3262
      ],
      [
       96.25,
       88.2958
      ],
      [
       97.9699,
       88.2342
      ],
      [
       99.284,
       88.1979
      ],
      [
       100.8086,
       88.1313
      ],
      [
       102.2276,
       88.0624
      ],
      [
       103.3284,
       88.0179
      ],
      [
       104.5778,
       87.9445
      ],
      [
       105.7393,
       87.869
      ],
      [
       106.8193,
       87.7916
      ],
      [
       107.8238,
       87.7122
      ],
      [
       108.7582,
       87.6309
      ],
      [
       109.6277,
       87.5478
      ],
      [
       110.437,
       87.4628
      ],
      [
       111.1905,
       87.3761
      ],
      [
       111.9981,
       87.264
      ],
      [
       112.646,
       87.1741
      ],
      [
       113.25,
       87.0825
      ],
      [
       113.8991,
       86.9662
      ],
      [
       114.4206,
       86.8715
      ],
      [
       114.9821,
       86.7524
      ],
      [
       115.4334,
       86.6546
      ],
      [
       115.9208,
       86.5326
      ],
      [
       116.3724,
       86.409
      ],
      [
       116.7362,
       86.3068
      ],
      [
       117.1297,
       86.1803
      ],
      [
       117.4949,
       86.0521
      ],
      [
       117.834,
       85.9222
      ],
      [
       118.1073,
       85.8139
      ],
      [
       118.4032,
       85.6809
      ],
      [
       118.6778,
       85.5461
      ],
      [
       118.8975,
       85.4328
      ],
      [
       119.1367,
       85.2945
      ],
      [
       119.3581,
       85.1542
      ],
      [
       119.5629,
       85.012
      ],
      [
       119.7521,
       84.8676
      ],
      [
       119.9264,
       84.7211
      ],
      [
       120.0866,
       84.5723
      ],
      [
       120.2335,
       84.4212
      ],
      [
       120.3676,
       84.2676
      ],
      [
       120.4895,
       84.1114
      ],
      [
       120.5998,
       83.9525
      ],
      [
       120.6987,
       83.7907
      ],
      [
       120.7455,
       83.7039
      ],
      [
       120.7868,
       83.626
      ],
      [
       120.8283,
       83.5374
      ],
      [
       120.8644,
       83.4581
      ],
      [
       120.9008,
       83.3676
      ],
      [
       120.9317,
       83.2868
      ],
      [
       120.9631,
       83.1944
      ],
      [
       120.989,
       83.112
      ],
      [
       121.0156,
       83.0174
      ],
      [
       121.0365,
       82.9334
      ],
      [
       121.0582,
       82.8366
      ],
      [
       121.0744,
       82.7508
      ],
      [
       121.0913,
       82.6515
      ],
      [
       121.1027,
       82.5638
      ],
      [
       121.1148,
       82.462
      ],
      [
       121.1214,
       82.3722
      ],
      [
       121.1287,
       82.2676
      ],
      [
       121.1331,
       82.0679
      ],
      [
       121.1277,
       81.8625
      ],
      [
       121.1125,
       81.6509
      ],
      [
       121.0872,
       81.4324
      ],
      [
       121.0513,
       81.2063
      ],
      [
       121.0044,
       80.9718
      ],
      [
       120.9459,
       80.7278
      ],
      [
       120.8749,
       80.473
      ],
      [
       120.7904,
       80.2058
      ],
      [
       120.6907,
       79.9242
      ],
      [
       120.5741,
       79.6255
      ],
      [
       120.4377,
       79.3061
      ],
      [
       120.2777,
       78.9607
      ],
      [
       120.0881,
       78.5817
      ],
      [
       119.8594,
       78.1566
      ],
      [
       119.5735,
       77.6624
      ],
      [
       119.1899,
       77.0463
      ],
      [
       118.9565,
       76.6996
      ],
      [
       118.546,
       76.0981
      ],
      [
       118.1284,
       75.5627
      ],
      [
       117.857,
       75.4628
      ],
      [
       117.4269,
       75.4157
      ],
      [
       116.7905,
       75.3592
      ],
      [
       112.2409,
       75.2977
      ],
      [
       108.7341,
       76.4676
      ]
     ]
    ]
   }
  }
 ]
}
