{
 "type": "FeatureCollection",
 "properties": {
  "eclipse": "Total solar eclipse of 2026 August 12",
  "source": "Besselian elements: NASA/GSFC, Fred Espenak — https://eclipse.gsfc.nasa.gov/SEsearch/SEdata.php?Ecl=20260812",
  "deltaTSeconds": 75.4
 },
 "features": [
  {
   "type": "Feature",
   "properties": {
    "kind": "centerline",
    "title": "Central line of the total solar eclipse of 2026 Aug 12",
    "startUtc": "2026-08-12T17:00:15.000Z",
    "endUtc": "2026-08-12T18:31:45.000Z",
    "maxDurationSeconds": 136.5
   },
   "geometry": {
    "type": "LineString",
    "coordinates": [
     [
      113.9795,
      77.5365
     ],
     [
      113.9829,
      79.4942
     ],
     [
      113.4799,
      80.8231
     ],
     [
      112.625,
      81.8972
     ],
     [
      111.4238,
      82.8205
     ],
     [
      109.8353,
      83.6389
     ],
     [
      107.7835,
      84.3768
     ],
     [
      105.1545,
      85.0478
     ],
     [
      101.7858,
      85.659
     ],
     [
      97.4518,
      86.2127
     ],
     [
      91.8517,
      86.7063
     ],
     [
      84.6175,
      87.1324
     ],
     [
      75.3931,
      87.4774
     ],
     [
      64.0599,
      87.7232
     ],
     [
      51.0991,
      87.8516
     ],
     [
      37.7347,
      87.8551
     ],
     [
      25.4097,
      87.7439
     ],
     [
      15.0145,
      87.5416
     ],
     [
      6.6998,
      87.275
     ],
     [
      0.1928,
      86.9661
     ],
     [
      -4.8874,
      86.6303
     ],
     [
      -8.8833,
      86.2782
     ],
     [
      -12.0627,
      85.9164
     ],
     [
      -14.6242,
      85.5495
     ],
     [
      -16.7131,
      85.1803
     ],
     [
      -18.4357,
      84.8108
     ],
     [
      -19.8703,
      84.4422
     ],
     [
      -21.0757,
      84.0754
     ],
     [
      -22.0962,
      83.7109
     ],
     [
      -22.9658,
      83.3492
     ],
     [
      -23.711,
      82.9904
     ],
     [
      -24.3526,
      82.6348
     ],
     [
      -24.9072,
      82.2823
     ],
     [
      -25.388,
      81.933
     ],
     [
      -25.8059,
      81.587
     ],
     [
      -26.1697,
      81.2441
     ],
     [
      -26.4867,
      80.9044
     ],
     [
      -26.7631,
      80.5678
     ],
     [
      -27.004,
      80.2341
     ],
     [
      -27.2136,
      79.9034
     ],
     [
      -27.3956,
      79.5756
     ],
     [
      -27.5532,
      79.2505
     ],
     [
      -27.689,
      78.9282
     ],
     [
      -27.8054,
      78.6085
     ],
     [
      -27.9043,
      78.2914
     ],
     [
      -27.9875,
      77.9768
     ],
     [
      -28.0565,
      77.6646
     ],
     [
      -28.1127,
      77.3547
     ],
     [
      -28.1573,
      77.0472
     ],
     [
      -28.1913,
      76.7418
     ],
     [
      -28.2155,
      76.4386
     ],
     [
      -28.2309,
      76.1375
     ],
     [
      -28.2382,
      75.8384
     ],
     [
      -28.238,
      75.5412
     ],
     [
      -28.2309,
      75.246
     ],
     [
      -28.2174,
      74.9526
     ],
     [
      -28.198,
      74.6611
     ],
     [
      -28.1732,
      74.3712
     ],
     [
      -28.1433,
      74.0831
     ],
     [
      -28.1086,
      73.7966
     ],
     [
      -28.0695,
      73.5117
     ],
     [
      -28.0263,
      73.2284
     ],
     [
      -27.9792,
      72.9466
     ],
     [
      -27.9284,
      72.6663
     ],
     [
      -27.8742,
      72.3874
     ],
     [
      -27.8168,
      72.1098
     ],
     [
      -27.7563,
      71.8336
     ],
     [
      -27.6929,
      71.5588
     ],
     [
      -27.6268,
      71.2852
     ],
     [
      -27.558,
      71.0128
     ],
     [
      -27.4868,
      70.7417
     ],
     [
      -27.4132,
      70.4717
     ],
     [
      -27.3373,
      70.2028
     ],
     [
      -27.2593,
      69.9351
     ],
     [
      -27.1791,
      69.6684
     ],
     [
      -27.097,
      69.4028
     ],
     [
      -27.0129,
      69.1381
     ],
     [
      -26.9269,
      68.8745
     ],
     [
      -26.8391,
      68.6118
     ],
     [
      -26.7496,
      68.35
     ],
     [
      -26.6584,
      68.0892
     ],
     [
      -26.5655,
      67.8292
     ],
     [
      -26.4709,
      67.57
     ],
     [
      -26.3748,
      67.3117
     ],
     [
      -26.2771,
      67.0542
     ],
     [
      -26.1779,
      66.7974
     ],
     [
      -26.0772,
      66.5414
     ],
     [
      -25.9751,
      66.2861
     ],
     [
      -25.8714,
      66.0315
     ],
     [
      -25.7663,
      65.7776
     ],
     [
      -25.6598,
      65.5243
     ],
     [
      -25.5519,
      65.2716
     ],
     [
      -25.4426,
      65.0196
     ],
     [
      -25.3318,
      64.7682
     ],
     [
      -25.2197,
      64.5173
     ],
     [
      -25.1062,
      64.2669
     ],
     [
      -24.9913,
      64.0171
     ],
     [
      -24.875,
      63.7678
     ],
     [
      -24.7572,
      63.5189
     ],
     [
      -24.6381,
      63.2706
     ],
     [
      -24.5176,
      63.0226
     ],
     [
      -24.3957,
      62.7751
     ],
     [
      -24.2723,
      62.528
     ],
     [
      -24.1475,
      62.2812
     ],
     [
      -24.0212,
      62.0348
     ],
     [
      -23.8934,
      61.7887
     ],
     [
      -23.7642,
      61.543
     ],
     [
      -23.6334,
      61.2976
     ],
     [
      -23.5012,
      61.0524
     ],
     [
      -23.3673,
      60.8075
     ],
     [
      -23.2319,
      60.5628
     ],
     [
      -23.0949,
      60.3183
     ],
     [
      -22.9563,
      60.0741
     ],
     [
      -22.816,
      59.83
     ],
     [
      -22.674,
      59.586
     ],
     [
      -22.5303,
      59.3422
     ],
     [
      -22.3849,
      59.0985
     ],
     [
      -22.2376,
      58.8549
     ],
     [
      -22.0886,
      58.6114
     ],
     [
      -21.9376,
      58.3679
     ],
     [
      -21.7848,
      58.1244
     ],
     [
      -21.6299,
      57.8809
     ],
     [
      -21.4731,
      57.6374
     ],
     [
      -21.3143,
      57.3939
     ],
     [
      -21.1533,
      57.1503
     ],
     [
      -20.9902,
      56.9066
     ],
     [
      -20.8248,
      56.6627
     ],
     [
      -20.6572,
      56.4188
     ],
     [
      -20.4872,
      56.1746
     ],
     [
      -20.3149,
      55.9303
     ],
     [
      -20.14,
      55.6857
     ],
     [
      -19.9626,
      55.4409
     ],
     [
      -19.7826,
      55.1958
     ],
     [
      -19.5999,
      54.9504
     ],
     [
      -19.4144,
      54.7047
     ],
     [
      -19.226,
      54.4585
     ],
     [
      -19.0346,
      54.212
     ],
     [
      -18.8402,
      53.965
     ],
     [
      -18.6426,
      53.7175
     ],
     [
      -18.4416,
      53.4695
     ],
     [
      -18.2373,
      53.2209
     ],
     [
      -18.0294,
      52.9718
     ],
     [
      -17.8179,
      52.722
     ],
     [
      -17.6026,
      52.4715
     ],
     [
      -17.3833,
      52.2202
     ],
     [
      -17.1598,
      51.9682
     ],
     [
      -16.9321,
      51.7153
     ],
     [
      -16.6999,
      51.4615
     ],
     [
      -16.4631,
      51.2068
     ],
     [
      -16.2213,
      50.951
     ],
     [
      -15.9745,
      50.6942
     ],
     [
      -15.7224,
      50.4362
     ],
     [
      -15.4646,
      50.1769
     ],
     [
      -15.201,
      49.9163
     ],
     [
      -14.9312,
      49.6543
     ],
     [
      -14.6549,
      49.3908
     ],
     [
      -14.3717,
      49.1257
     ],
     [
      -14.0812,
      48.8588
     ],
     [
      -13.7831,
      48.5901
     ],
     [
      -13.4769,
      48.3194
     ],
     [
      -13.1619,
      48.0466
     ],
     [
      -12.8377,
      47.7714
     ],
     [
      -12.5037,
      47.4938
     ],
     [
      -12.159,
      47.2135
     ],
     [
      -11.803,
      46.9303
     ],
     [
      -11.4346,
      46.644
     ],
     [
      -11.053,
      46.3542
     ],
     [
      -10.6568,
      46.0606
     ],
     [
      -10.2448,
      45.7628
     ],
     [
      -9.8154,
      45.4605
     ],
     [
      -9.3668,
      45.1531
     ],
     [
      -8.8967,
      44.84
     ],
     [
      -8.4025,
      44.5204
     ],
     [
      -7.8811,
      44.1935
     ],
     [
      -7.3284,
      43.8583
     ],
     [
      -6.7395,
      43.5132
     ],
     [
      -6.1078,
      43.1566
     ],
     [
      -5.4247,
      42.786
     ],
     [
      -4.6779,
      42.3981
     ],
     [
      -3.8498,
      41.9881
     ],
     [
      -2.9126,
      41.5485
     ],
     [
      -1.8179,
      41.0659
     ],
     [
      -0.4654,
      40.5132
     ],
     [
      1.4409,
      39.8099
     ]
    ]
   }
  },
  {
   "type": "Feature",
   "properties": {
    "kind": "greatest-eclipse",
    "title": "Greatest eclipse",
    "timeUtc": "2026-08-12T17:45:50.000Z",
    "durationSeconds": 136.5,
    "sunAltitudeDeg": 24.8
   },
   "geometry": {
    "type": "Point",
    "coordinates": [
     -25.5311,
     65.2234
    ]
   }
  }
 ]
}
